"Longitude (x)","Latitude (y)","Station Name","Climate ID","Date/Time (LST)","Year","Month","Day","Time (LST)","Temp (°C)","Temp Flag","Dew Point Temp (°C)","Dew Point Temp Flag","Rel Hum (%)","Rel Hum Flag","Precip. Amount (mm)","Precip. Amount Flag","Wind Dir (10s deg)","Wind Dir Flag","Wind Spd (km/h)","Wind Spd Flag","Visibility (km)","Visibility Flag","Stn Press (kPa)","Stn Press Flag","Hmdx","Hmdx Flag","Wind Chill","Wind Chill Flag","Weather"
"-73.58","45.50","MCTAVISH","7024745","2015-01-01 00:00","2015","01","01","00:00","-6.6","","-15.8","","48","","","","19","","9","","","","100.26","","","","-11","","NA"
"-73.58","45.50","MCTAVISH","7024745","2015-01-01 01:00","2015","01","01","01:00","-7.0","","-11.4","","71","","","","19","","10","","","","100.22","","","","-12","","NA"
"-73.58","45.50","MCTAVISH","7024745","2015-01-01 02:00","2015","01","01","02:00","-7.0","","-12.1","","67","","","","18","","9","","","","100.19","","","","-11","","NA"
"-73.58","45.50","MCTAVISH","7024745","2015-01-01 03:00","2015","01","01","03:00","-7.2","","-10.4","","78","","","","19","","9","","","","100.19","","","","-12","","NA"
"-73.58","45.50","MCTAVISH","7024745","2015-01-01 04:00","2015","01","01","04:00","-7.5","","-10.6","","78","","","","18","","12","","","","100.15","","","","-13","","NA"
"-73.58","45.50","MCTAVISH","7024745","2015-01-01 05:00","2015","01","01","05:00","-7.5","","-11.0","","76","","","","19","","11","","","","100.13","","","","-13","","NA"
"-73.58","45.50","MCTAVISH","7024745","2015-01-01 06:00","2015","01","01","06:00","-7.3","","-11.1","","74","","","","18","","8","","","","100.12","","","","-11","","NA"
"-73.58","45.50","MCTAVISH","7024745","2015-01-01 07:00","2015","01","01","07:00","-7.3","","-11.8","","70","","","","18","","6","","","","100.05","","","","-10","","NA"
"-73.58","45.50","MCTAVISH","7024745","2015-01-01 08:00","2015","01","01","08:00","-6.4","","-13.1","","59","","","","18","","10","","","","100.05","","","","-11","","NA"
"-73.58","45.50","MCTAVISH","7024745","2015-01-01 09:00","2015","01","01","09:00","-5.2","","-11.7","","60","","","","20","","8","","","","100.02","","","","-9","","NA"
"-73.58","45.50","MCTAVISH","7024745","2015-01-01 10:00","2015","01","01","10:00","-4.8","","-10.9","","62","","","","18","","9","","","","99.98","","","","-9","","NA"
"-73.58","45.50","MCTAVISH","7024745","2015-01-01 11:00","2015","01","01","11:00","-4.3","","-8.1","","75","","","","20","","14","","","","99.87","","","","-9","","NA"
"-73.58","45.50","MCTAVISH","7024745","2015-01-01 12:00","2015","01","01","12:00","-3.9","","-7.9","","74","","","","20","","14","","","","99.76","","","","-9","","NA"
"-73.58","45.50","MCTAVISH","7024745","2015-01-01 13:00","2015","01","01","13:00","-4.3","","-6.6","","84","","","","18","","14","","","","99.71","","","","-9","","NA"
"-73.58","45.50","MCTAVISH","7024745","2015-01-01 14:00","2015","01","01","14:00","-3.6","","-6.3","","82","","","","18","","13","","","","99.69","","","","-8","","NA"
"-73.58","45.50","MCTAVISH","7024745","2015-01-01 15:00","2015","01","01","15:00","-3.7","","-5.6","","87","","","","18","","11","","","","99.67","","","","-8","","NA"
"-73.58","45.50","MCTAVISH","7024745","2015-01-01 16:00","2015","01","01","16:00","-3.5","","-5.3","","87","","","","20","","12","","","","99.70","","","","-8","","NA"
"-73.58","45.50","MCTAVISH","7024745","2015-01-01 17:00","2015","01","01","17:00","-3.8","","-5.6","","87","","","","18","","11","","","","99.70","","","","-8","","NA"
"-73.58","45.50","MCTAVISH","7024745","2015-01-01 18:00","2015","01","01","18:00","-4.1","","-5.5","","90","","","","18","","14","","","","99.68","","","","-9","","NA"
"-73.58","45.50","MCTAVISH","7024745","2015-01-01 19:00","2015","01","01","19:00","-4.0","","-5.5","","89","","","","19","","12","","","","99.71","","","","-9","","NA"
"-73.58","45.50","MCTAVISH","7024745","2015-01-01 20:00","2015","01","01","20:00","-3.8","","-5.0","","91","","","","19","","7","","","","99.70","","","","-7","","NA"
"-73.58","45.50","MCTAVISH","7024745","2015-01-01 21:00","2015","01","01","21:00","-3.5","","-4.7","","91","","","","19","","10","","","","99.72","","","","-7","","NA"
"-73.58","45.50","MCTAVISH","7024745","2015-01-01 22:00","2015","01","01","22:00","-3.1","","-5.8","","82","","","","20","","10","","","","99.78","","","","-7","","NA"
"-73.58","45.50","MCTAVISH","7024745","2015-01-01 23:00","2015","01","01","23:00","-3.3","","-7.9","","70","","","","19","","8","","","","99.84","","","","-7","","NA"
"-73.58","45.50","MCTAVISH","7024745","2015-01-02 00:00","2015","01","02","00:00","-3.7","","-8.3","","70","","","","19","","9","","","","99.85","","","","-7","","NA"
"-73.58","45.50","MCTAVISH","7024745","2015-01-02 01:00","2015","01","02","01:00","-3.5","","-8.4","","68","","","","19","","7","","","","99.91","","","","-6","","NA"
"-73.58","45.50","MCTAVISH","7024745","2015-01-02 02:00","2015","01","02","02:00","-3.6","","-8.5","","69","","","","19","","6","","","","99.96","","","","-6","","NA"
"-73.58","45.50","MCTAVISH","7024745","2015-01-02 03:00","2015","01","02","03:00","-4.0","","-6.6","","83","","","","29","","5","","","","100.09","","","","-6","","NA"
"-73.58","45.50","MCTAVISH","7024745","2015-01-02 04:00","2015","01","02","04:00","-4.3","","-8.7","","71","","","","19","","6","","","","100.10","","","","-7","","NA"
"-73.58","45.50","MCTAVISH","7024745","2015-01-02 05:00","2015","01","02","05:00","-5.5","","-11.4","","63","","","","31","","6","","","","100.29","","","","-8","","NA"
"-73.58","45.50","MCTAVISH","7024745","2015-01-02 06:00","2015","01","02","06:00","-6.8","","-15.3","","51","","","","30","","5","","","","100.48","","","","-9","","NA"
"-73.58","45.50","MCTAVISH","7024745","2015-01-02 07:00","2015","01","02","07:00","-8.0","","-16.2","","51","","","","30","","3","","","","100.59","","","","-10","","NA"
"-73.58","45.50","MCTAVISH","7024745","2015-01-02 08:00","2015","01","02","08:00","-8.8","","-16.9","","52","","","","3","","3","","","","100.72","","","","-10","","NA"
"-73.58","45.50","MCTAVISH","7024745","2015-01-02 09:00","2015","01","02","09:00","-8.6","","-16.4","","53","","","","12","","4","","","","100.91","","","","-11","","NA"
"-73.58","45.50","MCTAVISH","7024745","2015-01-02 10:00","2015","01","02","10:00","-8.0","","-16.9","","49","","","","35","","5","","","","100.97","","","","-11","","NA"
"-73.58","45.50","MCTAVISH","7024745","2015-01-02 11:00","2015","01","02","11:00","-8.3","","-17.2","","49","","","","16","","5","","","","101.00","","","","-11","","NA"
"-73.58","45.50","MCTAVISH","7024745","2015-01-02 12:00","2015","01","02","12:00","-7.3","","-16.3","","48","","","","21","","5","","","","101.00","","","","-10","","NA"
"-73.58","45.50","MCTAVISH","7024745","2015-01-02 13:00","2015","01","02","13:00","-7.4","","-16.7","","47","","","","18","","10","","","","101.05","","","","-12","","NA"
"-73.58","45.50","MCTAVISH","7024745","2015-01-02 14:00","2015","01","02","14:00","-7.1","","-17.0","","45","","","","18","","7","","","","101.17","","","","-11","","NA"
"-73.58","45.50","MCTAVISH","7024745","2015-01-02 15:00","2015","01","02","15:00","-7.6","","-18.5","","41","","","","19","","5","","","","101.28","","","","-10","","NA"
"-73.58","45.50","MCTAVISH","7024745","2015-01-02 16:00","2015","01","02","16:00","-8.5","","-19.2","","42","","","","18","","7","","","","101.39","","","","-12","","NA"
"-73.58","45.50","MCTAVISH","7024745","2015-01-02 17:00","2015","01","02","17:00","-8.7","","-19.2","","43","","","","19","","4","","","","101.54","","","","-11","","NA"
"-73.58","45.50","MCTAVISH","7024745","2015-01-02 18:00","2015","01","02","18:00","-9.2","","-19.7","","42","","","","22","","3","","","","101.67","","","","-11","","NA"
"-73.58","45.50","MCTAVISH","7024745","2015-01-02 19:00","2015","01","02","19:00","-9.9","","-20.1","","43","","","","16","","3","","","","101.82","","","","-12","","NA"
"-73.58","45.50","MCTAVISH","7024745","2015-01-02 20:00","2015","01","02","20:00","-10.4","","-20.6","","43","","","","16","","3","","","","101.91","","","","-12","","NA"
"-73.58","45.50","MCTAVISH","7024745","2015-01-02 21:00","2015","01","02","21:00","-11.2","","-20.8","","45","","","","19","","2","","","","102.03","","","","-12","","NA"
"-73.58","45.50","MCTAVISH","7024745","2015-01-02 22:00","2015","01","02","22:00","-11.3","","-20.3","","47","","","","15","","2","","","","102.11","","","","-13","","NA"
"-73.58","45.50","MCTAVISH","7024745","2015-01-02 23:00","2015","01","02","23:00","-11.7","","-20.1","","50","","","","10","","2","","","","102.25","","","","-13","","NA"
"-73.58","45.50","MCTAVISH","7024745","2015-01-03 00:00","2015","01","03","00:00","-12.4","","-21.3","","47","","","","22","","3","","","","102.35","","","","-14","","NA"
"-73.58","45.50","MCTAVISH","7024745","2015-01-03 01:00","2015","01","03","01:00","-13.0","","-21.3","","50","","","","23","","2","","","","102.42","","","","-14","","NA"
"-73.58","45.50","MCTAVISH","7024745","2015-01-03 02:00","2015","01","03","02:00","-12.7","","-21.2","","49","","","","8","","2","","","","102.49","","","","-14","","NA"
"-73.58","45.50","MCTAVISH","7024745","2015-01-03 03:00","2015","01","03","03:00","-13.2","","-21.5","","50","","","","5","","1","","","","102.57","","","","-14","","NA"
"-73.58","45.50","MCTAVISH","7024745","2015-01-03 04:00","2015","01","03","04:00","-13.0","","-21.9","","47","","","","31","","3","","","","102.57","","","","-15","","NA"
"-73.58","45.50","MCTAVISH","7024745","2015-01-03 05:00","2015","01","03","05:00","-12.9","","-22.3","","45","","","","3","","3","","","","102.65","","","","-15","","NA"
"-73.58","45.50","MCTAVISH","7024745","2015-01-03 06:00","2015","01","03","06:00","-13.9","","-20.9","","55","","","","7","","7","","","","102.72","","","","-19","","NA"
"-73.58","45.50","MCTAVISH","7024745","2015-01-03 07:00","2015","01","03","07:00","-14.0","","-21.6","","52","","","","6","","5","","","","102.75","","","","-17","","NA"
"-73.58","45.50","MCTAVISH","7024745","2015-01-03 08:00","2015","01","03","08:00","-14.9","","-21.3","","58","","","","7","","7","","","","102.73","","","","-20","","NA"
"-73.58","45.50","MCTAVISH","7024745","2015-01-03 09:00","2015","01","03","09:00","-14.4","","-21.3","","55","","","","5","","7","","","","102.77","","","","-19","","NA"
"-73.58","45.50","MCTAVISH","7024745","2015-01-03 10:00","2015","01","03","10:00","-13.6","","-20.4","","56","","","","3","","6","","","","102.75","","","","-18","","NA"
"-73.58","45.50","MCTAVISH","7024745","2015-01-03 11:00","2015","01","03","11:00","-13.0","","-19.7","","57","","","","4","","5","","","","102.71","","","","-16","","NA"
"-73.58","45.50","MCTAVISH","7024745","2015-01-03 12:00","2015","01","03","12:00","-12.6","","-19.7","","55","","","","5","","5","","","","102.76","","","","-16","","NA"
"-73.58","45.50","MCTAVISH","7024745","2015-01-03 13:00","2015","01","03","13:00","-12.3","","-18.4","","60","","","","4","","6","","","","102.54","","","","-16","","NA"
"-73.58","45.50","MCTAVISH","7024745","2015-01-03 14:00","2015","01","03","14:00","-11.7","","-17.2","","64","","","","4","","4","","","","102.46","","","","-14","","NA"
"-73.58","45.50","MCTAVISH","7024745","2015-01-03 15:00","2015","01","03","15:00","-11.7","","-17.1","","64","","","","5","","7","","","","102.36","","","","-16","","NA"
"-73.58","45.50","MCTAVISH","7024745","2015-01-03 16:00","2015","01","03","16:00","-12.0","","-15.3","","76","","","","5","","4","","","","102.28","","","","-15","","NA"
"-73.58","45.50","MCTAVISH","7024745","2015-01-03 17:00","2015","01","03","17:00","-12.5","","-14.6","","84","","","","3","","5","","","","102.09","","","","-16","","NA"
"-73.58","45.50","MCTAVISH","7024745","2015-01-03 18:00","2015","01","03","18:00","-12.5","","-14.4","","86","","","","30","","5","","","","101.96","","","","-16","","NA"
"-73.58","45.50","MCTAVISH","7024745","2015-01-03 19:00","2015","01","03","19:00","-12.1","","-13.9","","87","","","","32","","4","","","","101.79","","","","-15","","NA"
"-73.58","45.50","MCTAVISH","7024745","2015-01-03 20:00","2015","01","03","20:00","-11.8","","-13.5","","87","","","","33","","4","","","","101.61","","","","-14","","NA"
"-73.58","45.50","MCTAVISH","7024745","2015-01-03 21:00","2015","01","03","21:00","-11.4","","-12.9","","88","","","","30","","3","","","","101.45","","","","-13","","NA"
"-73.58","45.50","MCTAVISH","7024745","2015-01-03 22:00","2015","01","03","22:00","-10.4","","-11.8","","90","","","","30","","4","","","","101.26","","","","-13","","NA"
"-73.58","45.50","MCTAVISH","7024745","2015-01-03 23:00","2015","01","03","23:00","-9.6","","-10.9","","90","","","","30","","3","","","","101.16","","","","-11","","NA"
"-73.58","45.50","MCTAVISH","7024745","2015-01-04 00:00","2015","01","04","00:00","-8.7","","-9.9","","91","","","","30","","4","","","","100.94","","","","-11","","NA"
"-73.58","45.50","MCTAVISH","7024745","2015-01-04 01:00","2015","01","04","01:00","-8.1","","-9.2","","92","","","","2","","5","","","","100.81","","","","-11","","NA"
"-73.58","45.50","MCTAVISH","7024745","2015-01-04 02:00","2015","01","04","02:00","-7.0","","-8.0","","93","","","","2","","4","","","","100.65","","","","-9","","NA"
"-73.58","45.50","MCTAVISH","7024745","2015-01-04 03:00","2015","01","04","03:00","-6.8","","-7.8","","93","","","","30","","4","","","","100.51","","","","-9","","NA"
"-73.58","45.50","MCTAVISH","7024745","2015-01-04 04:00","2015","01","04","04:00","-6.1","","-7.0","","94","","","","30","","2","","","","100.31","","","","-7","","NA"
"-73.58","45.50","MCTAVISH","7024745","2015-01-04 05:00","2015","01","04","05:00","-5.4","","-6.1","","94","","","","2","","4","","","","100.15","","","","-7","","NA"
"-73.58","45.50","MCTAVISH","7024745","2015-01-04 06:00","2015","01","04","06:00","-5.9","","-6.6","","94","","","","30","","4","","","","100.02","","","","-8","","NA"
"-73.58","45.50","MCTAVISH","7024745","2015-01-04 07:00","2015","01","04","07:00","-5.4","","-6.1","","95","","","","4","","4","","","","99.88","","","","-7","","NA"
"-73.58","45.50","MCTAVISH","7024745","2015-01-04 08:00","2015","01","04","08:00","-4.6","","-5.2","","96","","","","5","","4","","","","99.77","","","","-6","","NA"
"-73.58","45.50","MCTAVISH","7024745","2015-01-04 09:00","2015","01","04","09:00","-3.8","","-4.2","","97","","","","36","","5","","","","99.70","","","","-6","","NA"
"-73.58","45.50","MCTAVISH","7024745","2015-01-04 10:00","2015","01","04","10:00","-3.1","","-3.4","","98","","","","31","","3","","","","99.56","","","","-4","","NA"
"-73.58","45.50","MCTAVISH","7024745","2015-01-04 11:00","2015","01","04","11:00","-2.1","","-2.3","","99","","","","","","0","","","","99.40","","","","","","NA"
"-73.58","45.50","MCTAVISH","7024745","2015-01-04 12:00","2015","01","04","12:00","-1.2","","-1.3","","99","","","","","","0","","","","99.10","","","","","","NA"
"-73.58","45.50","MCTAVISH","7024745","2015-01-04 13:00","2015","01","04","13:00","-1.6","","-1.7","","99","","","","","","0","","","","98.99","","","","","","NA"
"-73.58","45.50","MCTAVISH","7024745","2015-01-04 14:00","2015","01","04","14:00","-1.4","","-1.4","","99","","","","","","0","","","","98.87","","","","","","NA"
"-73.58","45.50","MCTAVISH","7024745","2015-01-04 15:00","2015","01","04","15:00","-1.2","","-1.3","","99","","","","","","0","","","","98.81","","","","","","NA"
"-73.58","45.50","MCTAVISH","7024745","2015-01-04 16:00","2015","01","04","16:00","-1.4","","-1.5","","100","","","","","","0","","","","98.68","","","","","","NA"
"-73.58","45.50","MCTAVISH","7024745","2015-01-04 17:00","2015","01","04","17:00","0.3","","0.3","","100","","","","","","0","","","","98.76","","","","","","NA"
"-73.58","45.50","MCTAVISH","7024745","2015-01-04 18:00","2015","01","04","18:00","3.1","","3.1","","100","","","","","","0","","","","98.75","","","","","","NA"
"-73.58","45.50","MCTAVISH","7024745","2015-01-04 19:00","2015","01","04","19:00","3.0","","3.0","","100","","","","","","0","","","","98.83","","","","","","NA"
"-73.58","45.50","MCTAVISH","7024745","2015-01-04 20:00","2015","01","04","20:00","2.8","","2.7","","99","","","","18","","2","","","","98.85","","","","","","NA"
"-73.58","45.50","MCTAVISH","7024745","2015-01-04 21:00","2015","01","04","21:00","1.5","","-0.1","","89","","","","19","","8","","","","98.97","","","","","","NA"
"-73.58","45.50","MCTAVISH","7024745","2015-01-04 22:00","2015","01","04","22:00","-0.5","","-3.9","","78","","","","15","","5","","","","98.95","","","","-2","","NA"
"-73.58","45.50","MCTAVISH","7024745","2015-01-04 23:00","2015","01","04","23:00","-1.7","","-4.5","","81","","","","16","","5","","","","99.10","","","","-4","","NA"
"-73.58","45.50","MCTAVISH","7024745","2015-01-05 00:00","2015","01","05","00:00","-3.4","","-6.3","","80","","","","19","","10","","","","99.21","","","","-7","","NA"
"-73.58","45.50","MCTAVISH","7024745","2015-01-05 01:00","2015","01","05","01:00","-4.8","","-8.7","","74","","","","21","","11","","","","99.33","","","","-9","","NA"
"-73.58","45.50","MCTAVISH","7024745","2015-01-05 02:00","2015","01","05","02:00","-5.7","","-9.4","","76","","","","18","","10","","","","99.51","","","","-10","","NA"
"-73.58","45.50","MCTAVISH","7024745","2015-01-05 03:00","2015","01","05","03:00","-6.6","","-11.1","","70","","","","19","","10","","","","99.63","","","","-11","","NA"
"-73.58","45.50","MCTAVISH","7024745","2015-01-05 04:00","2015","01","05","04:00","-7.1","","-12.3","","66","","","","17","","9","","","","99.72","","","","-11","","NA"
"-73.58","45.50","MCTAVISH","7024745","2015-01-05 05:00","2015","01","05","05:00","-8.4","","-14.3","","63","","","","19","","15","","","","99.82","","","","-15","","NA"
"-73.58","45.50","MCTAVISH","7024745","2015-01-05 06:00","2015","01","05","06:00","-10.4","","-15.4","","67","","","","19","","14","","","","99.95","","","","-17","","NA"
"-73.58","45.50","MCTAVISH","7024745","2015-01-05 07:00","2015","01","05","07:00","-12.0","","-16.5","","69","","","","21","","7","","","","100.17","","","","-16","","NA"
"-73.58","45.50","MCTAVISH","7024745","2015-01-05 08:00","2015","01","05","08:00","-13.0","","-17.4","","69","","","","12","","6","","","","100.38","","","","-17","","NA"
"-73.58","45.50","MCTAVISH","7024745","2015-01-05 09:00","2015","01","05","09:00","-13.7","","-18.0","","70","","","","19","","6","","","","100.58","","","","-18","","NA"
"-73.58","45.50","MCTAVISH","7024745","2015-01-05 10:00","2015","01","05","10:00","-14.1","","-18.9","","67","","","","20","","10","","","","100.72","","","","-20","","NA"
"-73.58","45.50","MCTAVISH","7024745","2015-01-05 11:00","2015","01","05","11:00","-14.2","","-19.1","","66","","","","19","","10","","","","100.77","","","","-20","","NA"
"-73.58","45.50","MCTAVISH","7024745","2015-01-05 12:00","2015","01","05","12:00","-14.5","","-20.1","","63","","","","22","","8","","","","100.83","","","","-20","","NA"
"-73.58","45.50","MCTAVISH","7024745","2015-01-05 13:00","2015","01","05","13:00","-15.1","","-20.9","","61","","","","19","","11","","","","100.86","","","","-22","","NA"
"-73.58","45.50","MCTAVISH","7024745","2015-01-05 14:00","2015","01","05","14:00","-14.9","","-20.4","","63","","","","22","","7","","","","101.00","","","","-20","","NA"
"-73.58","45.50","MCTAVISH","7024745","2015-01-05 15:00","2015","01","05","15:00","-15.7","","-20.1","","69","","","","21","","8","","","","101.13","","","","-21","","NA"
"-73.58","45.50","MCTAVISH","7024745","2015-01-05 16:00","2015","01","05","16:00","-16.2","","-21.0","","66","","","","19","","8","","","","101.27","","","","-22","","NA"
"-73.58","45.50","MCTAVISH","7024745","2015-01-05 17:00","2015","01","05","17:00","-16.7","","-22.2","","63","","","","19","","7","","","","101.44","","","","-22","","NA"
"-73.58","45.50","MCTAVISH","7024745","2015-01-05 18:00","2015","01","05","18:00","-17.1","","-23.0","","60","","","","24","","6","","","","101.54","","","","-22","","NA"
"-73.58","45.50","MCTAVISH","7024745","2015-01-05 19:00","2015","01","05","19:00","-17.1","","-22.6","","62","","","","19","","5","","","","101.62","","","","-21","","NA"
"-73.58","45.50","MCTAVISH","7024745","2015-01-05 20:00","2015","01","05","20:00","-17.1","","-22.9","","61","","","","21","","7","","","","101.70","","","","-22","","NA"
"-73.58","45.50","MCTAVISH","7024745","2015-01-05 21:00","2015","01","05","21:00","-16.8","","-22.2","","63","","","","17","","4","","","","101.71","","","","-20","","NA"
"-73.58","45.50","MCTAVISH","7024745","2015-01-05 22:00","2015","01","05","22:00","-16.3","","-24.0","","51","","","","10","","5","","","","101.63","","","","-20","","NA"
"-73.58","45.50","MCTAVISH","7024745","2015-01-05 23:00","2015","01","05","23:00","-16.9","","-24.0","","54","","","","33","","6","","","","101.61","","","","-21","","NA"
"-73.58","45.50","MCTAVISH","7024745","2015-01-06 00:00","2015","01","06","00:00","-17.3","","-23.7","","57","","","","27","","3","","","","101.62","","","","-20","","NA"
"-73.58","45.50","MCTAVISH","7024745","2015-01-06 01:00","2015","01","06","01:00","-17.3","","-23.0","","61","","","","13","","2","","","","101.67","","","","-19","","NA"
"-73.58","45.50","MCTAVISH","7024745","2015-01-06 02:00","2015","01","06","02:00","-17.6","","-22.9","","63","","","","17","","3","","","","101.67","","","","-20","","NA"
"-73.58","45.50","MCTAVISH","7024745","2015-01-06 03:00","2015","01","06","03:00","-17.5","","-22.9","","63","","","","17","","3","","","","101.68","","","","-20","","NA"
"-73.58","45.50","MCTAVISH","7024745","2015-01-06 04:00","2015","01","06","04:00","-16.9","","-21.3","","69","","","","13","","2","","","","101.59","","","","-18","","NA"
"-73.58","45.50","MCTAVISH","7024745","2015-01-06 05:00","2015","01","06","05:00","-17.9","","-21.4","","74","","","","23","","3","","","","101.53","","","","-20","","NA"
"-73.58","45.50","MCTAVISH","7024745","2015-01-06 06:00","2015","01","06","06:00","-16.8","","-20.3","","74","","","","21","","4","","","","101.54","","","","-20","","NA"
"-73.58","45.50","MCTAVISH","7024745","2015-01-06 07:00","2015","01","06","07:00","-16.9","","-19.7","","79","","","","24","","5","","","","101.50","","","","-21","","NA"
"-73.58","45.50","MCTAVISH","7024745","2015-01-06 08:00","2015","01","06","08:00","-16.2","","-18.8","","80","","","","23","","6","","","","101.48","","","","-21","","NA"
"-73.58","45.50","MCTAVISH","7024745","2015-01-06 09:00","2015","01","06","09:00","-15.2","","-17.8","","81","","","","22","","4","","","","101.41","","","","-18","","NA"
"-73.58","45.50","MCTAVISH","7024745","2015-01-06 10:00","2015","01","06","10:00","-14.4","","-17.0","","81","","","","19","","5","","","","101.37","","","","-18","","NA"
"-73.58","45.50","MCTAVISH","7024745","2015-01-06 11:00","2015","01","06","11:00","-13.3","","-16.6","","76","","","","17","","6","","","","101.22","","","","-17","","NA"
"-73.58","45.50","MCTAVISH","7024745","2015-01-06 12:00","2015","01","06","12:00","-12.4","","-16.4","","72","","","","18","","7","","","","101.06","","","","-17","","NA"
"-73.58","45.50","MCTAVISH","7024745","2015-01-06 13:00","2015","01","06","13:00","-11.5","","-15.8","","70","","","","21","","6","","","","100.91","","","","-15","","NA"
"-73.58","45.50","MCTAVISH","7024745","2015-01-06 14:00","2015","01","06","14:00","-10.9","","-15.1","","71","","","","19","","6","","","","100.84","","","","-15","","NA"
"-73.58","45.50","MCTAVISH","7024745","2015-01-06 15:00","2015","01","06","15:00","-10.4","","-14.2","","73","","","","14","","5","","","","100.77","","","","-13","","NA"
"-73.58","45.50","MCTAVISH","7024745","2015-01-06 16:00","2015","01","06","16:00","-9.9","","-14.3","","70","","","","18","","4","","","","100.70","","","","-12","","NA"
"-73.58","45.50","MCTAVISH","7024745","2015-01-06 17:00","2015","01","06","17:00","-9.8","","-13.1","","77","","","","14","","4","","","","100.61","","","","-12","","NA"
"-73.58","45.50","MCTAVISH","7024745","2015-01-06 18:00","2015","01","06","18:00","-9.6","","-11.6","","85","","","","18","","7","","","","100.55","","","","-14","","NA"
"-73.58","45.50","MCTAVISH","7024745","2015-01-06 19:00","2015","01","06","19:00"
"-73.58","45.50","MCTAVISH","7024745","2015-01-06 20:00","2015","01","06","20:00"
"-73.58","45.50","MCTAVISH","7024745","2015-01-06 21:00","2015","01","06","21:00"
"-73.58","45.50","MCTAVISH","7024745","2015-01-06 22:00","2015","01","06","22:00"
"-73.58","45.50","MCTAVISH","7024745","2015-01-06 23:00","2015","01","06","23:00"
"-73.58","45.50","MCTAVISH","7024745","2015-01-07 00:00","2015","01","07","00:00"
"-73.58","45.50","MCTAVISH","7024745","2015-01-07 01:00","2015","01","07","01:00"
"-73.58","45.50","MCTAVISH","7024745","2015-01-07 02:00","2015","01","07","02:00"
"-73.58","45.50","MCTAVISH","7024745","2015-01-07 03:00","2015","01","07","03:00"
"-73.58","45.50","MCTAVISH","7024745","2015-01-07 04:00","2015","01","07","04:00"
"-73.58","45.50","MCTAVISH","7024745","2015-01-07 05:00","2015","01","07","05:00"
"-73.58","45.50","MCTAVISH","7024745","2015-01-07 06:00","2015","01","07","06:00"
"-73.58","45.50","MCTAVISH","7024745","2015-01-07 07:00","2015","01","07","07:00"
"-73.58","45.50","MCTAVISH","7024745","2015-01-07 08:00","2015","01","07","08:00"
"-73.58","45.50","MCTAVISH","7024745","2015-01-07 09:00","2015","01","07","09:00"
"-73.58","45.50","MCTAVISH","7024745","2015-01-07 10:00","2015","01","07","10:00"
"-73.58","45.50","MCTAVISH","7024745","2015-01-07 11:00","2015","01","07","11:00"
"-73.58","45.50","MCTAVISH","7024745","2015-01-07 12:00","2015","01","07","12:00"
"-73.58","45.50","MCTAVISH","7024745","2015-01-07 13:00","2015","01","07","13:00","-15.3","","-17.6","","82","","","","4","","6","","","","100.26","","","","-20","","NA"
"-73.58","45.50","MCTAVISH","7024745","2015-01-07 14:00","2015","01","07","14:00"
"-73.58","45.50","MCTAVISH","7024745","2015-01-07 15:00","2015","01","07","15:00","-17.0","","-19.5","","81","","","","28","","4","","","","100.63","","","","-20","","NA"
"-73.58","45.50","MCTAVISH","7024745","2015-01-07 16:00","2015","01","07","16:00","-18.6","","-21.0","","82","","","","23","","6","","","","100.80","","","","-23","","NA"
"-73.58","45.50","MCTAVISH","7024745","2015-01-07 17:00","2015","01","07","17:00","-20.0","","-22.6","","80","","","","28","","6","","","","100.99","","","","-25","","NA"
"-73.58","45.50","MCTAVISH","7024745","2015-01-07 18:00","2015","01","07","18:00","-21.2","","-24.2","","77","","","","26","","7","","","","101.12","","","","-27","","NA"
"-73.58","45.50","MCTAVISH","7024745","2015-01-07 19:00","2015","01","07","19:00","-22.2","","-25.3","","76","","","","29","","5","","","","101.27","","","","-27","","NA"
"-73.58","45.50","MCTAVISH","7024745","2015-01-07 20:00","2015","01","07","20:00","-23.2","","-26.5","","75","","","","29","","5","","","","101.35","","","","-28","","NA"
"-73.58","45.50","MCTAVISH","7024745","2015-01-07 21:00","2015","01","07","21:00","-24.1","","-27.4","","74","","","","27","","6","","","","101.42","","","","-30","","NA"
"-73.58","45.50","MCTAVISH","7024745","2015-01-07 22:00","2015","01","07","22:00","-24.7","","-28.2","","73","","","","28","","5","","","","101.51","","","","-30","","NA"
"-73.58","45.50","MCTAVISH","7024745","2015-01-07 23:00","2015","01","07","23:00","-25.1","","-28.7","","72","","","","18","","5","","","","101.51","","","","-30","","NA"
"-73.58","45.50","MCTAVISH","7024745","2015-01-08 00:00","2015","01","08","00:00","-25.4","","-29.1","","71","","","","20","","4","","","","101.52","","","","-29","","NA"
"-73.58","45.50","MCTAVISH","7024745","2015-01-08 01:00","2015","01","08","01:00","-25.9","","-29.6","","71","","","","20","","5","","","","101.48","","","","-31","","NA"
"-73.58","45.50","MCTAVISH","7024745","2015-01-08 02:00","2015","01","08","02:00","-26.1","","-29.8","","71","","","","17","","3","","","","101.50","","","","-29","","NA"
"-73.58","45.50","MCTAVISH","7024745","2015-01-08 03:00","2015","01","08","03:00","-26.4","","-30.0","","71","","","","19","","6","","","","101.50","","","","-32","","NA"
"-73.58","45.50","MCTAVISH","7024745","2015-01-08 04:00","2015","01","08","04:00","-26.6","","-30.3","","71","","","","20","","4","","","","101.45","","","","-31","","NA"
"-73.58","45.50","MCTAVISH","7024745","2015-01-08 05:00","2015","01","08","05:00","-25.8","","-29.5","","71","","","","16","","5","","","","101.37","","","","-31","","NA"
"-73.58","45.50","MCTAVISH","7024745","2015-01-08 06:00","2015","01","08","06:00","-25.3","","-28.5","","74","","","","23","","5","","","","101.39","","","","-30","","NA"
"-73.58","45.50","MCTAVISH","7024745","2015-01-08 07:00","2015","01","08","07:00","-24.6","","-27.7","","75","","","","17","","6","","","","101.37","","","","-30","","NA"
"-73.58","45.50","MCTAVISH","7024745","2015-01-08 08:00","2015","01","08","08:00","-23.9","","-27.0","","76","","","","17","","4","","","","101.32","","","","-28","","NA"
"-73.58","45.50","MCTAVISH","7024745","2015-01-08 09:00","2015","01","08","09:00","-23.0","","-26.3","","75","","","","18","","9","","","","101.29","","","","-30","","NA"
"-73.58","45.50","MCTAVISH","7024745","2015-01-08 10:00","2015","01","08","10:00","-21.4","","-24.3","","77","","","","17","","4","","","","101.22","","","","-25","","NA"
"-73.58","45.50","MCTAVISH","7024745","2015-01-08 11:00","2015","01","08","11:00","-20.1","","-23.3","","76","","","","18","","6","","","","101.13","","","","-25","","NA"
"-73.58","45.50","MCTAVISH","7024745","2015-01-08 12:00","2015","01","08","12:00","-18.9","","-21.8","","78","","","","18","","6","","","","101.07","","","","-24","","NA"
"-73.58","45.50","MCTAVISH","7024745","2015-01-08 13:00","2015","01","08","13:00","-17.6","","-20.6","","77","","","","22","","7","","","","100.96","","","","-23","","NA"
"-73.58","45.50","MCTAVISH","7024745","2015-01-08 14:00","2015","01","08","14:00","-16.5","","-19.2","","79","","","","18","","5","","","","100.89","","","","-20","","NA"
"-73.58","45.50","MCTAVISH","7024745","2015-01-08 15:00","2015","01","08","15:00","-15.5","","-17.8","","82","","","","15","","4","","","","100.85","","","","-18","","NA"
"-73.58","45.50","MCTAVISH","7024745","2015-01-08 16:00","2015","01","08","16:00","-14.2","","-16.1","","86","","","","18","","6","","","","100.77","","","","-18","","NA"
"-73.58","45.50","MCTAVISH","7024745","2015-01-08 17:00","2015","01","08","17:00","-12.0","","-13.7","","88","","","","14","","3","","","","100.71","","","","-14","","NA"
"-73.58","45.50","MCTAVISH","7024745","2015-01-08 18:00","2015","01","08","18:00","-11.2","","-12.9","","88","","","","15","","3","","","","100.65","","","","-13","","NA"
"-73.58","45.50","MCTAVISH","7024745","2015-01-08 19:00","2015","01","08","19:00","-10.6","","-12.2","","88","","","","19","","8","","","","100.60","","","","-15","","NA"
"-73.58","45.50","MCTAVISH","7024745","2015-01-08 20:00","2015","01","08","20:00","-9.5","","-11.2","","88","","","","18","","5","","","","100.56","","","","-12","","NA"
"-73.58","45.50","MCTAVISH","7024745","2015-01-08 21:00","2015","01","08","21:00","-9.0","","-11.0","","85","","","","17","","4","","","","100.47","","","","-11","","NA"
"-73.58","45.50","MCTAVISH","7024745","2015-01-08 22:00","2015","01","08","22:00","-8.1","","-12.6","","70","","","","19","","12","","","","100.38","","","","-14","","NA"
"-73.58","45.50","MCTAVISH","7024745","2015-01-08 23:00","2015","01","08","23:00","-8.3","","-13.1","","68","","","","20","","12","","","","100.27","","","","-14","","NA"
"-73.58","45.50","MCTAVISH","7024745","2015-01-09 00:00","2015","01","09","00:00","-9.0","","-10.9","","86","","","","17","","6","","","","100.16","","","","-12","","NA"
"-73.58","45.50","MCTAVISH","7024745","2015-01-09 01:00","2015","01","09","01:00","-9.2","","-11.6","","83","","","","18","","3","","","","100.04","","","","-11","","NA"
"-73.58","45.50","MCTAVISH","7024745","2015-01-09 02:00","2015","01","09","02:00","-8.7","","-13.4","","69","","","","17","","5","","","","99.90","","","","-11","","NA"
"-73.58","45.50","MCTAVISH","7024745","2015-01-09 03:00","2015","01","09","03:00","-9.5","","-11.7","","84","","","","18","","7","","","","99.82","","","","-13","","NA"
"-73.58","45.50","MCTAVISH","7024745","2015-01-09 04:00","2015","01","09","04:00","-9.5","","-11.0","","89","","","","18","","4","","","","99.69","","","","-12","","NA"
"-73.58","45.50","MCTAVISH","7024745","2015-01-09 05:00","2015","01","09","05:00","-9.7","","-11.2","","89","","","","15","","5","","","","99.60","","","","-13","","NA"
"-73.58","45.50","MCTAVISH","7024745","2015-01-09 06:00","2015","01","09","06:00","-9.6","","-11.1","","89","","","","17","","6","","","","99.57","","","","-13","","NA"
"-73.58","45.50","MCTAVISH","7024745","2015-01-09 07:00","2015","01","09","07:00","-9.4","","-10.8","","89","","","","17","","5","","","","99.54","","","","-12","","NA"
"-73.58","45.50","MCTAVISH","7024745","2015-01-09 08:00","2015","01","09","08:00","-8.9","","-10.5","","89","","","","18","","8","","","","99.54","","","","-13","","NA"
"-73.58","45.50","MCTAVISH","7024745","2015-01-09 09:00","2015","01","09","09:00","-8.8","","-10.2","","89","","","","19","","8","","","","99.59","","","","-13","","NA"
"-73.58","45.50","MCTAVISH","7024745","2015-01-09 10:00","2015","01","09","10:00","-7.7","","-9.6","","86","","","","17","","10","","","","99.66","","","","-13","","NA"
"-73.58","45.50","MCTAVISH","7024745","2015-01-09 11:00","2015","01","09","11:00","-7.1","","-9.8","","81","","","","20","","10","","","","99.63","","","","-12","","NA"
"-73.58","45.50","MCTAVISH","7024745","2015-01-09 12:00","2015","01","09","12:00","-7.0","","-10.7","","75","","","","21","","12","","","","99.64","","","","-12","","NA"
"-73.58","45.50","MCTAVISH","7024745","2015-01-09 13:00","2015","01","09","13:00","-6.9","","-10.2","","77","","","","20","","10","","","","99.69","","","","-12","","NA"
"-73.58","45.50","MCTAVISH","7024745","2015-01-09 14:00","2015","01","09","14:00","-6.5","","-11.4","","68","","","","21","","10","","","","99.77","","","","-11","","NA"
"-73.58","45.50","MCTAVISH","7024745","2015-01-09 15:00","2015","01","09","15:00","-6.3","","-12.6","","61","","","","20","","10","","","","99.91","","","","-11","","NA"
"-73.58","45.50","MCTAVISH","7024745","2015-01-09 16:00","2015","01","09","16:00","-7.0","","-12.0","","67","","","","21","","6","","","","100.05","","","","-10","","NA"
"-73.58","45.50","MCTAVISH","7024745","2015-01-09 17:00","2015","01","09","17:00","-7.4","","-13.3","","62","","","","20","","5","","","","100.16","","","","-10","","NA"
"-73.58","45.50","MCTAVISH","7024745","2015-01-09 18:00","2015","01","09","18:00","-7.5","","-14.2","","58","","","","19","","5","","","","100.20","","","","-10","","NA"
"-73.58","45.50","MCTAVISH","7024745","2015-01-09 19:00","2015","01","09","19:00","-7.6","","-13.5","","63","","","","18","","6","","","","100.27","","","","-11","","NA"
"-73.58","45.50","MCTAVISH","7024745","2015-01-09 20:00","2015","01","09","20:00","-8.0","","-12.9","","68","","","","18","","6","","","","100.37","","","","-11","","NA"
"-73.58","45.50","MCTAVISH","7024745","2015-01-09 21:00","2015","01","09","21:00","-9.2","","-16.0","","58","","","","20","","8","","","","100.51","","","","-14","","NA"
"-73.58","45.50","MCTAVISH","7024745","2015-01-09 22:00","2015","01","09","22:00","-10.9","","-18.5","","53","","","","20","","6","","","","100.66","","","","-15","","NA"
"-73.58","45.50","MCTAVISH","7024745","2015-01-09 23:00","2015","01","09","23:00","-11.8","","-18.9","","56","","","","21","","5","","","","100.78","","","","-15","","NA"
"-73.58","45.50","MCTAVISH","7024745","2015-01-10 00:00","2015","01","10","00:00","-12.7","","-19.0","","59","","","","19","","4","","","","100.85","","","","-15","","NA"
"-73.58","45.50","MCTAVISH","7024745","2015-01-10 01:00","2015","01","10","01:00","-12.8","","-19.9","","56","","","","20","","3","","","","100.92","","","","-15","","NA"
"-73.58","45.50","MCTAVISH","7024745","2015-01-10 02:00","2015","01","10","02:00","-12.6","","-20.3","","53","","","","21","","5","","","","100.97","","","","-16","","NA"
"-73.58","45.50","MCTAVISH","7024745","2015-01-10 03:00","2015","01","10","03:00","-12.4","","-19.1","","58","","","","19","","5","","","","101.01","","","","-16","","NA"
"-73.58","45.50","MCTAVISH","7024745","2015-01-10 04:00","2015","01","10","04:00","-12.2","","-18.0","","62","","","","19","","7","","","","101.00","","","","-17","","NA"
"-73.58","45.50","MCTAVISH","7024745","2015-01-10 05:00","2015","01","10","05:00","-12.0","","-18.5","","58","","","","18","","6","","","","101.00","","","","-16","","NA"
"-73.58","45.50","MCTAVISH","7024745","2015-01-10 06:00","2015","01","10","06:00","-11.7","","-17.5","","62","","","","19","","8","","","","101.07","","","","-16","","NA"
"-73.58","45.50","MCTAVISH","7024745","2015-01-10 07:00","2015","01","10","07:00","-11.9","","-16.1","","71","","","","17","","9","","","","101.13","","","","-17","","NA"
"-73.58","45.50","MCTAVISH","7024745","2015-01-10 08:00","2015","01","10","08:00","-11.8","","-15.7","","73","","","","20","","9","","","","101.23","","","","-17","","NA"
"-73.58","45.50","MCTAVISH","7024745","2015-01-10 09:00","2015","01","10","09:00","-11.4","","-15.4","","72","","","","22","","13","","","","101.31","","","","-18","","NA"
"-73.58","45.50","MCTAVISH","7024745","2015-01-10 10:00","2015","01","10","10:00","-11.7","","-15.7","","72","","","","21","","12","","","","101.39","","","","-18","","NA"
"-73.58","45.50","MCTAVISH","7024745","2015-01-10 11:00","2015","01","10","11:00","-11.3","","-16.4","","66","","","","20","","9","","","","101.47","","","","-16","","NA"
"-73.58","45.50","MCTAVISH","7024745","2015-01-10 12:00","2015","01","10","12:00","-10.7","","-16.4","","63","","","","20","","11","","","","101.45","","","","-16","","NA"
"-73.58","45.50","MCTAVISH","7024745","2015-01-10 13:00","2015","01","10","13:00","-10.2","","-16.5","","60","","","","19","","9","","","","101.44","","","","-15","","NA"
"-73.58","45.50","MCTAVISH","7024745","2015-01-10 14:00","2015","01","10","14:00","-9.9","","-17.0","","56","","","","23","","10","","","","101.41","","","","-15","","NA"
"-73.58","45.50","MCTAVISH","7024745","2015-01-10 15:00","2015","01","10","15:00","-9.6","","-17.1","","55","","","","20","","10","","","","101.45","","","","-15","","NA"
"-73.58","45.50","MCTAVISH","7024745","2015-01-10 16:00","2015","01","10","16:00","-9.8","","-17.2","","54","","","","20","","7","","","","101.47","","","","-14","","NA"
"-73.58","45.50","MCTAVISH","7024745","2015-01-10 17:00","2015","01","10","17:00","-9.7","","-16.5","","58","","","","23","","8","","","","101.50","","","","-14","","NA"
"-73.58","45.50","MCTAVISH","7024745","2015-01-10 18:00","2015","01","10","18:00","-9.4","","-15.4","","62","","","","19","","6","","","","101.51","","","","-13","","NA"
"-73.58","45.50","MCTAVISH","7024745","2015-01-10 19:00","2015","01","10","19:00","-9.2","","-14.2","","67","","","","18","","10","","","","101.50","","","","-14","","NA"
"-73.58","45.50","MCTAVISH","7024745","2015-01-10 20:00","2015","01","10","20:00","-8.8","","-13.0","","72","","","","17","","10","","","","101.53","","","","-14","","NA"
"-73.58","45.50","MCTAVISH","7024745","2015-01-10 21:00","2015","01","10","21:00","-8.7","","-12.3","","75","","","","18","","10","","","","101.53","","","","-14","","NA"
"-73.58","45.50","MCTAVISH","7024745","2015-01-10 22:00","2015","01","10","22:00","-9.2","","-11.6","","83","","","","22","","11","","","","101.60","","","","-15","","NA"
"-73.58","45.50","MCTAVISH","7024745","2015-01-10 23:00","2015","01","10","23:00","-9.2","","-11.4","","84","","","","19","","9","","","","101.63","","","","-14","","NA"
"-73.58","45.50","MCTAVISH","7024745","2015-01-11 00:00","2015","01","11","00:00","-9.2","","-11.9","","81","","","","20","","11","","","","101.67","","","","-15","","NA"
"-73.58","45.50","MCTAVISH","7024745","2015-01-11 01:00","2015","01","11","01:00","-9.4","","-12.0","","81","","","","20","","10","","","","101.77","","","","-15","","NA"
"-73.58","45.50","MCTAVISH","7024745","2015-01-11 02:00","2015","01","11","02:00","-9.6","","-12.9","","76","","","","19","","8","","","","101.87","","","","-14","","NA"
"-73.58","45.50","MCTAVISH","7024745","2015-01-11 03:00","2015","01","11","03:00","-9.8","","-14.4","","69","","","","20","","8","","","","101.97","","","","-14","","NA"
"-73.58","45.50","MCTAVISH","7024745","2015-01-11 04:00","2015","01","11","04:00","-10.2","","-15.1","","67","","","","18","","7","","","","102.05","","","","-14","","NA"
"-73.58","45.50","MCTAVISH","7024745","2015-01-11 05:00","2015","01","11","05:00","-10.1","","-14.6","","70","","","","20","","7","","","","102.09","","","","-14","","NA"
"-73.58","45.50","MCTAVISH","7024745","2015-01-11 06:00","2015","01","11","06:00","-10.1","","-13.7","","75","","","","22","","10","","","","102.13","","","","-15","","NA"
"-73.58","45.50","MCTAVISH","7024745","2015-01-11 07:00","2015","01","11","07:00","-9.4","","-12.6","","77","","","","18","","6","","","","102.14","","","","-13","","NA"
"-73.58","45.50","MCTAVISH","7024745","2015-01-11 08:00","2015","01","11","08:00","-9.4","","-12.4","","79","","","","19","","8","","","","102.13","","","","-14","","NA"
"-73.58","45.50","MCTAVISH","7024745","2015-01-11 09:00","2015","01","11","09:00","-8.6","","-12.0","","76","","","","16","","3","","","","102.19","","","","-10","","NA"
"-73.58","45.50","MCTAVISH","7024745","2015-01-11 10:00","2015","01","11","10:00","-7.8","","-11.8","","73","","","","19","","5","","","","102.21","","","","-10","","NA"
"-73.58","45.50","MCTAVISH","7024745","2015-01-11 11:00","2015","01","11","11:00","-6.9","","-11.5","","70","","","","15","","4","","","","102.15","","","","-9","","NA"
"-73.58","45.50","MCTAVISH","7024745","2015-01-11 12:00","2015","01","11","12:00","-6.6","","-11.3","","69","","","","18","","7","","","","102.03","","","","-10","","NA"
"-73.58","45.50","MCTAVISH","7024745","2015-01-11 13:00","2015","01","11","13:00","-6.3","","-11.4","","67","","","","19","","9","","","","101.94","","","","-11","","NA"
"-73.58","45.50","MCTAVISH","7024745","2015-01-11 14:00","2015","01","11","14:00","-5.7","","-11.4","","64","","","","19","","5","","","","101.93","","","","-8","","NA"
"-73.58","45.50","MCTAVISH","7024745","2015-01-11 15:00","2015","01","11","15:00","-5.8","","-10.9","","67","","","","17","","6","","","","101.93","","","","-9","","NA"
"-73.58","45.50","MCTAVISH","7024745","2015-01-11 16:00","2015","01","11","16:00","-5.7","","-10.9","","67","","","","13","","3","","","","101.90","","","","-7","","NA"
"-73.58","45.50","MCTAVISH","7024745","2015-01-11 17:00","2015","01","11","17:00","-6.0","","-10.9","","68","","","","18","","5","","","","101.90","","","","-8","","NA"
"-73.58","45.50","MCTAVISH","7024745","2015-01-11 18:00","2015","01","11","18:00","-5.6","","-10.9","","66","","","","18","","4","","","","101.92","","","","-7","","NA"
"-73.58","45.50","MCTAVISH","7024745","2015-01-11 19:00","2015","01","11","19:00","-5.5","","-11.2","","64","","","","19","","7","","","","101.90","","","","-9","","NA"
"-73.58","45.50","MCTAVISH","7024745","2015-01-11 20:00","2015","01","11","20:00","-5.1","","-11.2","","63","","","","18","","7","","","","101.94","","","","-8","","NA"
"-73.58","45.50","MCTAVISH","7024745","2015-01-11 21:00","2015","01","11","21:00","-5.3","","-11.5","","62","","","","19","","6","","","","101.87","","","","-8","","NA"
"-73.58","45.50","MCTAVISH","7024745","2015-01-11 22:00","2015","01","11","22:00","-5.3","","-11.9","","60","","","","19","","7","","","","101.79","","","","-9","","NA"
"-73.58","45.50","MCTAVISH","7024745","2015-01-11 23:00","2015","01","11","23:00","-5.0","","-11.9","","58","","","","19","","7","","","","101.78","","","","-8","","NA"
"-73.58","45.50","MCTAVISH","7024745","2015-01-12 00:00","2015","01","12","00:00","-4.6","","-11.0","","61","","","","19","","6","","","","101.66","","","","-7","","NA"
"-73.58","45.50","MCTAVISH","7024745","2015-01-12 01:00","2015","01","12","01:00","-3.9","","-10.4","","61","","","","18","","5","","","","101.62","","","","-6","","NA"
"-73.58","45.50","MCTAVISH","7024745","2015-01-12 02:00","2015","01","12","02:00","-3.6","","-10.2","","60","","","","18","","5","","","","101.58","","","","-6","","NA"
"-73.58","45.50","MCTAVISH","7024745","2015-01-12 03:00","2015","01","12","03:00","-3.3","","-10.5","","58","","","","19","","6","","","","101.51","","","","-6","","NA"
"-73.58","45.50","MCTAVISH","7024745","2015-01-12 04:00","2015","01","12","04:00","-3.1","","-10.5","","57","","","","17","","4","","","","101.42","","","","-5","","NA"
"-73.58","45.50","MCTAVISH","7024745","2015-01-12 05:00","2015","01","12","05:00","-2.6","","-10.5","","55","","","","17","","5","","","","101.35","","","","-5","","NA"
"-73.58","45.50","MCTAVISH","7024745","2015-01-12 06:00","2015","01","12","06:00","-1.7","","-5.8","","73","","","","22","","8","","","","101.35","","","","-5","","NA"
"-73.58","45.50","MCTAVISH","7024745","2015-01-12 07:00","2015","01","12","07:00","-2.4","","-4.1","","88","","","","17","","4","","","","101.30","","","","-4","","NA"
"-73.58","45.50","MCTAVISH","7024745","2015-01-12 08:00","2015","01","12","08:00","-2.9","","-4.1","","92","","","","14","","3","","","","101.29","","","","-4","","NA"
"-73.58","45.50","MCTAVISH","7024745","2015-01-12 09:00","2015","01","12","09:00","-3.2","","-4.3","","92","","","","17","","4","","","","101.28","","","","-5","","NA"
"-73.58","45.50","MCTAVISH","7024745","2015-01-12 10:00","2015","01","12","10:00","-3.0","","-4.1","","92","","","","20","","6","","","","101.22","","","","-5","","NA"
"-73.58","45.50","MCTAVISH","7024745","2015-01-12 11:00","2015","01","12","11:00","-2.6","","-3.6","","93","","","","18","","8","","","","101.18","","","","-6","","NA"
"-73.58","45.50","MCTAVISH","7024745","2015-01-12 12:00","2015","01","12","12:00","-1.7","","-2.8","","92","","","","20","","4","","","","101.14","","","","-3","","NA"
"-73.58","45.50","MCTAVISH","7024745","2015-01-12 13:00","2015","01","12","13:00","-1.9","","-3.2","","91","","","","21","","6","","","","101.09","","","","-4","","NA"
"-73.58","45.50","MCTAVISH","7024745","2015-01-12 14:00","2015","01","12","14:00","-1.9","","-3.4","","89","","","","23","","4","","","","101.07","","","","-3","","NA"
"-73.58","45.50","MCTAVISH","7024745","2015-01-12 15:00","2015","01","12","15:00","-2.2","","-3.6","","90","","","","20","","4","","","","101.13","","","","-4","","NA"
"-73.58","45.50","MCTAVISH","7024745","2015-01-12 16:00","2015","01","12","16:00","-2.4","","-3.9","","90","","","","24","","4","","","","101.17","","","","-4","","NA"
"-73.58","45.50","MCTAVISH","7024745","2015-01-12 17:00","2015","01","12","17:00","-2.4","","-4.1","","89","","","","24","","4","","","","101.27","","","","-4","","NA"
"-73.58","45.50","MCTAVISH","7024745","2015-01-12 18:00","2015","01","12","18:00","-2.8","","-7.5","","70","","","","27","","7","","","","101.42","","","","-6","","NA"
"-73.58","45.50","MCTAVISH","7024745","2015-01-12 19:00","2015","01","12","19:00","-3.7","","-9.0","","67","","","","26","","4","","","","101.55","","","","-5","","NA"
"-73.58","45.50","MCTAVISH","7024745","2015-01-12 20:00","2015","01","12","20:00","-5.9","","-11.7","","64","","","","21","","4","","","","101.68","","","","-8","","NA"
"-73.58","45.50","MCTAVISH","7024745","2015-01-12 21:00","2015","01","12","21:00","-8.0","","-13.3","","66","","","","32","","6","","","","101.86","","","","-11","","NA"
"-73.58","45.50","MCTAVISH","7024745","2015-01-12 22:00","2015","01","12","22:00","-10.8","","-16.4","","64","","","","4","","7","","","","102.04","","","","-15","","NA"
"-73.58","45.50","MCTAVISH","7024745","2015-01-12 23:00","2015","01","12","23:00","-13.4","","-19.4","","61","","","","9","","6","","","","102.19","","","","-17","","NA"
"-73.58","45.50","MCTAVISH","7024745","2015-01-13 00:00","2015","01","13","00:00","-15.1","","-21.5","","58","","","","5","","6","","","","102.31","","","","-19","","NA"
"-73.58","45.50","MCTAVISH","7024745","2015-01-13 01:00","2015","01","13","01:00","-16.8","","-23.1","","58","","","","4","","5","","","","102.44","","","","-21","","NA"
"-73.58","45.50","MCTAVISH","7024745","2015-01-13 02:00","2015","01","13","02:00","-18.0","","-24.8","","55","","","","6","","5","","","","102.60","","","","-22","","NA"
"-73.58","45.50","MCTAVISH","7024745","2015-01-13 03:00","2015","01","13","03:00","-18.7","","-25.6","","55","","","","7","","4","","","","102.75","","","","-22","","NA"
"-73.58","45.50","MCTAVISH","7024745","2015-01-13 04:00","2015","01","13","04:00","-19.2","","-26.0","","55","","","","33","","4","","","","102.82","","","","-23","","NA"
"-73.58","45.50","MCTAVISH","7024745","2015-01-13 05:00","2015","01","13","05:00","-19.4","","-25.9","","57","","","","6","","4","","","","102.93","","","","-23","","NA"
"-73.58","45.50","MCTAVISH","7024745","2015-01-13 06:00","2015","01","13","06:00","-19.8","","-26.1","","57","","","","36","","3","","","","103.03","","","","-22","","NA"
"-73.58","45.50","MCTAVISH","7024745","2015-01-13 07:00","2015","01","13","07:00","-20.1","","-25.8","","61","","","","27","","3","","","","103.15","","","","-23","","NA"
"-73.58","45.50","MCTAVISH","7024745","2015-01-13 08:00","2015","01","13","08:00","-20.1","","-25.8","","60","","","","36","","3","","","","103.25","","","","-23","","NA"
"-73.58","45.50","MCTAVISH","7024745","2015-01-13 09:00","2015","01","13","09:00","-19.7","","-26.5","","55","","","","17","","2","","","","103.34","","","","-21","","NA"
"-73.58","45.50","MCTAVISH","7024745","2015-01-13 10:00","2015","01","13","10:00","-18.7","","-25.7","","54","","","","8","","3","","","","103.38","","","","-21","","NA"
"-73.58","45.50","MCTAVISH","7024745","2015-01-13 11:00","2015","01","13","11:00","-17.6","","-25.4","","51","","","","5","","4","","","","103.35","","","","-21","","NA"
"-73.58","45.50","MCTAVISH","7024745","2015-01-13 12:00","2015","01","13","12:00","-16.5","","-24.6","","50","","","","6","","5","","","","103.29","","","","-20","","NA"
"-73.58","45.50","MCTAVISH","7024745","2015-01-13 13:00","2015","01","13","13:00","-16.4","","-24.4","","50","","","","27","","8","","","","103.24","","","","-22","","NA"
"-73.58","45.50","MCTAVISH","7024745","2015-01-13 14:00","2015","01","13","14:00","-16.4","","-24.3","","51","","","","25","","7","","","","103.22","","","","-21","","NA"
"-73.58","45.50","MCTAVISH","7024745","2015-01-13 15:00","2015","01","13","15:00","-16.5","","-24.4","","51","","","","24","","9","","","","103.18","","","","-23","","NA"
"-73.58","45.50","MCTAVISH","7024745","2015-01-13 16:00","2015","01","13","16:00","-17.1","","-23.0","","60","","","","23","","7","","","","103.15","","","","-22","","NA"
"-73.58","45.50","MCTAVISH","7024745","2015-01-13 17:00","2015","01","13","17:00","-17.5","","-22.6","","64","","","","23","","9","","","","103.13","","","","-24","","NA"
"-73.58","45.50","MCTAVISH","7024745","2015-01-13 18:00","2015","01","13","18:00","-17.8","","-23.9","","59","","","","22","","8","","","","103.12","","","","-24","","NA"
"-73.58","45.50","MCTAVISH","7024745","2015-01-13 19:00","2015","01","13","19:00","-17.8","","-24.0","","58","","","","20","","6","","","","103.10","","","","-22","","NA"
"-73.58","45.50","MCTAVISH","7024745","2015-01-13 20:00","2015","01","13","20:00","-17.6","","-24.4","","56","","","","21","","6","","","","103.07","","","","-22","","NA"
"-73.58","45.50","MCTAVISH","7024745","2015-01-13 21:00","2015","01","13","21:00","-18.0","","-21.8","","72","","","","23","","6","","","","103.03","","","","-23","","NA"
"-73.58","45.50","MCTAVISH","7024745","2015-01-13 22:00","2015","01","13","22:00","-18.1","","-22.6","","67","","","","18","","9","","","","103.00","","","","-24","","NA"
"-73.58","45.50","MCTAVISH","7024745","2015-01-13 23:00","2015","01","13","23:00","-18.5","","-22.8","","69","","","","21","","5","","","","102.94","","","","-23","","NA"
"-73.58","45.50","MCTAVISH","7024745","2015-01-14 00:00","2015","01","14","00:00","-18.5","","-23.5","","65","","","","20","","7","","","","102.85","","","","-24","","NA"
"-73.58","45.50","MCTAVISH","7024745","2015-01-14 01:00","2015","01","14","01:00","-19.6","","-24.4","","66","","","","23","","5","","","","102.76","","","","-24","","NA"
"-73.58","45.50","MCTAVISH","7024745","2015-01-14 02:00","2015","01","14","02:00","-18.2","","-23.8","","61","","","","20","","7","","","","102.72","","","","-24","","NA"
"-73.58","45.50","MCTAVISH","7024745","2015-01-14 03:00","2015","01","14","03:00","-18.3","","-23.3","","65","","","","22","","3","","","","102.66","","","","-21","","NA"
"-73.58","45.50","MCTAVISH","7024745","2015-01-14 04:00","2015","01","14","04:00","-18.7","","-22.8","","70","","","","26","","2","","","","102.57","","","","-20","","NA"
"-73.58","45.50","MCTAVISH","7024745","2015-01-14 05:00","2015","01","14","05:00","-18.5","","-21.7","","76","","","","21","","2","","","","102.51","","","","-20","","NA"
"-73.58","45.50","MCTAVISH","7024745","2015-01-14 06:00","2015","01","14","06:00","-18.6","","-20.7","","83","","","","21","","5","","","","102.44","","","","-23","","NA"
"-73.58","45.50","MCTAVISH","7024745","2015-01-14 07:00","2015","01","14","07:00","-18.3","","-20.5","","83","","","","19","","7","","","","102.36","","","","-24","","NA"
"-73.58","45.50","MCTAVISH","7024745","2015-01-14 08:00","2015","01","14","08:00","-17.7","","-19.7","","84","","","","5","","4","","","","102.30","","","","-21","","NA"
"-73.58","45.50","MCTAVISH","7024745","2015-01-14 09:00","2015","01","14","09:00","-18.9","","-21.4","","81","","","","5","","5","","","","102.27","","","","-23","","NA"
"-73.58","45.50","MCTAVISH","7024745","2015-01-14 10:00","2015","01","14","10:00","-18.1","","-20.2","","84","","","","6","","4","","","","102.21","","","","-21","","NA"
"-73.58","45.50","MCTAVISH","7024745","2015-01-14 11:00","2015","01","14","11:00","-18.2","","-20.5","","82","","","","5","","5","","","","102.08","","","","-22","","NA"
"-73.58","45.50","MCTAVISH","7024745","2015-01-14 12:00","2015","01","14","12:00","-16.4","","-18.3","","86","","","","20","","6","","","","101.94","","","","-21","","NA"
"-73.58","45.50","MCTAVISH","7024745","2015-01-14 13:00","2015","01","14","13:00","-15.4","","-17.4","","85","","","","18","","6","","","","101.85","","","","-20","","NA"
"-73.58","45.50","MCTAVISH","7024745","2015-01-14 14:00","2015","01","14","14:00","-12.9","","-15.5","","81","","","","6","","4","","","","101.81","","","","-16","","NA"
"-73.58","45.50","MCTAVISH","7024745","2015-01-14 15:00","2015","01","14","15:00","-13.2","","-16.2","","78","","","","4","","4","","","","101.72","","","","-16","","NA"
"-73.58","45.50","MCTAVISH","7024745","2015-01-14 16:00","2015","01","14","16:00","-13.9","","-17.1","","76","","","","26","","2","","","","101.69","","","","-15","","NA"
"-73.58","45.50","MCTAVISH","7024745","2015-01-14 17:00","2015","01","14","17:00","-13.5","","-16.4","","78","","","","5","","1","","","","101.66","","","","-14","","NA"
"-73.58","45.50","MCTAVISH","7024745","2015-01-14 18:00","2015","01","14","18:00","-14.2","","-17.4","","77","","","","4","","4","","","","101.66","","","","-17","","NA"
"-73.58","45.50","MCTAVISH","7024745","2015-01-14 19:00","2015","01","14","19:00","-14.6","","-17.7","","77","","","","10","","1","","","","101.59","","","","-15","","NA"
"-73.58","45.50","MCTAVISH","7024745","2015-01-14 20:00","2015","01","14","20:00","-15.5","","-18.1","","80","","","","30","","5","","","","101.57","","","","-19","","NA"
"-73.58","45.50","MCTAVISH","7024745","2015-01-14 21:00","2015","01","14","21:00","-15.9","","-18.5","","80","","","","14","","2","","","","101.59","","","","-17","","NA"
"-73.58","45.50","MCTAVISH","7024745","2015-01-14 22:00","2015","01","14","22:00","-16.2","","-18.6","","82","","","","31","","2","","","","101.60","","","","-18","","NA"
"-73.58","45.50","MCTAVISH","7024745","2015-01-14 23:00","2015","01","14","23:00","-17.3","","-19.9","","80","","","","23","","2","","","","101.55","","","","-19","","NA"
"-73.58","45.50","MCTAVISH","7024745","2015-01-15 00:00","2015","01","15","00:00","-15.4","","-17.4","","84","","","","6","","2","","","","101.52","","","","-17","","NA"
"-73.58","45.50","MCTAVISH","7024745","2015-01-15 01:00","2015","01","15","01:00","-15.7","","-17.8","","84","","","","11","","2","","","","101.45","","","","-17","","NA"
"-73.58","45.50","MCTAVISH","7024745","2015-01-15 02:00","2015","01","15","02:00","-17.1","","-19.2","","83","","","","","","0","","","","101.42","","","","","","NA"
"-73.58","45.50","MCTAVISH","7024745","2015-01-15 03:00","2015","01","15","03:00","-15.6","","-17.5","","85","","","","0","","1","","","","101.37","","","","-16","","NA"
"-73.58","45.50","MCTAVISH","7024745","2015-01-15 04:00","2015","01","15","04:00","-16.3","","-18.2","","85","","","","35","","1","","","","101.35","","","","-17","","NA"
"-73.58","45.50","MCTAVISH","7024745","2015-01-15 05:00","2015","01","15","05:00","-16.7","","-18.6","","85","","","","0","","1","","","","101.31","","","","-17","","NA"
"-73.58","45.50","MCTAVISH","7024745","2015-01-15 06:00","2015","01","15","06:00","-16.1","","-18.0","","85","","","","18","","4","","","","101.27","","","","-19","","NA"
"-73.58","45.50","MCTAVISH","7024745","2015-01-15 07:00","2015","01","15","07:00","-15.8","","-17.8","","85","","","","22","","2","","","","101.23","","","","-17","","NA"
"-73.58","45.50","MCTAVISH","7024745","2015-01-15 08:00","2015","01","15","08:00","-14.6","","-16.8","","83","","","","18","","4","","","","101.20","","","","-17","","NA"
"-73.58","45.50","MCTAVISH","7024745","2015-01-15 09:00","2015","01","15","09:00","-13.8","","-16.5","","80","","","","18","","3","","","","101.13","","","","-16","","NA"
"-73.58","45.50","MCTAVISH","7024745","2015-01-15 10:00","2015","01","15","10:00","-12.9","","-16.1","","77","","","","6","","2","","","","101.07","","","","-14","","NA"
"-73.58","45.50","MCTAVISH","7024745","2015-01-15 11:00","2015","01","15","11:00","-12.9","","-16.4","","75","","","","6","","6","","","","100.94","","","","-17","","NA"
"-73.58","45.50","MCTAVISH","7024745","2015-01-15 12:00","2015","01","15","12:00","-11.5","","-15.4","","73","","","","7","","5","","","","100.77","","","","-15","","NA"
"-73.58","45.50","MCTAVISH","7024745","2015-01-15 13:00","2015","01","15","13:00","-10.0","","-14.2","","71","","","","17","","3","","","","100.62","","","","-12","","NA"
"-73.58","45.50","MCTAVISH","7024745","2015-01-15 14:00","2015","01","15","14:00","-9.9","","-14.0","","72","","","","0","","1","","","","100.52","","","","-10","","NA"
"-73.58","45.50","MCTAVISH","7024745","2015-01-15 15:00","2015","01","15","15:00","-8.9","","-13.1","","71","","","","18","","2","","","","100.43","","","","-10","","NA"
"-73.58","45.50","MCTAVISH","7024745","2015-01-15 16:00","2015","01","15","16:00","-8.6","","-12.3","","74","","","","17","","3","","","","100.36","","","","-10","","NA"
"-73.58","45.50","MCTAVISH","7024745","2015-01-15 17:00","2015","01","15","17:00","-7.8","","-11.5","","74","","","","16","","3","","","","100.27","","","","-9","","NA"
"-73.58","45.50","MCTAVISH","7024745","2015-01-15 18:00","2015","01","15","18:00","-7.3","","-10.7","","77","","","","19","","4","","","","100.17","","","","-9","","NA"
"-73.58","45.50","MCTAVISH","7024745","2015-01-15 19:00","2015","01","15","19:00","-6.5","","-10.6","","73","","","","19","","7","","","","100.11","","","","-10","","NA"
"-73.58","45.50","MCTAVISH","7024745","2015-01-15 20:00","2015","01","15","20:00","-6.6","","-10.0","","77","","","","19","","8","","","","100.00","","","","-10","","NA"
"-73.58","45.50","MCTAVISH","7024745","2015-01-15 21:00","2015","01","15","21:00","-6.1","","-10.1","","73","","","","18","","6","","","","99.88","","","","-9","","NA"
"-73.58","45.50","MCTAVISH","7024745","2015-01-15 22:00","2015","01","15","22:00","-5.6","","-10.3","","69","","","","18","","6","","","","99.73","","","","-8","","NA"
"-73.58","45.50","MCTAVISH","7024745","2015-01-15 23:00","2015","01","15","23:00","-5.3","","-10.5","","67","","","","19","","8","","","","99.62","","","","-9","","NA"
"-73.58","45.50","MCTAVISH","7024745","2015-01-16 00:00","2015","01","16","00:00","-5.2","","-10.0","","69","","","","16","","4","","","","99.47","","","","-7","","NA"
"-73.58","45.50","MCTAVISH","7024745","2015-01-16 01:00","2015","01","16","01:00","-5.7","","-8.2","","83","","","","18","","2","","","","99.36","","","","-7","","NA"
"-73.58","45.50","MCTAVISH","7024745","2015-01-16 02:00","2015","01","16","02:00","-5.5","","-6.8","","91","","","","15","","4","","","","99.29","","","","-7","","NA"
"-73.58","45.50","MCTAVISH","7024745","2015-01-16 03:00","2015","01","16","03:00","-4.4","","-5.2","","94","","","","17","","3","","","","99.22","","","","-6","","NA"
"-73.58","45.50","MCTAVISH","7024745","2015-01-16 04:00","2015","01","16","04:00","-3.2","","-4.4","","91","","","","20","","11","","","","99.17","","","","-7","","NA"
"-73.58","45.50","MCTAVISH","7024745","2015-01-16 05:00","2015","01","16","05:00","-2.4","","-4.3","","87","","","","18","","12","","","","99.08","","","","-7","","NA"
"-73.58","45.50","MCTAVISH","7024745","2015-01-16 06:00","2015","01","16","06:00","-2.3","","-4.1","","88","","","","18","","8","","","","99.11","","","","-5","","NA"
"-73.58","45.50","MCTAVISH","7024745","2015-01-16 07:00","2015","01","16","07:00","-2.7","","-4.5","","88","","","","19","","7","","","","99.13","","","","-6","","NA"
"-73.58","45.50","MCTAVISH","7024745","2015-01-16 08:00","2015","01","16","08:00","-4.6","","-8.0","","77","","","","29","","6","","","","99.31","","","","-7","","NA"
"-73.58","45.50","MCTAVISH","7024745","2015-01-16 09:00","2015","01","16","09:00","-7.2","","-13.2","","62","","","","29","","9","","","","99.49","","","","-12","","NA"
"-73.58","45.50","MCTAVISH","7024745","2015-01-16 10:00","2015","01","16","10:00","-9.6","","-15.5","","62","","","","25","","5","","","","99.76","","","","-12","","NA"
"-73.58","45.50","MCTAVISH","7024745","2015-01-16 11:00","2015","01","16","11:00","-10.7","","-16.7","","61","","","","21","","6","","","","99.94","","","","-14","","NA"
"-73.58","45.50","MCTAVISH","7024745","2015-01-16 12:00","2015","01","16","12:00","-11.1","","-18.6","","54","","","","30","","8","","","","100.08","","","","-16","","NA"
"-73.58","45.50","MCTAVISH","7024745","2015-01-16 13:00","2015","01","16","13:00","-11.8","","-19.8","","51","","","","28","","13","","","","100.18","","","","-18","","NA"
"-73.58","45.50","MCTAVISH","7024745","2015-01-16 14:00","2015","01","16","14:00","-11.1","","-19.8","","49","","","","33","","6","","","","100.29","","","","-15","","NA"
"-73.58","45.50","MCTAVISH","7024745","2015-01-16 15:00","2015","01","16","15:00","-11.2","","-19.5","","50","","","","30","","7","","","","100.43","","","","-15","","NA"
"-73.58","45.50","MCTAVISH","7024745","2015-01-16 16:00","2015","01","16","16:00","-12.4","","-19.2","","57","","","","12","","4","","","","100.55","","","","-15","","NA"
"-73.58","45.50","MCTAVISH","7024745","2015-01-16 17:00","2015","01","16","17:00","-13.0","","-19.9","","56","","","","17","","5","","","","100.70","","","","-16","","NA"
"-73.58","45.50","MCTAVISH","7024745","2015-01-16 18:00","2015","01","16","18:00","-13.6","","-20.4","","57","","","","33","","4","","","","100.85","","","","-16","","NA"
"-73.58","45.50","MCTAVISH","7024745","2015-01-16 19:00","2015","01","16","19:00","-14.5","","-22.4","","51","","","","28","","5","","","","100.99","","","","-18","","NA"
"-73.58","45.50","MCTAVISH","7024745","2015-01-16 20:00","2015","01","16","20:00","-15.4","","-22.4","","55","","","","32","","5","","","","101.10","","","","-19","","NA"
"-73.58","45.50","MCTAVISH","7024745","2015-01-16 21:00","2015","01","16","21:00","-16.5","","-23.8","","53","","","","33","","4","","","","101.20","","","","-20","","NA"
"-73.58","45.50","MCTAVISH","7024745","2015-01-16 22:00","2015","01","16","22:00","-17.6","","-24.9","","53","","","","28","","8","","","","101.28","","","","-23","","NA"
"-73.58","45.50","MCTAVISH","7024745","2015-01-16 23:00","2015","01","16","23:00","-18.5","","-25.3","","55","","","","28","","5","","","","101.41","","","","-23","","NA"
"-73.58","45.50","MCTAVISH","7024745","2015-01-17 00:00","2015","01","17","00:00","-19.0","","-25.6","","56","","","","30","","8","","","","101.46","","","","-25","","NA"
"-73.58","45.50","MCTAVISH","7024745","2015-01-17 01:00","2015","01","17","01:00","-19.8","","-26.4","","56","","","","28","","7","","","","101.55","","","","-25","","NA"
"-73.58","45.50","MCTAVISH","7024745","2015-01-17 02:00","2015","01","17","02:00","-20.4","","-26.7","","57","","","","28","","8","","","","101.66","","","","-27","","NA"
"-73.58","45.50","MCTAVISH","7024745","2015-01-17 03:00","2015","01","17","03:00","-21.0","","-27.0","","58","","","","28","","8","","","","101.74","","","","-27","","NA"
"-73.58","45.50","MCTAVISH","7024745","2015-01-17 04:00","2015","01","17","04:00","-21.4","","-27.3","","59","","","","28","","10","","","","101.80","","","","-29","","NA"
"-73.58","45.50","MCTAVISH","7024745","2015-01-17 05:00","2015","01","17","05:00","-21.9","","-27.5","","61","","","","27","","6","","","","101.78","","","","-27","","NA"
"-73.58","45.50","MCTAVISH","7024745","2015-01-17 06:00","2015","01","17","06:00","-23.2","","-28.6","","61","","","","26","","4","","","","101.83","","","","-27","","NA"
"-73.58","45.50","MCTAVISH","7024745","2015-01-17 07:00","2015","01","17","07:00","-22.3","","-27.8","","61","","","","26","","9","","","","101.93","","","","-29","","NA"
"-73.58","45.50","MCTAVISH","7024745","2015-01-17 08:00","2015","01","17","08:00","-22.0","","-27.4","","61","","","","26","","7","","","","101.97","","","","-28","","NA"
"-73.58","45.50","MCTAVISH","7024745","2015-01-17 09:00","2015","01","17","09:00","-20.3","","-26.4","","58","","","","7","","3","","","","102.03","","","","-23","","NA"
"-73.58","45.50","MCTAVISH","7024745","2015-01-17 10:00","2015","01","17","10:00","-19.9","","-25.7","","60","","","","16","","5","","","","102.07","","","","-24","","NA"
"-73.58","45.50","MCTAVISH","7024745","2015-01-17 11:00","2015","01","17","11:00","-19.3","","-26.2","","55","","","","19","","5","","","","102.03","","","","-23","","NA"
"-73.58","45.50","MCTAVISH","7024745","2015-01-17 12:00","2015","01","17","12:00","-17.2","","-25.9","","47","","","","20","","3","","","","101.86","","","","-20","","NA"
"-73.58","45.50","MCTAVISH","7024745","2015-01-17 13:00","2015","01","17","13:00","-17.3","","-25.3","","50","","","","20","","3","","","","101.72","","","","-20","","NA"
"-73.58","45.50","MCTAVISH","7024745","2015-01-17 14:00","2015","01","17","14:00","-16.6","","-22.4","","61","","","","15","","5","","","","101.68","","","","-20","","NA"
"-73.58","45.50","MCTAVISH","7024745","2015-01-17 15:00","2015","01","17","15:00","-16.9","","-22.9","","60","","","","11","","4","","","","101.54","","","","-20","","NA"
"-73.58","45.50","MCTAVISH","7024745","2015-01-17 16:00","2015","01","17","16:00","-16.6","","-22.4","","61","","","","7","","9","","","","101.44","","","","-23","","NA"
"-73.58","45.50","MCTAVISH","7024745","2015-01-17 17:00","2015","01","17","17:00","-16.9","","-23.1","","59","","","","4","","8","","","","101.34","","","","-23","","NA"
"-73.58","45.50","MCTAVISH","7024745","2015-01-17 18:00","2015","01","17","18:00","-16.4","","-22.7","","58","","","","3","","5","","","","101.24","","","","-20","","NA"
"-73.58","45.50","MCTAVISH","7024745","2015-01-17 19:00","2015","01","17","19:00","-16.2","","-22.2","","60","","","","5","","6","","","","101.07","","","","-21","","NA"
"-73.58","45.50","MCTAVISH","7024745","2015-01-17 20:00","2015","01","17","20:00","-15.6","","-21.1","","63","","","","4","","5","","","","100.90","","","","-19","","NA"
"-73.58","45.50","MCTAVISH","7024745","2015-01-17 21:00","2015","01","17","21:00","-15.3","","-20.5","","65","","","","4","","4","","","","100.72","","","","-18","","NA"
"-73.58","45.50","MCTAVISH","7024745","2015-01-17 22:00","2015","01","17","22:00","-14.9","","-19.4","","68","","","","1","","4","","","","100.60","","","","-18","","NA"
"-73.58","45.50","MCTAVISH","7024745","2015-01-17 23:00","2015","01","17","23:00","-14.5","","-18.8","","70","","","","33","","2","","","","100.48","","","","-16","","NA"
"-73.58","45.50","MCTAVISH","7024745","2015-01-18 00:00","2015","01","18","00:00","-13.7","","-17.7","","71","","","","33","","1","","","","100.34","","","","-14","","NA"
"-73.58","45.50","MCTAVISH","7024745","2015-01-18 01:00","2015","01","18","01:00","-12.7","","-16.8","","71","","","","36","","2","","","","100.30","","","","-14","","NA"
"-73.58","45.50","MCTAVISH","7024745","2015-01-18 02:00","2015","01","18","02:00","","M","-11.5","","71","","","","18","","4","","","","100.22","","","","","","NA"
"-73.58","45.50","MCTAVISH","7024745","2015-01-18 03:00","2015","01","18","03:00","-5.5","","-11.8","","61","","","","17","","6","","","","100.16","","","","-8","","NA"
"-73.58","45.50","MCTAVISH","7024745","2015-01-18 04:00","2015","01","18","04:00","-5.2","","-11.1","","63","","","","16","","5","","","","100.10","","","","-7","","NA"
"-73.58","45.50","MCTAVISH","7024745","2015-01-18 05:00","2015","01","18","05:00","-5.1","","-10.6","","65","","","","17","","7","","","","100.07","","","","-8","","NA"
"-73.58","45.50","MCTAVISH","7024745","2015-01-18 06:00","2015","01","18","06:00","-4.4","","-9.9","","65","","","","16","","8","","","","100.06","","","","-8","","NA"
"-73.58","45.50","MCTAVISH","7024745","2015-01-18 07:00","2015","01","18","07:00","-3.7","","-9.4","","65","","","","17","","11","","","","100.05","","","","-8","","NA"
"-73.58","45.50","MCTAVISH","7024745","2015-01-18 08:00","2015","01","18","08:00","-3.2","","-8.7","","66","","","","17","","8","","","","100.05","","","","-6","","NA"
"-73.58","45.50","MCTAVISH","7024745","2015-01-18 09:00","2015","01","18","09:00","-2.4","","-7.7","","67","","","","15","","7","","","","100.04","","","","-5","","NA"
"-73.58","45.50","MCTAVISH","7024745","2015-01-18 10:00","2015","01","18","10:00","-1.6","","-6.4","","70","","","","17","","7","","","","100.06","","","","-4","","NA"
"-73.58","45.50","MCTAVISH","7024745","2015-01-18 11:00","2015","01","18","11:00","-0.5","","-5.0","","72","","","","16","","5","","","","99.97","","","","-2","","NA"
"-73.58","45.50","MCTAVISH","7024745","2015-01-18 12:00","2015","01","18","12:00","0.9","","-3.9","","70","","","","17","","4","","","","99.81","","","","","","NA"
"-73.58","45.50","MCTAVISH","7024745","2015-01-18 13:00","2015","01","18","13:00","2.4","","-3.2","","66","","","","14","","4","","","","99.82","","","","","","NA"
"-73.58","45.50","MCTAVISH","7024745","2015-01-18 14:00","2015","01","18","14:00","2.6","","-2.6","","68","","","","17","","5","","","","99.77","","","","","","NA"
"-73.58","45.50","MCTAVISH","7024745","2015-01-18 15:00","2015","01","18","15:00","2.4","","-2.5","","70","","","","18","","6","","","","99.78","","","","","","NA"
"-73.58","45.50","MCTAVISH","7024745","2015-01-18 16:00","2015","01","18","16:00","2.7","","-1.2","","75","","","","17","","4","","","","99.81","","","","","","NA"
"-73.58","45.50","MCTAVISH","7024745","2015-01-18 17:00","2015","01","18","17:00","3.1","","-1.0","","74","","","","19","","8","","","","99.76","","","","","","NA"
"-73.58","45.50","MCTAVISH","7024745","2015-01-18 18:00","2015","01","18","18:00","3.0","","-1.2","","74","","","","17","","3","","","","99.77","","","","","","NA"
"-73.58","45.50","MCTAVISH","7024745","2015-01-18 19:00","2015","01","18","19:00","0.0","","-3.3","","78","","","","7","","3","","","","99.76","","","","-1","","NA"
"-73.58","45.50","MCTAVISH","7024745","2015-01-18 20:00","2015","01","18","20:00","-0.7","","-3.1","","84","","","","5","","4","","","","99.72","","","","-2","","NA"
"-73.58","45.50","MCTAVISH","7024745","2015-01-18 21:00","2015","01","18","21:00","-0.7","","-2.3","","89","","","","2","","3","","","","99.68","","","","-2","","NA"
"-73.58","45.50","MCTAVISH","7024745","2015-01-18 22:00","2015","01","18","22:00","-0.3","","-1.6","","91","","","","","","0","","","","99.58","","","","","","NA"
"-73.58","45.50","MCTAVISH","7024745","2015-01-18 23:00","2015","01","18","23:00","-0.7","","-1.7","","93","","","","","","0","","","","99.55","","","","","","NA"
"-73.58","45.50","MCTAVISH","7024745","2015-01-19 00:00","2015","01","19","00:00","-0.2","","-1.1","","94","","","","","","0","","","","99.45","","","","","","NA"
"-73.58","45.50","MCTAVISH","7024745","2015-01-19 01:00","2015","01","19","01:00","-0.8","","-1.5","","95","","","","","","0","","","","99.37","","","","","","NA"
"-73.58","45.50","MCTAVISH","7024745","2015-01-19 02:00","2015","01","19","02:00","0.3","","-0.3","","95","","","","","","0","","","","99.33","","","","","","NA"
"-73.58","45.50","MCTAVISH","7024745","2015-01-19 03:00","2015","01","19","03:00","0.1","","-0.7","","94","","","","","","0","","","","99.29","","","","","","NA"
"-73.58","45.50","MCTAVISH","7024745","2015-01-19 04:00","2015","01","19","04:00","-0.4","","-0.9","","96","","","","","","0","","","","99.27","","","","","","NA"
"-73.58","45.50","MCTAVISH","7024745","2015-01-19 05:00","2015","01","19","05:00","0.2","","-0.2","","98","","","","","","0","","","","99.26","","","","","","NA"
"-73.58","45.50","MCTAVISH","7024745","2015-01-19 06:00","2015","01","19","06:00","0.6","","0.1","","96","","","","20","","9","","","","99.27","","","","","","NA"
"-73.58","45.50","MCTAVISH","7024745","2015-01-19 07:00","2015","01","19","07:00","0.8","","-0.1","","94","","","","20","","7","","","","99.31","","","","","","NA"
"-73.58","45.50","MCTAVISH","7024745","2015-01-19 08:00","2015","01","19","08:00","0.8","","-0.2","","93","","","","22","","7","","","","99.33","","","","","","NA"
"-73.58","45.50","MCTAVISH","7024745","2015-01-19 09:00","2015","01","19","09:00","0.7","","-0.3","","93","","","","23","","6","","","","99.34","","","","","","NA"
"-73.58","45.50","MCTAVISH","7024745","2015-01-19 10:00","2015","01","19","10:00","1.1","","-0.3","","90","","","","21","","5","","","","99.35","","","","","","NA"
"-73.58","45.50","MCTAVISH","7024745","2015-01-19 11:00","2015","01","19","11:00","1.6","","-0.4","","86","","","","20","","5","","","","99.35","","","","","","NA"
"-73.58","45.50","MCTAVISH","7024745","2015-01-19 12:00","2015","01","19","12:00","1.5","","-1.3","","82","","","","19","","6","","","","99.36","","","","","","NA"
"-73.58","45.50","MCTAVISH","7024745","2015-01-19 13:00","2015","01","19","13:00","0.0","","-2.5","","84","","","","21","","9","","","","99.40","","","","-3","","NA"
"-73.58","45.50","MCTAVISH","7024745","2015-01-19 14:00","2015","01","19","14:00","-0.9","","-3.7","","82","","","","20","","8","","","","99.46","","","","-4","","NA"
"-73.58","45.50","MCTAVISH","7024745","2015-01-19 15:00","2015","01","19","15:00","-2.3","","-4.4","","86","","","","20","","12","","","","99.52","","","","-7","","NA"
"-73.58","45.50","MCTAVISH","7024745","2015-01-19 16:00","2015","01","19","16:00","-3.1","","-6.7","","76","","","","20","","14","","","","99.60","","","","-8","","NA"
"-73.58","45.50","MCTAVISH","7024745","2015-01-19 17:00","2015","01","19","17:00","-4.5","","-7.5","","79","","","","21","","9","","","","99.68","","","","-8","","NA"
"-73.58","45.50","MCTAVISH","7024745","2015-01-19 18:00","2015","01","19","18:00","-5.5","","-8.7","","78","","","","21","","11","","","","99.73","","","","-10","","NA"
"-73.58","45.50","MCTAVISH","7024745","2015-01-19 19:00","2015","01","19","19:00","-6.5","","-9.8","","77","","","","20","","9","","","","99.79","","","","-11","","NA"
"-73.58","45.50","MCTAVISH","7024745","2015-01-19 20:00","2015","01","19","20:00","-7.9","","-11.2","","77","","","","18","","8","","","","99.81","","","","-12","","NA"
"-73.58","45.50","MCTAVISH","7024745","2015-01-19 21:00","2015","01","19","21:00","-9.0","","-12.4","","76","","","","18","","6","","","","99.84","","","","-12","","NA"
"-73.58","45.50","MCTAVISH","7024745","2015-01-19 22:00","2015","01","19","22:00","-9.8","","-13.2","","76","","","","20","","6","","","","99.85","","","","-13","","NA"
"-73.58","45.50","MCTAVISH","7024745","2015-01-19 23:00","2015","01","19","23:00","-10.8","","-14.3","","75","","","","18","","6","","","","99.91","","","","-14","","NA"
"-73.58","45.50","MCTAVISH","7024745","2015-01-20 00:00","2015","01","20","00:00","-12.0","","-15.8","","74","","","","22","","7","","","","99.95","","","","-16","","NA"
"-73.58","45.50","MCTAVISH","7024745","2015-01-20 01:00","2015","01","20","01:00","-13.1","","-16.9","","73","","","","20","","5","","","","100.01","","","","-16","","NA"
"-73.58","45.50","MCTAVISH","7024745","2015-01-20 02:00","2015","01","20","02:00","-14.2","","-17.9","","73","","","","20","","7","","","","100.04","","","","-19","","NA"
"-73.58","45.50","MCTAVISH","7024745","2015-01-20 03:00","2015","01","20","03:00","-15.0","","-18.7","","73","","","","20","","9","","","","100.04","","","","-21","","NA"
"-73.58","45.50","MCTAVISH","7024745","2015-01-20 04:00","2015","01","20","04:00","-15.7","","-19.6","","72","","","","21","","11","","","","100.05","","","","-22","","NA"
"-73.58","45.50","MCTAVISH","7024745","2015-01-20 05:00","2015","01","20","05:00","-16.1","","-19.7","","73","","","","20","","10","","","","100.09","","","","-23","","NA"
"-73.58","45.50","MCTAVISH","7024745","2015-01-20 06:00","2015","01","20","06:00","-16.6","","-20.2","","74","","","","21","","11","","","","100.13","","","","-24","","NA"
"-73.58","45.50","MCTAVISH","7024745","2015-01-20 07:00","2015","01","20","07:00","-17.3","","-20.9","","74","","","","20","","8","","","","100.22","","","","-23","","NA"
"-73.58","45.50","MCTAVISH","7024745","2015-01-20 08:00","2015","01","20","08:00","-17.8","","-21.3","","74","","","","20","","11","","","","100.25","","","","-25","","NA"
"-73.58","45.50","MCTAVISH","7024745","2015-01-20 09:00","2015","01","20","09:00","-17.6","","-21.7","","70","","","","20","","12","","","","100.28","","","","-25","","NA"
"-73.58","45.50","MCTAVISH","7024745","2015-01-20 10:00","2015","01","20","10:00","-17.3","","-21.7","","68","","","","20","","8","","","","100.33","","","","-23","","NA"
"-73.58","45.50","MCTAVISH","7024745","2015-01-20 11:00","2015","01","20","11:00","-16.3","","-21.2","","66","","","","20","","9","","","","100.32","","","","-22","","NA"
"-73.58","45.50","MCTAVISH","7024745","2015-01-20 12:00","2015","01","20","12:00","-15.5","","-21.0","","63","","","","20","","14","","","","100.29","","","","-23","","NA"
"-73.58","45.50","MCTAVISH","7024745","2015-01-20 13:00","2015","01","20","13:00","-14.5","","-20.5","","60","","","","20","","8","","","","100.24","","","","-20","","NA"
"-73.58","45.50","MCTAVISH","7024745","2015-01-20 14:00","2015","01","20","14:00","-14.3","","-20.3","","60","","","","21","","10","","","","100.28","","","","-20","","NA"
"-73.58","45.50","MCTAVISH","7024745","2015-01-20 15:00","2015","01","20","15:00","-13.5","","-19.9","","58","","","","20","","6","","","","100.36","","","","-18","","NA"
"-73.58","45.50","MCTAVISH","7024745","2015-01-20 16:00","2015","01","20","16:00","-14.4","","-20.2","","61","","","","19","","9","","","","100.44","","","","-20","","NA"
"-73.58","45.50","MCTAVISH","7024745","2015-01-20 17:00","2015","01","20","17:00","-14.9","","-20.4","","63","","","","20","","9","","","","100.54","","","","-21","","NA"
"-73.58","45.50","MCTAVISH","7024745","2015-01-20 18:00","2015","01","20","18:00","-14.7","","-19.9","","64","","","","19","","12","","","","100.62","","","","-22","","NA"
"-73.58","45.50","MCTAVISH","7024745","2015-01-20 19:00","2015","01","20","19:00","-14.3","","-19.6","","64","","","","19","","12","","","","100.67","","","","-21","","NA"
"-73.58","45.50","MCTAVISH","7024745","2015-01-20 20:00","2015","01","20","20:00","-13.9","","-19.1","","65","","","","20","","12","","","","100.73","","","","-21","","NA"
"-73.58","45.50","MCTAVISH","7024745","2015-01-20 21:00","2015","01","20","21:00","-14.1","","-19.0","","66","","","","21","","12","","","","100.79","","","","-21","","NA"
"-73.58","45.50","MCTAVISH","7024745","2015-01-20 22:00","2015","01","20","22:00","-14.6","","-19.5","","66","","","","23","","10","","","","100.86","","","","-21","","NA"
"-73.58","45.50","MCTAVISH","7024745","2015-01-20 23:00","2015","01","20","23:00","-14.4","","-19.2","","67","","","","26","","14","","","","100.92","","","","-22","","NA"
"-73.58","45.50","MCTAVISH","7024745","2015-01-21 00:00","2015","01","21","00:00","-14.7","","-19.3","","68","","","","26","","15","","","","100.96","","","","-23","","NA"
"-73.58","45.50","MCTAVISH","7024745","2015-01-21 01:00","2015","01","21","01:00","-14.9","","-19.4","","69","","","","25","","18","","","","100.99","","","","-24","","NA"
"-73.58","45.50","MCTAVISH","7024745","2015-01-21 02:00","2015","01","21","02:00","-14.8","","-19.2","","69","","","","26","","18","","","","101.05","","","","-23","","NA"
"-73.58","45.50","MCTAVISH","7024745","2015-01-21 03:00","2015","01","21","03:00","-15.1","","-19.5","","69","","","","26","","12","","","","101.12","","","","-22","","NA"
"-73.58","45.50","MCTAVISH","7024745","2015-01-21 04:00","2015","01","21","04:00","-14.9","","-19.6","","68","","","","23","","6","","","","101.17","","","","-19","","NA"
"-73.58","45.50","MCTAVISH","7024745","2015-01-21 05:00","2015","01","21","05:00","-16.2","","-19.9","","73","","","","24","","4","","","","101.21","","","","-19","","NA"
"-73.58","45.50","MCTAVISH","7024745","2015-01-21 06:00","2015","01","21","06:00","-16.5","","-19.7","","77","","","","26","","2","","","","101.24","","","","-18","","NA"
"-73.58","45.50","MCTAVISH","7024745","2015-01-21 07:00","2015","01","21","07:00","-16.2","","-19.3","","77","","","","0","","1","","","","101.27","","","","-17","","NA"
"-73.58","45.50","MCTAVISH","7024745","2015-01-21 08:00","2015","01","21","08:00","-14.9","","-17.4","","81","","","","28","","2","","","","101.36","","","","-16","","NA"
"-73.58","45.50","MCTAVISH","7024745","2015-01-21 09:00","2015","01","21","09:00","-13.6","","-16.4","","79","","","","6","","4","","","","101.40","","","","-16","","NA"
"-73.58","45.50","MCTAVISH","7024745","2015-01-21 10:00","2015","01","21","10:00","-13.2","","-16.7","","75","","","","30","","2","","","","101.46","","","","-15","","NA"
"-73.58","45.50","MCTAVISH","7024745","2015-01-21 11:00","2015","01","21","11:00","-12.7","","-16.2","","75","","","","5","","5","","","","101.49","","","","-16","","NA"
"-73.58","45.50","MCTAVISH","7024745","2015-01-21 12:00","2015","01","21","12:00","-11.3","","-15.2","","73","","","","6","","6","","","","101.46","","","","-15","","NA"
"-73.58","45.50","MCTAVISH","7024745","2015-01-21 13:00","2015","01","21","13:00","-9.5","","-14.1","","69","","","","14","","2","","","","101.43","","","","-11","","NA"
"-73.58","45.50","MCTAVISH","7024745","2015-01-21 14:00","2015","01","21","14:00","-9.4","","-16.2","","58","","","","4","","6","","","","101.40","","","","-13","","NA"
"-73.58","45.50","MCTAVISH","7024745","2015-01-21 15:00","2015","01","21","15:00","-9.8","","-15.9","","61","","","","12","","3","","","","101.42","","","","-12","","NA"
"-73.58","45.50","MCTAVISH","7024745","2015-01-21 16:00","2015","01","21","16:00","-9.9","","-15.8","","62","","","","7","","5","","","","101.44","","","","-13","","NA"
"-73.58","45.50","MCTAVISH","7024745","2015-01-21 17:00","2015","01","21","17:00","-10.4","","-16.3","","62","","","","5","","6","","","","101.45","","","","-14","","NA"
"-73.58","45.50","MCTAVISH","7024745","2015-01-21 18:00","2015","01","21","18:00","-10.8","","-16.1","","65","","","","5","","5","","","","101.45","","","","-14","","NA"
"-73.58","45.50","MCTAVISH","7024745","2015-01-21 19:00","2015","01","21","19:00","-11.9","","-16.5","","69","","","","3","","5","","","","101.44","","","","-15","","NA"
"-73.58","45.50","MCTAVISH","7024745","2015-01-21 20:00","2015","01","21","20:00","-12.3","","-16.9","","69","","","","5","","3","","","","101.44","","","","-14","","NA"
"-73.58","45.50","MCTAVISH","7024745","2015-01-21 21:00","2015","01","21","21:00","-12.6","","-17.3","","68","","","","4","","5","","","","101.43","","","","-16","","NA"
"-73.58","45.50","MCTAVISH","7024745","2015-01-21 22:00","2015","01","21","22:00","-13.3","","-17.1","","73","","","","3","","1","","","","101.44","","","","-14","","NA"
"-73.58","45.50","MCTAVISH","7024745","2015-01-21 23:00","2015","01","21","23:00","-13.7","","-17.3","","74","","","","33","","2","","","","101.44","","","","-15","","NA"
"-73.58","45.50","MCTAVISH","7024745","2015-01-22 00:00","2015","01","22","00:00","-14.2","","-17.3","","78","","","","30","","5","","","","101.41","","","","-18","","NA"
"-73.58","45.50","MCTAVISH","7024745","2015-01-22 01:00","2015","01","22","01:00","-14.3","","-16.9","","80","","","","30","","4","","","","101.41","","","","-17","","NA"
"-73.58","45.50","MCTAVISH","7024745","2015-01-22 02:00","2015","01","22","02:00","-14.5","","-16.9","","82","","","","30","","4","","","","101.42","","","","-17","","NA"
"-73.58","45.50","MCTAVISH","7024745","2015-01-22 03:00","2015","01","22","03:00","-14.7","","-17.2","","82","","","","30","","5","","","","101.39","","","","-18","","NA"
"-73.58","45.50","MCTAVISH","7024745","2015-01-22 04:00","2015","01","22","04:00","-14.5","","-16.9","","82","","","","32","","3","","","","101.37","","","","-17","","NA"
"-73.58","45.50","MCTAVISH","7024745","2015-01-22 05:00","2015","01","22","05:00","-14.7","","-16.9","","84","","","","30","","4","","","","101.37","","","","-18","","NA"
"-73.58","45.50","MCTAVISH","7024745","2015-01-22 06:00","2015","01","22","06:00","-15.0","","-17.1","","84","","","","30","","4","","","","101.40","","","","-18","","NA"
"-73.58","45.50","MCTAVISH","7024745","2015-01-22 07:00","2015","01","22","07:00","-15.1","","-17.4","","83","","","","29","","4","","","","101.45","","","","-18","","NA"
"-73.58","45.50","MCTAVISH","7024745","2015-01-22 08:00","2015","01","22","08:00","-14.9","","-17.2","","82","","","","30","","2","","","","101.50","","","","-16","","NA"
"-73.58","45.50","MCTAVISH","7024745","2015-01-22 09:00","2015","01","22","09:00","-14.9","","-17.5","","81","","","","35","","3","","","","101.53","","","","-17","","NA"
"-73.58","45.50","MCTAVISH","7024745","2015-01-22 10:00","2015","01","22","10:00","-14.1","","-16.9","","79","","","","27","","3","","","","101.55","","","","-16","","NA"
"-73.58","45.50","MCTAVISH","7024745","2015-01-22 11:00","2015","01","22","11:00","-12.3","","-16.2","","73","","","","5","","4","","","","101.51","","","","-15","","NA"
"-73.58","45.50","MCTAVISH","7024745","2015-01-22 12:00","2015","01","22","12:00","-9.6","","-14.6","","67","","","","6","","4","","","","101.49","","","","-12","","NA"
"-73.58","45.50","MCTAVISH","7024745","2015-01-22 13:00","2015","01","22","13:00","-8.3","","-14.3","","62","","","","5","","5","","","","101.45","","","","-11","","NA"
"-73.58","45.50","MCTAVISH","7024745","2015-01-22 14:00","2015","01","22","14:00","-8.0","","-14.9","","58","","","","22","","6","","","","101.47","","","","-11","","NA"
"-73.58","45.50","MCTAVISH","7024745","2015-01-22 15:00","2015","01","22","15:00","-8.4","","-15.5","","57","","","","25","","6","","","","101.52","","","","-12","","NA"
"-73.58","45.50","MCTAVISH","7024745","2015-01-22 16:00","2015","01","22","16:00","-9.0","","-15.1","","61","","","","22","","8","","","","101.54","","","","-13","","NA"
"-73.58","45.50","MCTAVISH","7024745","2015-01-22 17:00","2015","01","22","17:00","-9.3","","-14.5","","66","","","","20","","6","","","","101.57","","","","-13","","NA"
"-73.58","45.50","MCTAVISH","7024745","2015-01-22 18:00","2015","01","22","18:00","-9.8","","-14.9","","66","","","","23","","13","","","","101.57","","","","-16","","NA"
"-73.58","45.50","MCTAVISH","7024745","2015-01-22 19:00","2015","01","22","19:00","-9.7","","-14.4","","68","","","","23","","13","","","","101.64","","","","-16","","NA"
"-73.58","45.50","MCTAVISH","7024745","2015-01-22 20:00","2015","01","22","20:00","-9.5","","-14.8","","65","","","","22","","11","","","","101.64","","","","-15","","NA"
"-73.58","45.50","MCTAVISH","7024745","2015-01-22 21:00","2015","01","22","21:00","-9.3","","-14.8","","64","","","","22","","15","","","","101.61","","","","-16","","NA"
"-73.58","45.50","MCTAVISH","7024745","2015-01-22 22:00","2015","01","22","22:00","-9.2","","-14.3","","67","","","","20","","8","","","","101.62","","","","-14","","NA"
"-73.58","45.50","MCTAVISH","7024745","2015-01-22 23:00","2015","01","22","23:00","-9.1","","-14.0","","67","","","","20","","8","","","","101.57","","","","-13","","NA"
"-73.58","45.50","MCTAVISH","7024745","2015-01-23 00:00","2015","01","23","00:00","-9.6","","-14.1","","69","","","","21","","10","","","","101.48","","","","-15","","NA"
"-73.58","45.50","MCTAVISH","7024745","2015-01-23 01:00","2015","01","23","01:00","-9.5","","-13.9","","70","","","","18","","9","","","","101.44","","","","-14","","NA"
"-73.58","45.50","MCTAVISH","7024745","2015-01-23 02:00","2015","01","23","02:00","-9.7","","-13.7","","73","","","","19","","9","","","","101.43","","","","-15","","NA"
"-73.58","45.50","MCTAVISH","7024745","2015-01-23 03:00","2015","01","23","03:00","-9.6","","-13.3","","75","","","","20","","8","","","","101.39","","","","-14","","NA"
"-73.58","45.50","MCTAVISH","7024745","2015-01-23 04:00","2015","01","23","04:00","-9.5","","-12.9","","76","","","","22","","12","","","","101.31","","","","-15","","NA"
"-73.58","45.50","MCTAVISH","7024745","2015-01-23 05:00","2015","01","23","05:00","-8.8","","-11.6","","80","","","","18","","6","","","","101.24","","","","-12","","NA"
"-73.58","45.50","MCTAVISH","7024745","2015-01-23 06:00","2015","01","23","06:00","-8.9","","-11.3","","83","","","","18","","6","","","","101.23","","","","-12","","NA"
"-73.58","45.50","MCTAVISH","7024745","2015-01-23 07:00","2015","01","23","07:00","-8.6","","-10.9","","84","","","","17","","4","","","","101.18","","","","-11","","NA"
"-73.58","45.50","MCTAVISH","7024745","2015-01-23 08:00","2015","01","23","08:00","-8.0","","-10.5","","82","","","","17","","4","","","","101.16","","","","-10","","NA"
"-73.58","45.50","MCTAVISH","7024745","2015-01-23 09:00","2015","01","23","09:00","-6.3","","-9.3","","79","","","","17","","5","","","","101.12","","","","-9","","NA"
"-73.58","45.50","MCTAVISH","7024745","2015-01-23 10:00","2015","01","23","10:00","-5.8","","-8.9","","79","","","","18","","5","","","","101.04","","","","-8","","NA"
"-73.58","45.50","MCTAVISH","7024745","2015-01-23 11:00","2015","01","23","11:00","-4.6","","-8.3","","76","","","","18","","7","","","","100.91","","","","-8","","NA"
"-73.58","45.50","MCTAVISH","7024745","2015-01-23 12:00","2015","01","23","12:00","-1.6","","-7.5","","64","","","","18","","11","","","","100.74","","","","-5","","NA"
"-73.58","45.50","MCTAVISH","7024745","2015-01-23 13:00","2015","01","23","13:00","-0.3","","-7.5","","58","","","","20","","15","","","","100.57","","","","-5","","NA"
"-73.58","45.50","MCTAVISH","7024745","2015-01-23 14:00","2015","01","23","14:00","-0.3","","-6.2","","64","","","","18","","12","","","","100.44","","","","-4","","NA"
"-73.58","45.50","MCTAVISH","7024745","2015-01-23 15:00","2015","01","23","15:00","-0.3","","-5.9","","66","","","","19","","16","","","","100.35","","","","-5","","NA"
"-73.58","45.50","MCTAVISH","7024745","2015-01-23 16:00","2015","01","23","16:00","-0.4","","-5.8","","67","","","","19","","10","","","","100.33","","","","-4","","NA"
"-73.58","45.50","MCTAVISH","7024745","2015-01-23 17:00","2015","01","23","17:00","-0.9","","-6.0","","69","","","","20","","12","","","","100.26","","","","-5","","NA"
"-73.58","45.50","MCTAVISH","7024745","2015-01-23 18:00","2015","01","23","18:00","-1.3","","-5.5","","73","","","","19","","11","","","","100.26","","","","-5","","NA"
"-73.58","45.50","MCTAVISH","7024745","2015-01-23 19:00","2015","01","23","19:00","-1.4","","-5.5","","74","","","","20","","12","","","","100.24","","","","-5","","NA"
"-73.58","45.50","MCTAVISH","7024745","2015-01-23 20:00","2015","01","23","20:00","-1.5","","-5.8","","72","","","","20","","13","","","","100.18","","","","-6","","NA"
"-73.58","45.50","MCTAVISH","7024745","2015-01-23 21:00","2015","01","23","21:00","-1.7","","-5.8","","74","","","","18","","11","","","","100.13","","","","-6","","NA"
"-73.58","45.50","MCTAVISH","7024745","2015-01-23 22:00","2015","01","23","22:00","-1.7","","-7.1","","67","","","","18","","12","","","","100.04","","","","-6","","NA"
"-73.58","45.50","MCTAVISH","7024745","2015-01-23 23:00","2015","01","23","23:00","-1.6","","-6.9","","67","","","","17","","8","","","","99.95","","","","-5","","NA"
"-73.58","45.50","MCTAVISH","7024745","2015-01-24 00:00","2015","01","24","00:00","-1.7","","-7.0","","67","","","","17","","9","","","","99.89","","","","-5","","NA"
"-73.58","45.50","MCTAVISH","7024745","2015-01-24 01:00","2015","01","24","01:00","-1.5","","-6.7","","68","","","","18","","9","","","","99.81","","","","-5","","NA"
"-73.58","45.50","MCTAVISH","7024745","2015-01-24 02:00","2015","01","24","02:00","-1.6","","-6.3","","70","","","","18","","9","","","","99.76","","","","-5","","NA"
"-73.58","45.50","MCTAVISH","7024745","2015-01-24 03:00","2015","01","24","03:00","-1.7","","-6.3","","71","","","","19","","8","","","","99.66","","","","-5","","NA"
"-73.58","45.50","MCTAVISH","7024745","2015-01-24 04:00","2015","01","24","04:00","-2.1","","-6.5","","72","","","","19","","10","","","","99.55","","","","-6","","NA"
"-73.58","45.50","MCTAVISH","7024745","2015-01-24 05:00","2015","01","24","05:00","-2.1","","-5.8","","75","","","","18","","8","","","","99.45","","","","-5","","NA"
"-73.58","45.50","MCTAVISH","7024745","2015-01-24 06:00","2015","01","24","06:00","-2.1","","-5.6","","77","","","","18","","9","","","","99.48","","","","-6","","NA"
"-73.58","45.50","MCTAVISH","7024745","2015-01-24 07:00","2015","01","24","07:00","-2.2","","-5.5","","78","","","","19","","9","","","","99.44","","","","-6","","NA"
"-73.58","45.50","MCTAVISH","7024745","2015-01-24 08:00","2015","01","24","08:00","-2.2","","-5.4","","78","","","","18","","8","","","","99.38","","","","-5","","NA"
"-73.58","45.50","MCTAVISH","7024745","2015-01-24 09:00","2015","01","24","09:00","-2.8","","-6.1","","78","","","","17","","3","","","","99.29","","","","-4","","NA"
"-73.58","45.50","MCTAVISH","7024745","2015-01-24 10:00","2015","01","24","10:00","-2.3","","-5.8","","77","","","","18","","8","","","","99.23","","","","-5","","NA"
"-73.58","45.50","MCTAVISH","7024745","2015-01-24 11:00","2015","01","24","11:00","-1.6","","-5.7","","73","","","","19","","9","","","","99.12","","","","-5","","NA"
"-73.58","45.50","MCTAVISH","7024745","2015-01-24 12:00","2015","01","24","12:00","-0.6","","-5.1","","72","","","","20","","8","","","","98.95","","","","-3","","NA"
"-73.58","45.50","MCTAVISH","7024745","2015-01-24 13:00","2015","01","24","13:00","-0.6","","-4.6","","74","","","","20","","7","","","","98.84","","","","-3","","NA"
"-73.58","45.50","MCTAVISH","7024745","2015-01-24 14:00","2015","01","24","14:00","-0.7","","-4.5","","75","","","","22","","8","","","","98.73","","","","-4","","NA"
"-73.58","45.50","MCTAVISH","7024745","2015-01-24 15:00","2015","01","24","15:00","-0.8","","-4.7","","75","","","","24","","5","","","","98.59","","","","-2","","NA"
"-73.58","45.50","MCTAVISH","7024745","2015-01-24 16:00","2015","01","24","16:00","-0.9","","-4.4","","77","","","","23","","4","","","","98.54","","","","-2","","NA"
"-73.58","45.50","MCTAVISH","7024745","2015-01-24 17:00","2015","01","24","17:00","-1.4","","-3.8","","84","","","","23","","3","","","","98.48","","","","-2","","NA"
"-73.58","45.50","MCTAVISH","7024745","2015-01-24 18:00","2015","01","24","18:00","-1.0","","-3.8","","81","","","","21","","5","","","","98.44","","","","-3","","NA"
"-73.58","45.50","MCTAVISH","7024745","2015-01-24 19:00","2015","01","24","19:00","-1.1","","-3.9","","82","","","","22","","3","","","","98.44","","","","-2","","NA"
"-73.58","45.50","MCTAVISH","7024745","2015-01-24 20:00","2015","01","24","20:00","-1.5","","-3.5","","86","","","","23","","4","","","","98.40","","","","-3","","NA"
"-73.58","45.50","MCTAVISH","7024745","2015-01-24 21:00","2015","01","24","21:00","-1.7","","-3.7","","86","","","","21","","6","","","","98.33","","","","-4","","NA"
"-73.58","45.50","MCTAVISH","7024745","2015-01-24 22:00","2015","01","24","22:00","-1.8","","-3.8","","86","","","","22","","5","","","","98.29","","","","-4","","NA"
"-73.58","45.50","MCTAVISH","7024745","2015-01-24 23:00","2015","01","24","23:00","-1.8","","-3.8","","87","","","","20","","10","","","","98.26","","","","-5","","NA"
"-73.58","45.50","MCTAVISH","7024745","2015-01-25 00:00","2015","01","25","00:00","-1.7","","-3.6","","87","","","","19","","8","","","","98.26","","","","-5","","NA"
"-73.58","45.50","MCTAVISH","7024745","2015-01-25 01:00","2015","01","25","01:00","-1.6","","-3.2","","89","","","","20","","8","","","","98.25","","","","-5","","NA"
"-73.58","45.50","MCTAVISH","7024745","2015-01-25 02:00","2015","01","25","02:00","-1.7","","-3.2","","89","","","","20","","7","","","","98.33","","","","-4","","NA"
"-73.58","45.50","MCTAVISH","7024745","2015-01-25 03:00","2015","01","25","03:00","-1.6","","-3.7","","86","","","","16","","2","","","","98.40","","","","-2","","NA"
"-73.58","45.50","MCTAVISH","7024745","2015-01-25 04:00","2015","01","25","04:00","-4.4","","-9.9","","65","","","","28","","11","","","","98.64","","","","-9","","NA"
"-73.58","45.50","MCTAVISH","7024745","2015-01-25 05:00","2015","01","25","05:00","-7.1","","-14.3","","56","","","","3","","5","","","","98.88","","","","-10","","NA"
"-73.58","45.50","MCTAVISH","7024745","2015-01-25 06:00","2015","01","25","06:00","-10.1","","-15.7","","63","","","","27","","6","","","","99.14","","","","-14","","NA"
"-73.58","45.50","MCTAVISH","7024745","2015-01-25 07:00","2015","01","25","07:00","-12.7","","-18.8","","61","","","","29","","9","","","","99.38","","","","-18","","NA"
"-73.58","45.50","MCTAVISH","7024745","2015-01-25 08:00","2015","01","25","08:00","-13.7","","-19.2","","63","","","","27","","6","","","","99.58","","","","-18","","NA"
"-73.58","45.50","MCTAVISH","7024745","2015-01-25 09:00","2015","01","25","09:00","-14.1","","-19.9","","62","","","","21","","8","","","","99.70","","","","-19","","NA"
"-73.58","45.50","MCTAVISH","7024745","2015-01-25 10:00","2015","01","25","10:00","-14.7","","-20.9","","59","","","","15","","7","","","","99.82","","","","-19","","NA"
"-73.58","45.50","MCTAVISH","7024745","2015-01-25 11:00","2015","01","25","11:00","-14.0","","-20.5","","58","","","","19","","7","","","","99.93","","","","-19","","NA"
"-73.58","45.50","MCTAVISH","7024745","2015-01-25 12:00","2015","01","25","12:00","-12.9","","-21.0","","50","","","","23","","5","","","","99.99","","","","-16","","NA"
"-73.58","45.50","MCTAVISH","7024745","2015-01-25 13:00","2015","01","25","13:00","-12.7","","-20.4","","52","","","","23","","6","","","","100.05","","","","-17","","NA"
"-73.58","45.50","MCTAVISH","7024745","2015-01-25 14:00","2015","01","25","14:00","-11.5","","-19.7","","51","","","","21","","7","","","","100.08","","","","-16","","NA"
"-73.58","45.50","MCTAVISH","7024745","2015-01-25 15:00","2015","01","25","15:00","-11.9","","-20.9","","47","","","","20","","7","","","","100.19","","","","-16","","NA"
"-73.58","45.50","MCTAVISH","7024745","2015-01-25 16:00","2015","01","25","16:00","-12.0","","-19.8","","52","","","","20","","6","","","","100.30","","","","-16","","NA"
"-73.58","45.50","MCTAVISH","7024745","2015-01-25 17:00","2015","01","25","17:00","-12.3","","-19.6","","54","","","","18","","7","","","","100.44","","","","-17","","NA"
"-73.58","45.50","MCTAVISH","7024745","2015-01-25 18:00","2015","01","25","18:00","-12.8","","-20.2","","54","","","","22","","3","","","","100.59","","","","-15","","NA"
"-73.58","45.50","MCTAVISH","7024745","2015-01-25 19:00","2015","01","25","19:00","-13.5","","-20.5","","56","","","","22","","5","","","","100.73","","","","-17","","NA"
"-73.58","45.50","MCTAVISH","7024745","2015-01-25 20:00","2015","01","25","20:00","-13.9","","-21.1","","54","","","","29","","6","","","","100.84","","","","-18","","NA"
"-73.58","45.50","MCTAVISH","7024745","2015-01-25 21:00","2015","01","25","21:00","-14.2","","-21.2","","55","","","","28","","6","","","","100.91","","","","-18","","NA"
"-73.58","45.50","MCTAVISH","7024745","2015-01-25 22:00","2015","01","25","22:00","-14.8","","-21.7","","56","","","","27","","7","","","","100.99","","","","-20","","NA"
"-73.58","45.50","MCTAVISH","7024745","2015-01-25 23:00","2015","01","25","23:00","-15.3","","-21.6","","59","","","","27","","9","","","","101.04","","","","-21","","NA"
"-73.58","45.50","MCTAVISH","7024745","2015-01-26 00:00","2015","01","26","00:00","-15.7","","-21.5","","61","","","","26","","6","","","","101.06","","","","-20","","NA"
"-73.58","45.50","MCTAVISH","7024745","2015-01-26 01:00","2015","01","26","01:00","-16.4","","-22.1","","61","","","","26","","4","","","","101.06","","","","-19","","NA"
"-73.58","45.50","MCTAVISH","7024745","2015-01-26 02:00","2015","01","26","02:00","-17.7","","-22.9","","64","","","","21","","4","","","","101.13","","","","-21","","NA"
"-73.58","45.50","MCTAVISH","7024745","2015-01-26 03:00","2015","01","26","03:00","-17.2","","-21.7","","68","","","","26","","3","","","","101.18","","","","-20","","NA"
"-73.58","45.50","MCTAVISH","7024745","2015-01-26 04:00","2015","01","26","04:00","-18.4","","-23.2","","66","","","","26","","5","","","","101.18","","","","-22","","NA"
"-73.58","45.50","MCTAVISH","7024745","2015-01-26 05:00","2015","01","26","05:00","-17.3","","-21.8","","68","","","","29","","1","","","","101.20","","","","-18","","NA"
"-73.58","45.50","MCTAVISH","7024745","2015-01-26 06:00","2015","01","26","06:00","-17.0","","-21.5","","68","","","","31","","4","","","","101.25","","","","-20","","NA"
"-73.58","45.50","MCTAVISH","7024745","2015-01-26 07:00","2015","01","26","07:00","-16.9","","-20.6","","73","","","","4","","3","","","","101.31","","","","-19","","NA"
"-73.58","45.50","MCTAVISH","7024745","2015-01-26 08:00","2015","01","26","08:00","-17.3","","-20.7","","75","","","","5","","7","","","","101.36","","","","-23","","NA"
"-73.58","45.50","MCTAVISH","7024745","2015-01-26 09:00","2015","01","26","09:00","-17.2","","-20.9","","73","","","","4","","7","","","","101.40","","","","-22","","NA"
"-73.58","45.50","MCTAVISH","7024745","2015-01-26 10:00","2015","01","26","10:00","-17.1","","-22.5","","63","","","","6","","10","","","","101.41","","","","-24","","NA"
"-73.58","45.50","MCTAVISH","7024745","2015-01-26 11:00","2015","01","26","11:00","-16.0","","-21.5","","62","","","","5","","7","","","","101.43","","","","-21","","NA"
"-73.58","45.50","MCTAVISH","7024745","2015-01-26 12:00","2015","01","26","12:00","-15.4","","-22.2","","56","","","","5","","8","","","","101.40","","","","-21","","NA"
"-73.58","45.50","MCTAVISH","7024745","2015-01-26 13:00","2015","01","26","13:00","-14.7","","-21.4","","57","","","","5","","7","","","","101.35","","","","-19","","NA"
"-73.58","45.50","MCTAVISH","7024745","2015-01-26 14:00","2015","01","26","14:00","-14.7","","-22.3","","53","","","","5","","7","","","","101.29","","","","-19","","NA"
"-73.58","45.50","MCTAVISH","7024745","2015-01-26 15:00","2015","01","26","15:00","-14.7","","-22.0","","54","","","","5","","8","","","","101.24","","","","-20","","NA"
"-73.58","45.50","MCTAVISH","7024745","2015-01-26 16:00","2015","01","26","16:00","-14.9","","-22.4","","53","","","","5","","9","","","","101.28","","","","-21","","NA"
"-73.58","45.50","MCTAVISH","7024745","2015-01-26 17:00","2015","01","26","17:00","-14.7","","-21.7","","55","","","","4","","7","","","","101.33","","","","-19","","NA"
"-73.58","45.50","MCTAVISH","7024745","2015-01-26 18:00","2015","01","26","18:00","-15.3","","-21.8","","57","","","","4","","6","","","","101.37","","","","-20","","NA"
"-73.58","45.50","MCTAVISH","7024745","2015-01-26 19:00","2015","01","26","19:00","-15.2","","-21.7","","58","","","","3","","5","","","","101.33","","","","-19","","NA"
"-73.58","45.50","MCTAVISH","7024745","2015-01-26 20:00","2015","01","26","20:00","-15.4","","-21.8","","58","","","","36","","4","","","","101.33","","","","-18","","NA"
"-73.58","45.50","MCTAVISH","7024745","2015-01-26 21:00","2015","01","26","21:00","-15.3","","-21.0","","62","","","","30","","4","","","","101.32","","","","-18","","NA"
"-73.58","45.50","MCTAVISH","7024745","2015-01-26 22:00","2015","01","26","22:00","-15.5","","-20.7","","64","","","","3","","10","","","","101.30","","","","-22","","NA"
"-73.58","45.50","MCTAVISH","7024745","2015-01-26 23:00","2015","01","26","23:00","-15.7","","-21.3","","62","","","","3","","5","","","","101.24","","","","-19","","NA"
"-73.58","45.50","MCTAVISH","7024745","2015-01-27 00:00","2015","01","27","00:00","-15.2","","-20.2","","66","","","","6","","6","","","","101.16","","","","-19","","NA"
"-73.58","45.50","MCTAVISH","7024745","2015-01-27 01:00","2015","01","27","01:00","-15.0","","-20.1","","65","","","","4","","11","","","","101.04","","","","-22","","NA"
"-73.58","45.50","MCTAVISH","7024745","2015-01-27 02:00","2015","01","27","02:00","-14.9","","-20.0","","65","","","","4","","8","","","","101.03","","","","-20","","NA"
"-73.58","45.50","MCTAVISH","7024745","2015-01-27 03:00","2015","01","27","03:00","-14.5","","-19.9","","63","","","","4","","8","","","","100.98","","","","-20","","NA"
"-73.58","45.50","MCTAVISH","7024745","2015-01-27 04:00","2015","01","27","04:00","-14.1","","-19.6","","63","","","","4","","10","","","","100.94","","","","-20","","NA"
"-73.58","45.50","MCTAVISH","7024745","2015-01-27 05:00","2015","01","27","05:00","-14.1","","-20.8","","57","","","","4","","10","","","","100.93","","","","-20","","NA"
"-73.58","45.50","MCTAVISH","7024745","2015-01-27 06:00","2015","01","27","06:00","-13.9","","-20.1","","60","","","","4","","9","","","","100.95","","","","-20","","NA"
"-73.58","45.50","MCTAVISH","7024745","2015-01-27 07:00","2015","01","27","07:00","-14.1","","-19.4","","64","","","","4","","9","","","","100.93","","","","-20","","NA"
"-73.58","45.50","MCTAVISH","7024745","2015-01-27 08:00","2015","01","27","08:00","-14.1","","-18.9","","67","","","","4","","10","","","","100.98","","","","-20","","NA"
"-73.58","45.50","MCTAVISH","7024745","2015-01-27 09:00","2015","01","27","09:00","-14.2","","-19.0","","67","","","","4","","10","","","","101.00","","","","-20","","NA"
"-73.58","45.50","MCTAVISH","7024745","2015-01-27 10:00","2015","01","27","10:00","-13.9","","-19.2","","64","","","","4","","9","","","","100.97","","","","-20","","NA"
"-73.58","45.50","MCTAVISH","7024745","2015-01-27 11:00","2015","01","27","11:00","-13.5","","-19.1","","63","","","","5","","10","","","","100.90","","","","-19","","NA"
"-73.58","45.50","MCTAVISH","7024745","2015-01-27 12:00","2015","01","27","12:00","-13.0","","-19.5","","58","","","","4","","11","","","","100.85","","","","-19","","NA"
"-73.58","45.50","MCTAVISH","7024745","2015-01-27 13:00","2015","01","27","13:00","-12.2","","-20.1","","52","","","","4","","13","","","","100.78","","","","-19","","NA"
"-73.58","45.50","MCTAVISH","7024745","2015-01-27 14:00","2015","01","27","14:00","-11.2","","-20.5","","46","","","","4","","12","","","","100.76","","","","-17","","NA"
"-73.58","45.50","MCTAVISH","7024745","2015-01-27 15:00","2015","01","27","15:00","-11.1","","-19.7","","49","","","","4","","10","","","","100.74","","","","-17","","NA"
"-73.58","45.50","MCTAVISH","7024745","2015-01-27 16:00","2015","01","27","16:00","-10.6","","-20.0","","46","","","","4","","8","","","","100.72","","","","-15","","NA"
"-73.58","45.50","MCTAVISH","7024745","2015-01-27 17:00","2015","01","27","17:00","-10.1","","-19.4","","46","","","","6","","4","","","","100.71","","","","-12","","NA"
"-73.58","45.50","MCTAVISH","7024745","2015-01-27 18:00","2015","01","27","18:00","-9.8","","-19.4","","45","","","","6","","4","","","","100.69","","","","-12","","NA"
"-73.58","45.50","MCTAVISH","7024745","2015-01-27 19:00","2015","01","27","19:00","-9.5","","-19.9","","42","","","","5","","8","","","","100.70","","","","-14","","NA"
"-73.58","45.50","MCTAVISH","7024745","2015-01-27 20:00","2015","01","27","20:00","-10.0","","-20.1","","44","","","","5","","6","","","","100.71","","","","-14","","NA"
"-73.58","45.50","MCTAVISH","7024745","2015-01-27 21:00","2015","01","27","21:00","-10.8","","-21.2","","42","","","","5","","9","","","","100.69","","","","-16","","NA"
"-73.58","45.50","MCTAVISH","7024745","2015-01-27 22:00","2015","01","27","22:00","-11.5","","-21.6","","43","","","","6","","6","","","","100.69","","","","-15","","NA"
"-73.58","45.50","MCTAVISH","7024745","2015-01-27 23:00","2015","01","27","23:00","-12.7","","-17.1","","69","","","","5","","7","","","","100.71","","","","-17","","NA"
"-73.58","45.50","MCTAVISH","7024745","2015-01-28 00:00","2015","01","28","00:00","-12.5","","-16.8","","70","","","","5","","5","","","","100.71","","","","-16","","NA"
"-73.58","45.50","MCTAVISH","7024745","2015-01-28 01:00","2015","01","28","01:00","-12.7","","-16.8","","71","","","","6","","5","","","","100.71","","","","-16","","NA"
"-73.58","45.50","MCTAVISH","7024745","2015-01-28 02:00","2015","01","28","02:00","-12.5","","-17.6","","66","","","","7","","4","","","","100.72","","","","-15","","NA"
"-73.58","45.50","MCTAVISH","7024745","2015-01-28 03:00","2015","01","28","03:00","-12.1","","-20.8","","48","","","","8","","2","","","","100.74","","","","-13","","NA"
"-73.58","45.50","MCTAVISH","7024745","2015-01-28 04:00","2015","01","28","04:00","-12.4","","-22.7","","42","","","","7","","3","","","","100.77","","","","-14","","NA"
"-73.58","45.50","MCTAVISH","7024745","2015-01-28 05:00","2015","01","28","05:00","-12.6","","-22.5","","43","","","","31","","4","","","","100.84","","","","-15","","NA"
"-73.58","45.50","MCTAVISH","7024745","2015-01-28 06:00","2015","01","28","06:00","-12.2","","-22.8","","41","","","","7","","2","","","","100.90","","","","-13","","NA"
"-73.58","45.50","MCTAVISH","7024745","2015-01-28 07:00","2015","01","28","07:00","-12.8","","-23.0","","42","","","","27","","3","","","","101.00","","","","-15","","NA"
"-73.58","45.50","MCTAVISH","7024745","2015-01-28 08:00","2015","01","28","08:00","-13.1","","-22.5","","45","","","","24","","5","","","","101.08","","","","-16","","NA"
"-73.58","45.50","MCTAVISH","7024745","2015-01-28 09:00","2015","01","28","09:00","-11.8","","-23.8","","36","","","","27","","7","","","","101.15","","","","-16","","NA"
"-73.58","45.50","MCTAVISH","7024745","2015-01-28 10:00","2015","01","28","10:00","-10.8","","-23.7","","34","","","","22","","4","","","","101.18","","","","-13","","NA"
"-73.58","45.50","MCTAVISH","7024745","2015-01-28 11:00","2015","01","28","11:00","-9.7","","-23.1","","33","","","","23","","4","","","","101.23","","","","-12","","NA"
"-73.58","45.50","MCTAVISH","7024745","2015-01-28 12:00","2015","01","28","12:00","-8.8","","-23.3","","30","","","","25","","6","","","","101.20","","","","-12","","NA"
"-73.58","45.50","MCTAVISH","7024745","2015-01-28 13:00","2015","01","28","13:00","-8.2","","-18.8","","42","","","","21","","7","","","","101.19","","","","-12","","NA"
"-73.58","45.50","MCTAVISH","7024745","2015-01-28 14:00","2015","01","28","14:00","-8.8","","-19.5","","41","","","","21","","13","","","","101.19","","","","-15","","NA"
"-73.58","45.50","MCTAVISH","7024745","2015-01-28 15:00","2015","01","28","15:00","-9.0","","-19.4","","42","","","","22","","14","","","","101.23","","","","-15","","NA"
"-73.58","45.50","MCTAVISH","7024745","2015-01-28 16:00","2015","01","28","16:00","-9.1","","-19.3","","43","","","","22","","14","","","","101.29","","","","-15","","NA"
"-73.58","45.50","MCTAVISH","7024745","2015-01-28 17:00","2015","01","28","17:00","-9.3","","-18.9","","46","","","","21","","17","","","","101.35","","","","-16","","NA"
"-73.58","45.50","MCTAVISH","7024745","2015-01-28 18:00","2015","01","28","18:00","-9.3","","-19.3","","44","","","","21","","18","","","","101.42","","","","-17","","NA"
"-73.58","45.50","MCTAVISH","7024745","2015-01-28 19:00","2015","01","28","19:00","-9.7","","-19.6","","44","","","","23","","18","","","","101.44","","","","-17","","NA"
"-73.58","45.50","MCTAVISH","7024745","2015-01-28 20:00","2015","01","28","20:00","-9.8","","-20.0","","43","","","","24","","21","","","","101.47","","","","-18","","NA"
"-73.58","45.50","MCTAVISH","7024745","2015-01-28 21:00","2015","01","28","21:00","-9.8","","-20.4","","42","","","","24","","24","","","","101.47","","","","-18","","NA"
"-73.58","45.50","MCTAVISH","7024745","2015-01-28 22:00","2015","01","28","22:00","-10.1","","-20.3","","43","","","","25","","26","","","","101.52","","","","-19","","NA"
"-73.58","45.50","MCTAVISH","7024745","2015-01-28 23:00","2015","01","28","23:00","-10.0","","-20.2","","43","","","","25","","14","","","","101.60","","","","-16","","NA"
"-73.58","45.50","MCTAVISH","7024745","2015-01-29 00:00","2015","01","29","00:00","-10.3","","-20.2","","44","","","","24","","11","","","","101.60","","","","-16","","NA"
"-73.58","45.50","MCTAVISH","7024745","2015-01-29 01:00","2015","01","29","01:00","-10.6","","-20.7","","43","","","","24","","20","","","","101.59","","","","-19","","NA"
"-73.58","45.50","MCTAVISH","7024745","2015-01-29 02:00","2015","01","29","02:00","-10.0","","-20.3","","43","","","","24","","21","","","","101.61","","","","-18","","NA"
"-73.58","45.50","MCTAVISH","7024745","2015-01-29 03:00","2015","01","29","03:00","-9.4","","-19.5","","44","","","","24","","16","","","","101.63","","","","-16","","NA"
"-73.58","45.50","MCTAVISH","7024745","2015-01-29 04:00","2015","01","29","04:00","-9.4","","-20.6","","40","","","","21","","11","","","","101.64","","","","-15","","NA"
"-73.58","45.50","MCTAVISH","7024745","2015-01-29 05:00","2015","01","29","05:00","-11.5","","-18.8","","55","","","","18","","3","","","","101.62","","","","-13","","NA"
"-73.58","45.50","MCTAVISH","7024745","2015-01-29 06:00","2015","01","29","06:00","-12.2","","-18.4","","60","","","","20","","7","","","","101.63","","","","-17","","NA"
"-73.58","45.50","MCTAVISH","7024745","2015-01-29 07:00","2015","01","29","07:00","-12.7","","-19.0","","59","","","","21","","4","","","","101.60","","","","-15","","NA"
"-73.58","45.50","MCTAVISH","7024745","2015-01-29 08:00","2015","01","29","08:00","-11.0","","-17.4","","59","","","","18","","9","","","","101.57","","","","-16","","NA"
"-73.58","45.50","MCTAVISH","7024745","2015-01-29 09:00","2015","01","29","09:00","-9.9","","-15.9","","62","","","","16","","3","","","","101.50","","","","-12","","NA"
"-73.58","45.50","MCTAVISH","7024745","2015-01-29 10:00","2015","01","29","10:00","-9.1","","-15.9","","58","","","","16","","3","","","","101.41","","","","-11","","NA"
"-73.58","45.50","MCTAVISH","7024745","2015-01-29 11:00","2015","01","29","11:00","-8.0","","-14.4","","60","","","","16","","3","","","","101.30","","","","-10","","NA"
"-73.58","45.50","MCTAVISH","7024745","2015-01-29 12:00","2015","01","29","12:00","-5.5","","-15.1","","47","","","","13","","3","","","","101.11","","","","-7","","NA"
"-73.58","45.50","MCTAVISH","7024745","2015-01-29 13:00","2015","01","29","13:00","-5.5","","-15.3","","46","","","","6","","9","","","","100.92","","","","-10","","NA"
"-73.58","45.50","MCTAVISH","7024745","2015-01-29 14:00","2015","01","29","14:00","-4.9","","-16.4","","40","","","","8","","10","","","","100.77","","","","-9","","NA"
"-73.58","45.50","MCTAVISH","7024745","2015-01-29 15:00","2015","01","29","15:00","-5.4","","-15.1","","46","","","","5","","6","","","","100.67","","","","-8","","NA"
"-73.58","45.50","MCTAVISH","7024745","2015-01-29 16:00","2015","01","29","16:00","-6.6","","-15.0","","51","","","","7","","3","","","","100.62","","","","-8","","NA"
"-73.58","45.50","MCTAVISH","7024745","2015-01-29 17:00","2015","01","29","17:00","-6.9","","-14.5","","55","","","","2","","5","","","","100.55","","","","-9","","NA"
"-73.58","45.50","MCTAVISH","7024745","2015-01-29 18:00","2015","01","29","18:00","-7.0","","-13.7","","59","","","","36","","4","","","","100.45","","","","-9","","NA"
"-73.58","45.50","MCTAVISH","7024745","2015-01-29 19:00","2015","01","29","19:00","-6.2","","-13.0","","58","","","","6","","4","","","","100.35","","","","-8","","NA"
"-73.58","45.50","MCTAVISH","7024745","2015-01-29 20:00","2015","01","29","20:00","-5.6","","-7.2","","89","","","","15","","3","","","","100.23","","","","-7","","NA"
"-73.58","45.50","MCTAVISH","7024745","2015-01-29 21:00","2015","01","29","21:00","-1.0","","-8.8","","56","","","","18","","7","","","","100.08","","","","-4","","NA"
"-73.58","45.50","MCTAVISH","7024745","2015-01-29 22:00","2015","01","29","22:00","-1.0","","-8.6","","56","","","","19","","8","","","","100.04","","","","-4","","NA"
"-73.58","45.50","MCTAVISH","7024745","2015-01-29 23:00","2015","01","29","23:00","-2.6","","-4.5","","86","","","","18","","5","","","","100.04","","","","-5","","NA"
"-73.58","45.50","MCTAVISH","7024745","2015-01-30 00:00","2015","01","30","00:00","-2.5","","-3.7","","92","","","","16","","4","","","","99.98","","","","-4","","NA"
"-73.58","45.50","MCTAVISH","7024745","2015-01-30 01:00","2015","01","30","01:00","-2.4","","-3.8","","90","","","","16","","5","","","","99.95","","","","-4","","NA"
"-73.58","45.50","MCTAVISH","7024745","2015-01-30 02:00","2015","01","30","02:00","-2.2","","-4.7","","83","","","","16","","4","","","","99.92","","","","-4","","NA"
"-73.58","45.50","MCTAVISH","7024745","2015-01-30 03:00","2015","01","30","03:00","-2.2","","-4.8","","82","","","","18","","5","","","","99.87","","","","-4","","NA"
"-73.58","45.50","MCTAVISH","7024745","2015-01-30 04:00","2015","01","30","04:00","-2.8","","-4.3","","90","","","","19","","8","","","","99.90","","","","-6","","NA"
"-73.58","45.50","MCTAVISH","7024745","2015-01-30 05:00","2015","01","30","05:00","-2.9","","-3.8","","94","","","","16","","3","","","","99.92","","","","-4","","NA"
"-73.58","45.50","MCTAVISH","7024745","2015-01-30 06:00","2015","01","30","06:00","-2.8","","-3.5","","95","","","","19","","7","","","","99.95","","","","-6","","NA"
"-73.58","45.50","MCTAVISH","7024745","2015-01-30 07:00","2015","01","30","07:00","-2.9","","-3.5","","95","","","","18","","5","","","","99.95","","","","-5","","NA"
"-73.58","45.50","MCTAVISH","7024745","2015-01-30 08:00","2015","01","30","08:00","-2.7","","-3.3","","96","","","","23","","3","","","","99.99","","","","-4","","NA"
"-73.58","45.50","MCTAVISH","7024745","2015-01-30 09:00","2015","01","30","09:00","-3.5","","-4.6","","92","","","","28","","6","","","","100.08","","","","-6","","NA"
"-73.58","45.50","MCTAVISH","7024745","2015-01-30 10:00","2015","01","30","10:00","-3.4","","-4.8","","90","","","","29","","7","","","","100.16","","","","-6","","NA"
"-73.58","45.50","MCTAVISH","7024745","2015-01-30 11:00","2015","01","30","11:00","-3.6","","-5.3","","88","","","","27","","8","","","","100.28","","","","-7","","NA"
"-73.58","45.50","MCTAVISH","7024745","2015-01-30 12:00","2015","01","30","12:00","-4.9","","-6.9","","86","","","","29","","7","","","","100.28","","","","-8","","NA"
"-73.58","45.50","MCTAVISH","7024745","2015-01-30 13:00","2015","01","30","13:00","-5.3","","-9.1","","74","","","","6","","4","","","","100.32","","","","-7","","NA"
"-73.58","45.50","MCTAVISH","7024745","2015-01-30 14:00","2015","01","30","14:00","-6.0","","-11.5","","65","","","","35","","5","","","","100.37","","","","-8","","NA"
"-73.58","45.50","MCTAVISH","7024745","2015-01-30 15:00","2015","01","30","15:00","-7.1","","-13.0","","62","","","","26","","5","","","","100.48","","","","-10","","NA"
"-73.58","45.50","MCTAVISH","7024745","2015-01-30 16:00","2015","01","30","16:00","-7.8","","-13.7","","62","","","","26","","6","","","","100.61","","","","-11","","NA"
"-73.58","45.50","MCTAVISH","7024745","2015-01-30 17:00","2015","01","30","17:00","-8.3","","-13.5","","66","","","","30","","7","","","","100.72","","","","-12","","NA"
"-73.58","45.50","MCTAVISH","7024745","2015-01-30 18:00","2015","01","30","18:00","-9.2","","-14.6","","65","","","","33","","5","","","","100.80","","","","-12","","NA"
"-73.58","45.50","MCTAVISH","7024745","2015-01-30 19:00","2015","01","30","19:00","-10.3","","-16.4","","61","","","","32","","5","","","","100.88","","","","-13","","NA"
"-73.58","45.50","MCTAVISH","7024745","2015-01-30 20:00","2015","01","30","20:00","-11.7","","-18.0","","60","","","","29","","9","","","","100.98","","","","-17","","NA"
"-73.58","45.50","MCTAVISH","7024745","2015-01-30 21:00","2015","01","30","21:00","-13.1","","-19.4","","59","","","","27","","5","","","","101.06","","","","-16","","NA"
"-73.58","45.50","MCTAVISH","7024745","2015-01-30 22:00","2015","01","30","22:00","-13.9","","-20.2","","59","","","","29","","9","","","","101.10","","","","-20","","NA"
"-73.58","45.50","MCTAVISH","7024745","2015-01-30 23:00","2015","01","30","23:00","-14.8","","-20.8","","60","","","","30","","5","","","","101.12","","","","-18","","NA"
"-73.58","45.50","MCTAVISH","7024745","2015-01-31 00:00","2015","01","31","00:00","-16.0","","-22.1","","59","","","","6","","4","","","","101.19","","","","-19","","NA"
"-73.58","45.50","MCTAVISH","7024745","2015-01-31 01:00","2015","01","31","01:00","-17.0","","-22.8","","61","","","","24","","5","","","","101.19","","","","-21","","NA"
"-73.58","45.50","MCTAVISH","7024745","2015-01-31 02:00","2015","01","31","02:00","-18.0","","-23.2","","64","","","","28","","8","","","","101.24","","","","-24","","NA"
"-73.58","45.50","MCTAVISH","7024745","2015-01-31 03:00","2015","01","31","03:00","-19.0","","-24.1","","64","","","","25","","4","","","","101.27","","","","-22","","NA"
"-73.58","45.50","MCTAVISH","7024745","2015-01-31 04:00","2015","01","31","04:00","-19.7","","-24.5","","65","","","","24","","5","","","","101.29","","","","-24","","NA"
"-73.58","45.50","MCTAVISH","7024745","2015-01-31 05:00","2015","01","31","05:00","-20.4","","-25.3","","64","","","","25","","7","","","","101.29","","","","-26","","NA"
"-73.58","45.50","MCTAVISH","7024745","2015-01-31 06:00","2015","01","31","06:00","-21.1","","-26.3","","63","","","","23","","6","","","","101.31","","","","-26","","NA"
"-73.58","45.50","MCTAVISH","7024745","2015-01-31 07:00","2015","01","31","07:00","-21.9","","-26.8","","65","","","","24","","11","","","","101.38","","","","-30","","NA"
"-73.58","45.50","MCTAVISH","7024745","2015-01-31 08:00","2015","01","31","08:00","-22.2","","-27.2","","63","","","","23","","14","","","","101.40","","","","-31","","NA"
"-73.58","45.50","MCTAVISH","7024745","2015-01-31 09:00","2015","01","31","09:00","-21.1","","-27.1","","58","","","","24","","10","","","","101.42","","","","-29","","NA"
"-73.58","45.50","MCTAVISH","7024745","2015-01-31 10:00","2015","01","31","10:00","-20.8","","-26.7","","59","","","","24","","11","","","","101.44","","","","-29","","NA"
"-73.58","45.50","MCTAVISH","7024745","2015-01-31 11:00","2015","01","31","11:00","-20.2","","-27.0","","55","","","","20","","15","","","","101.40","","","","-29","","NA"
"-73.58","45.50","MCTAVISH","7024745","2015-01-31 12:00","2015","01","31","12:00","-18.7","","-25.8","","54","","","","19","","11","","","","101.31","","","","-26","","NA"
"-73.58","45.50","MCTAVISH","7024745","2015-01-31 13:00","2015","01","31","13:00","-17.8","","-25.6","","51","","","","23","","14","","","","101.19","","","","-26","","NA"
"-73.58","45.50","MCTAVISH","7024745","2015-01-31 14:00","2015","01","31","14:00","-17.0","","-25.4","","48","","","","23","","16","","","","101.15","","","","-26","","NA"
"-73.58","45.50","MCTAVISH","7024745","2015-01-31 15:00","2015","01","31","15:00","-16.0","","-25.3","","45","","","","20","","11","","","","101.14","","","","-23","","NA"
"-73.58","45.50","MCTAVISH","7024745","2015-01-31 16:00","2015","01","31","16:00","-16.1","","-24.6","","48","","","","20","","12","","","","101.13","","","","-23","","NA"
"-73.58","45.50","MCTAVISH","7024745","2015-01-31 17:00","2015","01","31","17:00","-16.6","","-24.2","","52","","","","21","","11","","","","101.14","","","","-24","","NA"
"-73.58","45.50","MCTAVISH","7024745","2015-01-31 18:00","2015","01","31","18:00","-16.3","","-23.6","","53","","","","19","","10","","","","101.18","","","","-23","","NA"
"-73.58","45.50","MCTAVISH","7024745","2015-01-31 19:00","2015","01","31","19:00","-16.1","","-23.4","","53","","","","20","","13","","","","101.20","","","","-24","","NA"
"-73.58","45.50","MCTAVISH","7024745","2015-01-31 20:00","2015","01","31","20:00","-15.8","","-22.9","","54","","","","19","","13","","","","101.22","","","","-23","","NA"
"-73.58","45.50","MCTAVISH","7024745","2015-01-31 21:00","2015","01","31","21:00","-15.2","","-22.3","","55","","","","19","","10","","","","101.17","","","","-21","","NA"
"-73.58","45.50","MCTAVISH","7024745","2015-01-31 22:00","2015","01","31","22:00","-14.9","","-21.7","","56","","","","20","","9","","","","101.09","","","","-21","","NA"
"-73.58","45.50","MCTAVISH","7024745","2015-01-31 23:00","2015","01","31","23:00","-14.4","","-20.5","","60","","","","18","","5","","","","101.06","","","","-18","","NA"
