"Longitude (x)","Latitude (y)","Station Name","Climate ID","Date/Time (LST)","Year","Month","Day","Time (LST)","Temp (°C)","Temp Flag","Dew Point Temp (°C)","Dew Point Temp Flag","Rel Hum (%)","Rel Hum Flag","Precip. Amount (mm)","Precip. Amount Flag","Wind Dir (10s deg)","Wind Dir Flag","Wind Spd (km/h)","Wind Spd Flag","Visibility (km)","Visibility Flag","Stn Press (kPa)","Stn Press Flag","Hmdx","Hmdx Flag","Wind Chill","Wind Chill Flag","Weather"
"-73.58","45.50","MCTAVISH","7024745","2018-09-01 00:00","2018","09","01","00:00","19.1","","17.8","","92","","0.0","","19","","5","","","","101.48","","","","","","NA"
"-73.58","45.50","MCTAVISH","7024745","2018-09-01 01:00","2018","09","01","01:00","19.5","","17.5","","88","","0.0","","20","","5","","","","101.46","","","","","","NA"
"-73.58","45.50","MCTAVISH","7024745","2018-09-01 02:00","2018","09","01","02:00","19.8","","17.8","","88","","0.0","","19","","5","","","","101.47","","","","","","NA"
"-73.58","45.50","MCTAVISH","7024745","2018-09-01 03:00","2018","09","01","03:00","20.0","","17.6","","86","","0.0","","19","","6","","","","101.48","","26","","","","NA"
"-73.58","45.50","MCTAVISH","7024745","2018-09-01 04:00","2018","09","01","04:00","19.6","","17.9","","90","","0.4","","20","","5","","","","101.46","","","","","","NA"
"-73.58","45.50","MCTAVISH","7024745","2018-09-01 05:00","2018","09","01","05:00","19.8","","17.8","","88","","0.0","","20","","4","","","","101.49","","","","","","NA"
"-73.58","45.50","MCTAVISH","7024745","2018-09-01 06:00","2018","09","01","06:00","19.9","","17.6","","87","","0.0","","20","","5","","","","101.52","","","","","","NA"
"-73.58","45.50","MCTAVISH","7024745","2018-09-01 07:00","2018","09","01","07:00","20.1","","17.5","","85","","0.0","","19","","7","","","","101.50","","26","","","","NA"
"-73.58","45.50","MCTAVISH","7024745","2018-09-01 08:00","2018","09","01","08:00","20.7","","17.3","","81","","0.0","","18","","7","","","","101.51","","26","","","","NA"
"-73.58","45.50","MCTAVISH","7024745","2018-09-01 09:00","2018","09","01","09:00","22.0","","17.5","","76","","0.0","","17","","8","","","","101.47","","28","","","","NA"
"-73.58","45.50","MCTAVISH","7024745","2018-09-01 10:00","2018","09","01","10:00","23.8","","17.9","","70","","0.0","","17","","7","","","","101.44","","30","","","","NA"
"-73.58","45.50","MCTAVISH","7024745","2018-09-01 11:00","2018","09","01","11:00","23.3","","17.8","","71","","0.0","","18","","7","","","","101.47","","29","","","","NA"
"-73.58","45.50","MCTAVISH","7024745","2018-09-01 12:00","2018","09","01","12:00","24.4","","17.7","","66","","0.0","","15","","8","","","","101.40","","30","","","","NA"
"-73.58","45.50","MCTAVISH","7024745","2018-09-01 13:00","2018","09","01","13:00","25.0","","17.8","","64","","0.0","","18","","6","","","","101.41","","31","","","","NA"
"-73.58","45.50","MCTAVISH","7024745","2018-09-01 14:00","2018","09","01","14:00","25.8","","18.0","","62","","0.0","","18","","7","","","","101.34","","32","","","","NA"
"-73.58","45.50","MCTAVISH","7024745","2018-09-01 15:00","2018","09","01","15:00","26.1","","18.4","","62","","0.0","","18","","4","","","","101.27","","32","","","","NA"
"-73.58","45.50","MCTAVISH","7024745","2018-09-01 16:00","2018","09","01","16:00","25.7","","17.9","","62","","0.0","","16","","6","","","","101.20","","32","","","","NA"
"-73.58","45.50","MCTAVISH","7024745","2018-09-01 17:00","2018","09","01","17:00","25.5","","17.8","","62","","0.0","","16","","6","","","","101.15","","31","","","","NA"
"-73.58","45.50","MCTAVISH","7024745","2018-09-01 18:00","2018","09","01","18:00","24.1","","17.8","","68","","0.0","","18","","9","","","","101.12","","30","","","","NA"
"-73.58","45.50","MCTAVISH","7024745","2018-09-01 19:00","2018","09","01","19:00","23.0","","17.6","","72","","0.0","","18","","7","","","","101.14","","29","","","","NA"
"-73.58","45.50","MCTAVISH","7024745","2018-09-01 20:00","2018","09","01","20:00","22.5","","17.7","","74","","0.0","","20","","6","","","","101.15","","28","","","","NA"
"-73.58","45.50","MCTAVISH","7024745","2018-09-01 21:00","2018","09","01","21:00","22.0","","17.9","","78","","0.0","","18","","6","","","","101.14","","28","","","","NA"
"-73.58","45.50","MCTAVISH","7024745","2018-09-01 22:00","2018","09","01","22:00","21.6","","17.8","","79","","0.0","","18","","6","","","","101.16","","27","","","","NA"
"-73.58","45.50","MCTAVISH","7024745","2018-09-01 23:00","2018","09","01","23:00","21.6","","17.8","","79","","0.0","","18","","5","","","","101.19","","27","","","","NA"
"-73.58","45.50","MCTAVISH","7024745","2018-09-02 00:00","2018","09","02","00:00","21.0","","17.7","","81","","0.0","","18","","5","","","","101.19","","27","","","","NA"
"-73.58","45.50","MCTAVISH","7024745","2018-09-02 01:00","2018","09","02","01:00","20.7","","17.5","","82","","0.0","","19","","6","","","","101.16","","26","","","","NA"
"-73.58","45.50","MCTAVISH","7024745","2018-09-02 02:00","2018","09","02","02:00","20.2","","17.6","","85","","0.0","","20","","5","","","","101.18","","26","","","","NA"
"-73.58","45.50","MCTAVISH","7024745","2018-09-02 03:00","2018","09","02","03:00","19.8","","17.6","","87","","0.0","","20","","5","","","","101.14","","","","","","NA"
"-73.58","45.50","MCTAVISH","7024745","2018-09-02 04:00","2018","09","02","04:00","19.7","","17.6","","88","","0.0","","20","","6","","","","101.13","","","","","","NA"
"-73.58","45.50","MCTAVISH","7024745","2018-09-02 05:00","2018","09","02","05:00","19.7","","17.6","","88","","0.0","","21","","6","","","","101.16","","","","","","NA"
"-73.58","45.50","MCTAVISH","7024745","2018-09-02 06:00","2018","09","02","06:00","19.9","","17.8","","88","","0.0","","20","","6","","","","101.20","","","","","","NA"
"-73.58","45.50","MCTAVISH","7024745","2018-09-02 07:00","2018","09","02","07:00","20.8","","18.2","","85","","0.0","","18","","5","","","","101.19","","27","","","","NA"
"-73.58","45.50","MCTAVISH","7024745","2018-09-02 08:00","2018","09","02","08:00","22.5","","18.7","","79","","0.0","","17","","6","","","","101.16","","29","","","","NA"
"-73.58","45.50","MCTAVISH","7024745","2018-09-02 09:00","2018","09","02","09:00","23.1","","18.7","","76","","0.0","","17","","8","","","","101.15","","30","","","","NA"
"-73.58","45.50","MCTAVISH","7024745","2018-09-02 10:00","2018","09","02","10:00","24.1","","19.0","","73","","0.0","","18","","6","","","","101.13","","31","","","","NA"
"-73.58","45.50","MCTAVISH","7024745","2018-09-02 11:00","2018","09","02","11:00","22.2","","20.3","","89","","3.1","","20","","5","","","","101.13","","30","","","","NA"
"-73.58","45.50","MCTAVISH","7024745","2018-09-02 12:00","2018","09","02","12:00","21.9","","20.7","","93","","2.2","","20","","7","","","","101.09","","30","","","","NA"
"-73.58","45.50","MCTAVISH","7024745","2018-09-02 13:00","2018","09","02","13:00","21.4","","20.6","","95","","2.7","","19","","5","","","","101.08","","29","","","","NA"
"-73.58","45.50","MCTAVISH","7024745","2018-09-02 14:00","2018","09","02","14:00","21.8","","20.9","","95","","0.2","","19","","6","","","","101.04","","30","","","","NA"
"-73.58","45.50","MCTAVISH","7024745","2018-09-02 15:00","2018","09","02","15:00","23.1","","21.1","","88","","0.0","","19","","4","","","","100.96","","32","","","","NA"
"-73.58","45.50","MCTAVISH","7024745","2018-09-02 16:00","2018","09","02","16:00","24.5","","22.1","","86","","0.0","","17","","4","","","","100.89","","34","","","","NA"
"-73.58","45.50","MCTAVISH","7024745","2018-09-02 17:00","2018","09","02","17:00","24.6","","21.2","","81","","0.0","","20","","5","","","","100.86","","33","","","","NA"
"-73.58","45.50","MCTAVISH","7024745","2018-09-02 18:00","2018","09","02","18:00","23.5","","21.5","","89","","0.2","","22","","3","","","","100.84","","32","","","","NA"
"-73.58","45.50","MCTAVISH","7024745","2018-09-02 19:00","2018","09","02","19:00","22.8","","21.6","","93","","0.3","","30","","2","","","","100.89","","32","","","","NA"
"-73.58","45.50","MCTAVISH","7024745","2018-09-02 20:00","2018","09","02","20:00","23.1","","21.6","","91","","0.2","","21","","6","","","","100.91","","32","","","","NA"
"-73.58","45.50","MCTAVISH","7024745","2018-09-02 21:00","2018","09","02","21:00","23.0","","21.6","","92","","0.0","","19","","6","","","","100.90","","32","","","","NA"
"-73.58","45.50","MCTAVISH","7024745","2018-09-02 22:00","2018","09","02","22:00","23.2","","22.0","","92","","0.0","","36","","7","","","","101.00","","33","","","","NA"
"-73.58","45.50","MCTAVISH","7024745","2018-09-02 23:00","2018","09","02","23:00","22.9","","22.0","","94","","0.0","","21","","2","","","","101.00","","32","","","","NA"
"-73.58","45.50","MCTAVISH","7024745","2018-09-03 00:00","2018","09","03","00:00","23.5","","21.4","","88","","0.0","","18","","4","","","","101.02","","32","","","","NA"
"-73.58","45.50","MCTAVISH","7024745","2018-09-03 01:00","2018","09","03","01:00","23.2","","21.3","","89","","0.0","","18","","6","","","","101.02","","32","","","","NA"
"-73.58","45.50","MCTAVISH","7024745","2018-09-03 02:00","2018","09","03","02:00","22.9","","21.1","","90","","0.0","","19","","6","","","","101.02","","31","","","","NA"
"-73.58","45.50","MCTAVISH","7024745","2018-09-03 03:00","2018","09","03","03:00","22.8","","21.1","","90","","0.0","","18","","5","","","","101.02","","31","","","","NA"
"-73.58","45.50","MCTAVISH","7024745","2018-09-03 04:00","2018","09","03","04:00","22.6","","21.3","","92","","0.0","","19","","4","","","","101.06","","31","","","","NA"
"-73.58","45.50","MCTAVISH","7024745","2018-09-03 05:00","2018","09","03","05:00","22.8","","21.2","","91","","0.0","","24","","3","","","","101.06","","31","","","","NA"
"-73.58","45.50","MCTAVISH","7024745","2018-09-03 06:00","2018","09","03","06:00","22.5","","21.2","","92","","0.0","","16","","5","","","","101.09","","31","","","","NA"
"-73.58","45.50","MCTAVISH","7024745","2018-09-03 07:00","2018","09","03","07:00","23.9","","21.4","","86","","0.0","","18","","5","","","","101.13","","33","","","","NA"
"-73.58","45.50","MCTAVISH","7024745","2018-09-03 08:00","2018","09","03","08:00","25.4","","22.0","","82","","0.0","","19","","8","","","","101.09","","35","","","","NA"
"-73.58","45.50","MCTAVISH","7024745","2018-09-03 09:00","2018","09","03","09:00","25.5","","21.6","","79","","0.0","","21","","7","","","","101.09","","34","","","","NA"
"-73.58","45.50","MCTAVISH","7024745","2018-09-03 10:00","2018","09","03","10:00","26.2","","22.3","","79","","0.0","","21","","3","","","","101.07","","36","","","","NA"
"-73.58","45.50","MCTAVISH","7024745","2018-09-03 11:00","2018","09","03","11:00","28.3","","22.8","","72","","0.0","","17","","7","","","","100.96","","38","","","","NA"
"-73.58","45.50","MCTAVISH","7024745","2018-09-03 12:00","2018","09","03","12:00","27.8","","23.4","","77","","3.7","","19","","3","","","","100.87","","38","","","","NA"
"-73.58","45.50","MCTAVISH","7024745","2018-09-03 13:00","2018","09","03","13:00","27.0","","23.2","","80","","2.2","","14","","3","","","","100.87","","37","","","","NA"
"-73.58","45.50","MCTAVISH","7024745","2018-09-03 14:00","2018","09","03","14:00","29.0","","24.1","","75","","0.0","","22","","2","","","","100.82","","40","","","","NA"
"-73.58","45.50","MCTAVISH","7024745","2018-09-03 15:00","2018","09","03","15:00","29.7","","23.1","","68","","0.0","","36","","6","","","","100.81","","40","","","","NA"
"-73.58","45.50","MCTAVISH","7024745","2018-09-03 16:00","2018","09","03","16:00","25.1","","22.0","","83","","0.0","","1","","9","","","","100.89","","34","","","","NA"
"-73.58","45.50","MCTAVISH","7024745","2018-09-03 17:00","2018","09","03","17:00","26.2","","21.2","","74","","0.0","","13","","1","","","","100.91","","35","","","","NA"
"-73.58","45.50","MCTAVISH","7024745","2018-09-03 18:00","2018","09","03","18:00","26.1","","21.2","","74","","0.0","","31","","2","","","","100.95","","35","","","","NA"
"-73.58","45.50","MCTAVISH","7024745","2018-09-03 19:00","2018","09","03","19:00","25.7","","21.9","","79","","0.0","","19","","2","","","","101.03","","35","","","","NA"
"-73.58","45.50","MCTAVISH","7024745","2018-09-03 20:00","2018","09","03","20:00","24.6","","22.0","","85","","0.0","","18","","1","","","","101.14","","34","","","","NA"
"-73.58","45.50","MCTAVISH","7024745","2018-09-03 21:00","2018","09","03","21:00","23.6","","21.8","","89","","0.0","","21","","3","","","","101.22","","33","","","","NA"
"-73.58","45.50","MCTAVISH","7024745","2018-09-03 22:00","2018","09","03","22:00","23.7","","21.8","","89","","0.0","","23","","4","","","","101.27","","33","","","","NA"
"-73.58","45.50","MCTAVISH","7024745","2018-09-03 23:00","2018","09","03","23:00","23.5","","21.6","","89","","0.0","","24","","6","","","","101.30","","32","","","","NA"
"-73.58","45.50","MCTAVISH","7024745","2018-09-04 00:00","2018","09","04","00:00","23.5","","20.2","","82","","0.0","","32","","3","","","","101.31","","31","","","","NA"
"-73.58","45.50","MCTAVISH","7024745","2018-09-04 01:00","2018","09","04","01:00","23.1","","19.7","","81","","0.0","","36","","11","","","","101.31","","30","","","","NA"
"-73.58","45.50","MCTAVISH","7024745","2018-09-04 02:00","2018","09","04","02:00","22.2","","18.5","","80","","0.0","","1","","10","","","","101.35","","29","","","","NA"
"-73.58","45.50","MCTAVISH","7024745","2018-09-04 03:00","2018","09","04","03:00","21.6","","17.2","","76","","0.0","","2","","12","","","","101.41","","27","","","","NA"
"-73.58","45.50","MCTAVISH","7024745","2018-09-04 04:00","2018","09","04","04:00","20.7","","16.8","","78","","0.0","","2","","9","","","","101.48","","26","","","","NA"
"-73.58","45.50","MCTAVISH","7024745","2018-09-04 05:00","2018","09","04","05:00","20.1","","15.6","","75","","0.0","","1","","8","","","","101.57","","","","","","NA"
"-73.58","45.50","MCTAVISH","7024745","2018-09-04 06:00","2018","09","04","06:00","19.7","","15.1","","75","","0.0","","1","","7","","","","101.64","","","","","","NA"
"-73.58","45.50","MCTAVISH","7024745","2018-09-04 07:00","2018","09","04","07:00","20.6","","14.5","","68","","0.0","","2","","6","","","","101.68","","","","","","NA"
"-73.58","45.50","MCTAVISH","7024745","2018-09-04 08:00","2018","09","04","08:00","21.3","","13.8","","62","","0.0","","6","","7","","","","101.70","","25","","","","NA"
"-73.58","45.50","MCTAVISH","7024745","2018-09-04 09:00","2018","09","04","09:00","22.4","","12.1","","52","","0.0","","5","","6","","","","101.76","","25","","","","NA"
"-73.58","45.50","MCTAVISH","7024745","2018-09-04 10:00","2018","09","04","10:00","24.0","","12.8","","50","","0.0","","5","","7","","","","101.76","","27","","","","NA"
"-73.58","45.50","MCTAVISH","7024745","2018-09-04 11:00","2018","09","04","11:00","24.2","","11.0","","44","","0.0","","2","","4","","","","101.73","","26","","","","NA"
"-73.58","45.50","MCTAVISH","7024745","2018-09-04 12:00","2018","09","04","12:00","24.4","","10.1","","40","","0.0","","36","","9","","","","101.71","","26","","","","NA"
"-73.58","45.50","MCTAVISH","7024745","2018-09-04 13:00","2018","09","04","13:00","25.4","","10.1","","38","","0.0","","9","","4","","","","101.66","","27","","","","NA"
"-73.58","45.50","MCTAVISH","7024745","2018-09-04 14:00","2018","09","04","14:00","25.6","","10.7","","39","","0.0","","8","","5","","","","101.62","","27","","","","NA"
"-73.58","45.50","MCTAVISH","7024745","2018-09-04 15:00","2018","09","04","15:00","25.2","","11.2","","41","","0.0","","9","","4","","","","101.59","","27","","","","NA"
"-73.58","45.50","MCTAVISH","7024745","2018-09-04 16:00","2018","09","04","16:00","25.2","","10.9","","41","","0.0","","7","","5","","","","101.54","","27","","","","NA"
"-73.58","45.50","MCTAVISH","7024745","2018-09-04 17:00","2018","09","04","17:00","24.9","","11.3","","42","","0.0","","16","","3","","","","101.50","","27","","","","NA"
"-73.58","45.50","MCTAVISH","7024745","2018-09-04 18:00","2018","09","04","18:00","24.0","","12.9","","50","","0.0","","8","","4","","","","101.47","","27","","","","NA"
"-73.58","45.50","MCTAVISH","7024745","2018-09-04 19:00","2018","09","04","19:00","23.4","","12.6","","51","","0.0","","11","","4","","","","101.47","","26","","","","NA"
"-73.58","45.50","MCTAVISH","7024745","2018-09-04 20:00","2018","09","04","20:00","23.1","","12.7","","52","","0.0","","19","","4","","","","101.49","","26","","","","NA"
"-73.58","45.50","MCTAVISH","7024745","2018-09-04 21:00","2018","09","04","21:00","22.7","","13.0","","54","","0.0","","20","","3","","","","101.46","","25","","","","NA"
"-73.58","45.50","MCTAVISH","7024745","2018-09-04 22:00","2018","09","04","22:00","22.3","","13.0","","56","","0.0","","24","","2","","","","101.48","","25","","","","NA"
"-73.58","45.50","MCTAVISH","7024745","2018-09-04 23:00","2018","09","04","23:00","22.3","","13.2","","56","","0.0","","17","","4","","","","101.43","","25","","","","NA"
"-73.58","45.50","MCTAVISH","7024745","2018-09-05 00:00","2018","09","05","00:00","21.7","","13.7","","61","","0.0","","17","","4","","","","101.38","","25","","","","NA"
"-73.58","45.50","MCTAVISH","7024745","2018-09-05 01:00","2018","09","05","01:00","21.5","","13.6","","61","","0.0","","18","","4","","","","101.34","","25","","","","NA"
"-73.58","45.50","MCTAVISH","7024745","2018-09-05 02:00","2018","09","05","02:00","21.3","","14.0","","63","","0.0","","21","","3","","","","101.31","","25","","","","NA"
"-73.58","45.50","MCTAVISH","7024745","2018-09-05 03:00","2018","09","05","03:00","18.9","","16.3","","85","","0.3","","27","","5","","","","101.38","","","","","","NA"
"-73.58","45.50","MCTAVISH","7024745","2018-09-05 04:00","2018","09","05","04:00","18.5","","16.9","","90","","0.2","","28","","1","","","","101.29","","","","","","NA"
"-73.58","45.50","MCTAVISH","7024745","2018-09-05 05:00","2018","09","05","05:00","19.6","","16.3","","81","","0.0","","21","","6","","","","101.29","","","","","","NA"
"-73.58","45.50","MCTAVISH","7024745","2018-09-05 06:00","2018","09","05","06:00","19.5","","17.0","","86","","0.0","","19","","4","","","","101.27","","","","","","NA"
"-73.58","45.50","MCTAVISH","7024745","2018-09-05 07:00","2018","09","05","07:00","20.9","","17.0","","79","","0.0","","19","","4","","","","101.25","","26","","","","NA"
"-73.58","45.50","MCTAVISH","7024745","2018-09-05 08:00","2018","09","05","08:00","21.8","","16.9","","74","","0.0","","21","","8","","","","101.24","","27","","","","NA"
"-73.58","45.50","MCTAVISH","7024745","2018-09-05 09:00","2018","09","05","09:00","24.1","","18.0","","69","","0.0","","17","","4","","","","101.22","","30","","","","NA"
"-73.58","45.50","MCTAVISH","7024745","2018-09-05 10:00","2018","09","05","10:00","26.1","","19.1","","65","","0.0","","17","","6","","","","101.19","","33","","","","NA"
"-73.58","45.50","MCTAVISH","7024745","2018-09-05 11:00","2018","09","05","11:00","28.0","","20.4","","64","","0.0","","18","","5","","","","101.12","","36","","","","NA"
"-73.58","45.50","MCTAVISH","7024745","2018-09-05 12:00","2018","09","05","12:00","29.2","","21.5","","63","","0.0","","18","","6","","","","101.05","","38","","","","NA"
"-73.58","45.50","MCTAVISH","7024745","2018-09-05 13:00","2018","09","05","13:00","30.5","","22.2","","61","","0.0","","21","","9","","","","100.96","","40","","","","NA"
"-73.58","45.50","MCTAVISH","7024745","2018-09-05 14:00","2018","09","05","14:00","31.5","","22.3","","58","","0.0","","20","","10","","","","100.88","","41","","","","NA"
"-73.58","45.50","MCTAVISH","7024745","2018-09-05 15:00","2018","09","05","15:00","32.1","","21.2","","53","","0.0","","20","","8","","","","100.77","","41","","","","NA"
"-73.58","45.50","MCTAVISH","7024745","2018-09-05 16:00","2018","09","05","16:00","31.9","","21.0","","52","","0.0","","21","","8","","","","100.70","","40","","","","NA"
"-73.58","45.50","MCTAVISH","7024745","2018-09-05 17:00","2018","09","05","17:00","31.8","","20.4","","51","","0.0","","21","","6","","","","100.65","","40","","","","NA"
"-73.58","45.50","MCTAVISH","7024745","2018-09-05 18:00","2018","09","05","18:00","30.6","","20.9","","56","","0.0","","21","","4","","","","100.63","","39","","","","NA"
"-73.58","45.50","MCTAVISH","7024745","2018-09-05 19:00","2018","09","05","19:00","30.1","","21.1","","59","","0.0","","19","","8","","","","100.62","","39","","","","NA"
"-73.58","45.50","MCTAVISH","7024745","2018-09-05 20:00","2018","09","05","20:00","29.2","","21.1","","62","","0.0","","19","","6","","","","100.61","","38","","","","NA"
"-73.58","45.50","MCTAVISH","7024745","2018-09-05 21:00","2018","09","05","21:00","28.4","","21.1","","65","","0.0","","18","","8","","","","100.57","","37","","","","NA"
"-73.58","45.50","MCTAVISH","7024745","2018-09-05 22:00","2018","09","05","22:00","27.8","","21.2","","67","","0.0","","18","","7","","","","100.54","","36","","","","NA"
"-73.58","45.50","MCTAVISH","7024745","2018-09-05 23:00","2018","09","05","23:00","27.8","","21.5","","69","","0.0","","19","","11","","","","100.54","","37","","","","NA"
"-73.58","45.50","MCTAVISH","7024745","2018-09-06 00:00","2018","09","06","00:00","27.8","","21.4","","68","","0.0","","20","","7","","","","100.55","","37","","","","NA"
"-73.58","45.50","MCTAVISH","7024745","2018-09-06 01:00","2018","09","06","01:00","27.1","","21.0","","70","","0.0","","17","","5","","","","100.56","","36","","","","NA"
"-73.58","45.50","MCTAVISH","7024745","2018-09-06 02:00","2018","09","06","02:00","26.1","","20.8","","72","","0.0","","28","","4","","","","100.61","","34","","","","NA"
"-73.58","45.50","MCTAVISH","7024745","2018-09-06 03:00","2018","09","06","03:00","25.0","","20.6","","77","","0.0","","21","","2","","","","100.63","","33","","","","NA"
"-73.58","45.50","MCTAVISH","7024745","2018-09-06 04:00","2018","09","06","04:00","24.2","","20.5","","80","","0.0","","35","","5","","","","100.72","","32","","","","NA"
"-73.58","45.50","MCTAVISH","7024745","2018-09-06 05:00","2018","09","06","05:00","23.5","","19.2","","77","","0.0","","1","","12","","","","100.82","","30","","","","NA"
"-73.58","45.50","MCTAVISH","7024745","2018-09-06 06:00","2018","09","06","06:00","22.5","","17.2","","72","","0.0","","36","","12","","","","100.94","","28","","","","NA"
"-73.58","45.50","MCTAVISH","7024745","2018-09-06 07:00","2018","09","06","07:00","22.1","","16.2","","69","","0.0","","1","","13","","","","100.98","","27","","","","NA"
"-73.58","45.50","MCTAVISH","7024745","2018-09-06 08:00","2018","09","06","08:00","22.0","","16.1","","69","","0.0","","1","","13","","","","101.03","","27","","","","NA"
"-73.58","45.50","MCTAVISH","7024745","2018-09-06 09:00","2018","09","06","09:00","21.7","","16.4","","72","","0.0","","1","","14","","","","101.12","","27","","","","NA"
"-73.58","45.50","MCTAVISH","7024745","2018-09-06 10:00","2018","09","06","10:00","20.9","","9.9","","49","","0.0","","2","","13","","","","101.24","","","","","","NA"
"-73.58","45.50","MCTAVISH","7024745","2018-09-06 11:00","2018","09","06","11:00","20.7","","8.2","","44","","0.0","","2","","11","","","","101.28","","","","","","NA"
"-73.58","45.50","MCTAVISH","7024745","2018-09-06 12:00","2018","09","06","12:00","21.0","","9.4","","47","","0.0","","2","","10","","","","101.31","","","","","","NA"
"-73.58","45.50","MCTAVISH","7024745","2018-09-06 13:00","2018","09","06","13:00","21.7","","9.2","","45","","0.0","","1","","10","","","","101.28","","","","","","NA"
"-73.58","45.50","MCTAVISH","7024745","2018-09-06 14:00","2018","09","06","14:00","23.0","","9.1","","41","","0.0","","1","","10","","","","101.23","","","","","","NA"
"-73.58","45.50","MCTAVISH","7024745","2018-09-06 15:00","2018","09","06","15:00","23.2","","9.0","","40","","0.0","","33","","4","","","","101.20","","","","","","NA"
"-73.58","45.50","MCTAVISH","7024745","2018-09-06 16:00","2018","09","06","16:00","22.8","","9.2","","42","","0.0","","36","","7","","","","101.21","","","","","","NA"
"-73.58","45.50","MCTAVISH","7024745","2018-09-06 17:00","2018","09","06","17:00","22.3","","8.2","","40","","0.0","","31","","6","","","","101.27","","","","","","NA"
"-73.58","45.50","MCTAVISH","7024745","2018-09-06 18:00","2018","09","06","18:00","21.5","","9.1","","45","","0.0","","30","","4","","","","101.24","","","","","","NA"
"-73.58","45.50","MCTAVISH","7024745","2018-09-06 19:00","2018","09","06","19:00","21.0","","9.5","","48","","0.0","","32","","7","","","","101.35","","","","","","NA"
"-73.58","45.50","MCTAVISH","7024745","2018-09-06 20:00","2018","09","06","20:00","19.9","","9.1","","50","","0.0","","36","","10","","","","101.45","","","","","","NA"
"-73.58","45.50","MCTAVISH","7024745","2018-09-06 21:00","2018","09","06","21:00","18.6","","9.4","","55","","0.0","","35","","5","","","","101.49","","","","","","NA"
"-73.58","45.50","MCTAVISH","7024745","2018-09-06 22:00","2018","09","06","22:00","18.2","","9.9","","58","","0.0","","33","","6","","","","101.50","","","","","","NA"
"-73.58","45.50","MCTAVISH","7024745","2018-09-06 23:00","2018","09","06","23:00","17.7","","9.5","","59","","0.0","","34","","4","","","","101.50","","","","","","NA"
"-73.58","45.50","MCTAVISH","7024745","2018-09-07 00:00","2018","09","07","00:00","17.3","","9.7","","61","","0.0","","35","","6","","","","101.47","","","","","","NA"
"-73.58","45.50","MCTAVISH","7024745","2018-09-07 01:00","2018","09","07","01:00","16.8","","9.8","","63","","0.0","","2","","6","","","","101.50","","","","","","NA"
"-73.58","45.50","MCTAVISH","7024745","2018-09-07 02:00","2018","09","07","02:00","16.1","","9.7","","66","","0.0","","1","","7","","","","101.48","","","","","","NA"
"-73.58","45.50","MCTAVISH","7024745","2018-09-07 03:00","2018","09","07","03:00","14.8","","9.5","","70","","0.0","","35","","5","","","","101.49","","","","","","NA"
"-73.58","45.50","MCTAVISH","7024745","2018-09-07 04:00","2018","09","07","04:00","14.8","","9.1","","69","","0.0","","35","","7","","","","101.48","","","","","","NA"
"-73.58","45.50","MCTAVISH","7024745","2018-09-07 05:00","2018","09","07","05:00","14.4","","9.1","","71","","0.0","","36","","7","","","","101.51","","","","","","NA"
"-73.58","45.50","MCTAVISH","7024745","2018-09-07 06:00","2018","09","07","06:00","14.4","","8.9","","69","","0.0","","1","","7","","","","101.54","","","","","","NA"
"-73.58","45.50","MCTAVISH","7024745","2018-09-07 07:00","2018","09","07","07:00","15.3","","8.9","","66","","0.0","","1","","6","","","","101.54","","","","","","NA"
"-73.58","45.50","MCTAVISH","7024745","2018-09-07 08:00","2018","09","07","08:00","17.1","","9.8","","62","","0.0","","1","","4","","","","101.52","","","","","","NA"
"-73.58","45.50","MCTAVISH","7024745","2018-09-07 09:00","2018","09","07","09:00","18.1","","8.8","","54","","0.0","","36","","2","","","","101.50","","","","","","NA"
"-73.58","45.50","MCTAVISH","7024745","2018-09-07 10:00","2018","09","07","10:00","19.5","","9.1","","51","","0.0","","7","","5","","","","101.45","","","","","","NA"
"-73.58","45.50","MCTAVISH","7024745","2018-09-07 11:00","2018","09","07","11:00","20.3","","7.9","","45","","0.0","","33","","3","","","","101.41","","","","","","NA"
"-73.58","45.50","MCTAVISH","7024745","2018-09-07 12:00","2018","09","07","12:00","21.4","","8.5","","43","","0.0","","34","","5","","","","101.33","","","","","","NA"
"-73.58","45.50","MCTAVISH","7024745","2018-09-07 13:00","2018","09","07","13:00","21.2","","7.1","","40","","0.0","","29","","4","","","","101.29","","","","","","NA"
"-73.58","45.50","MCTAVISH","7024745","2018-09-07 14:00","2018","09","07","14:00","22.0","","6.6","","37","","0.0","","25","","7","","","","101.22","","","","","","NA"
"-73.58","45.50","MCTAVISH","7024745","2018-09-07 15:00","2018","09","07","15:00","21.9","","7.0","","38","","0.0","","25","","7","","","","101.17","","","","","","NA"
"-73.58","45.50","MCTAVISH","7024745","2018-09-07 16:00","2018","09","07","16:00","21.7","","7.6","","40","","0.0","","30","","7","","","","101.13","","","","","","NA"
"-73.58","45.50","MCTAVISH","7024745","2018-09-07 17:00","2018","09","07","17:00","21.2","","8.5","","44","","0.0","","28","","4","","","","101.11","","","","","","NA"
"-73.58","45.50","MCTAVISH","7024745","2018-09-07 18:00","2018","09","07","18:00","20.4","","9.0","","48","","0.0","","28","","4","","","","101.14","","","","","","NA"
"-73.58","45.50","MCTAVISH","7024745","2018-09-07 19:00","2018","09","07","19:00","19.8","","6.6","","42","","0.0","","34","","4","","","","101.19","","","","","","NA"
"-73.58","45.50","MCTAVISH","7024745","2018-09-07 20:00","2018","09","07","20:00","18.5","","7.0","","47","","0.0","","31","","2","","","","101.20","","","","","","NA"
"-73.58","45.50","MCTAVISH","7024745","2018-09-07 21:00","2018","09","07","21:00","18.2","","7.5","","50","","0.0","","30","","4","","","","101.22","","","","","","NA"
"-73.58","45.50","MCTAVISH","7024745","2018-09-07 22:00","2018","09","07","22:00","18.0","","7.7","","51","","0.0","","29","","4","","","","101.23","","","","","","NA"
"-73.58","45.50","MCTAVISH","7024745","2018-09-07 23:00","2018","09","07","23:00","17.5","","8.0","","54","","0.0","","35","","10","","","","101.29","","","","","","NA"
"-73.58","45.50","MCTAVISH","7024745","2018-09-08 00:00","2018","09","08","00:00","16.2","","7.3","","55","","0.0","","2","","11","","","","101.35","","","","","","NA"
"-73.58","45.50","MCTAVISH","7024745","2018-09-08 01:00","2018","09","08","01:00","15.1","","6.2","","55","","0.0","","2","","17","","","","101.39","","","","","","NA"
"-73.58","45.50","MCTAVISH","7024745","2018-09-08 02:00","2018","09","08","02:00","13.8","","4.5","","53","","0.0","","2","","14","","","","101.43","","","","","","NA"
"-73.58","45.50","MCTAVISH","7024745","2018-09-08 03:00","2018","09","08","03:00","12.6","","1.8","","48","","0.0","","2","","16","","","","101.47","","","","","","NA"
"-73.58","45.50","MCTAVISH","7024745","2018-09-08 04:00","2018","09","08","04:00","12.0","","1.2","","48","","0.0","","2","","12","","","","101.52","","","","","","NA"
"-73.58","45.50","MCTAVISH","7024745","2018-09-08 05:00","2018","09","08","05:00","11.1","","2.3","","54","","0.0","","1","","9","","","","101.59","","","","","","NA"
"-73.58","45.50","MCTAVISH","7024745","2018-09-08 06:00","2018","09","08","06:00","10.7","","2.2","","56","","0.0","","1","","8","","","","101.64","","","","","","NA"
"-73.58","45.50","MCTAVISH","7024745","2018-09-08 07:00","2018","09","08","07:00","11.4","","1.6","","51","","0.0","","2","","13","","","","101.68","","","","","","NA"
"-73.58","45.50","MCTAVISH","7024745","2018-09-08 08:00","2018","09","08","08:00","11.7","","2.2","","52","","0.0","","3","","10","","","","101.70","","","","","","NA"
"-73.58","45.50","MCTAVISH","7024745","2018-09-08 09:00","2018","09","08","09:00","12.2","","2.9","","53","","0.0","","1","","11","","","","101.71","","","","","","NA"
"-73.58","45.50","MCTAVISH","7024745","2018-09-08 10:00","2018","09","08","10:00","12.7","","3.1","","52","","0.0","","36","","11","","","","101.70","","","","","","NA"
"-73.58","45.50","MCTAVISH","7024745","2018-09-08 11:00","2018","09","08","11:00","13.6","","3.1","","49","","0.0","","36","","9","","","","101.69","","","","","","NA"
"-73.58","45.50","MCTAVISH","7024745","2018-09-08 12:00","2018","09","08","12:00","14.2","","2.8","","46","","0.0","","4","","9","","","","101.64","","","","","","NA"
"-73.58","45.50","MCTAVISH","7024745","2018-09-08 13:00","2018","09","08","13:00","15.2","","2.9","","44","","0.0","","36","","10","","","","101.62","","","","","","NA"
"-73.58","45.50","MCTAVISH","7024745","2018-09-08 14:00","2018","09","08","14:00","16.5","","2.6","","39","","0.0","","35","","9","","","","101.56","","","","","","NA"
"-73.58","45.50","MCTAVISH","7024745","2018-09-08 15:00","2018","09","08","15:00","16.5","","2.8","","40","","0.0","","35","","9","","","","101.51","","","","","","NA"
"-73.58","45.50","MCTAVISH","7024745","2018-09-08 16:00","2018","09","08","16:00","17.2","","2.8","","38","","0.0","","35","","4","","","","101.50","","","","","","NA"
"-73.58","45.50","MCTAVISH","7024745","2018-09-08 17:00","2018","09","08","17:00","16.1","","2.8","","41","","0.0","","34","","7","","","","101.54","","","","","","NA"
"-73.58","45.50","MCTAVISH","7024745","2018-09-08 18:00","2018","09","08","18:00","16.1","","2.4","","40","","0.0","","2","","7","","","","101.56","","","","","","NA"
"-73.58","45.50","MCTAVISH","7024745","2018-09-08 19:00","2018","09","08","19:00","15.7","","3.7","","44","","0.0","","1","","9","","","","101.63","","","","","","NA"
"-73.58","45.50","MCTAVISH","7024745","2018-09-08 20:00","2018","09","08","20:00","14.4","","3.6","","48","","0.0","","2","","12","","","","101.72","","","","","","NA"
"-73.58","45.50","MCTAVISH","7024745","2018-09-08 21:00","2018","09","08","21:00","13.8","","3.9","","51","","0.0","","3","","9","","","","101.75","","","","","","NA"
"-73.58","45.50","MCTAVISH","7024745","2018-09-08 22:00","2018","09","08","22:00","12.7","","4.4","","57","","0.0","","4","","8","","","","101.77","","","","","","NA"
"-73.58","45.50","MCTAVISH","7024745","2018-09-08 23:00","2018","09","08","23:00","12.0","","4.3","","59","","0.0","","3","","7","","","","101.80","","","","","","NA"
"-73.58","45.50","MCTAVISH","7024745","2018-09-09 00:00","2018","09","09","00:00","11.8","","4.7","","62","","0.0","","3","","4","","","","101.83","","","","","","NA"
"-73.58","45.50","MCTAVISH","7024745","2018-09-09 01:00","2018","09","09","01:00","11.2","","4.5","","64","","0.0","","36","","7","","","","101.81","","","","","","NA"
"-73.58","45.50","MCTAVISH","7024745","2018-09-09 02:00","2018","09","09","02:00","9.9","","5.0","","71","","0.0","","35","","6","","","","101.82","","","","","","NA"
"-73.58","45.50","MCTAVISH","7024745","2018-09-09 03:00","2018","09","09","03:00","9.4","","5.0","","74","","0.0","","35","","7","","","","101.81","","","","","","NA"
"-73.58","45.50","MCTAVISH","7024745","2018-09-09 04:00","2018","09","09","04:00","8.7","","5.0","","78","","0.0","","36","","5","","","","101.82","","","","","","NA"
"-73.58","45.50","MCTAVISH","7024745","2018-09-09 05:00","2018","09","09","05:00","8.5","","4.9","","78","","0.0","","2","","5","","","","101.87","","","","","","NA"
"-73.58","45.50","MCTAVISH","7024745","2018-09-09 06:00","2018","09","09","06:00","8.1","","4.0","","75","","0.0","","36","","9","","","","101.90","","","","","","NA"
"-73.58","45.50","MCTAVISH","7024745","2018-09-09 07:00","2018","09","09","07:00","10.0","","5.6","","74","","0.0","","2","","6","","","","101.94","","","","","","NA"
"-73.58","45.50","MCTAVISH","7024745","2018-09-09 08:00","2018","09","09","08:00","10.8","","5.8","","71","","0.0","","3","","7","","","","101.99","","","","","","NA"
"-73.58","45.50","MCTAVISH","7024745","2018-09-09 09:00","2018","09","09","09:00","12.5","","5.2","","61","","0.0","","1","","7","","","","102.01","","","","","","NA"
"-73.58","45.50","MCTAVISH","7024745","2018-09-09 10:00","2018","09","09","10:00","13.4","","3.3","","50","","0.0","","4","","8","","","","102.02","","","","","","NA"
"-73.58","45.50","MCTAVISH","7024745","2018-09-09 11:00","2018","09","09","11:00","14.1","","3.6","","49","","0.0","","2","","6","","","","101.99","","","","","","NA"
"-73.58","45.50","MCTAVISH","7024745","2018-09-09 12:00","2018","09","09","12:00","14.9","","1.9","","41","","0.0","","1","","12","","","","101.94","","","","","","NA"
"-73.58","45.50","MCTAVISH","7024745","2018-09-09 13:00","2018","09","09","13:00","15.5","","1.9","","40","","0.0","","1","","14","","","","101.90","","","","","","NA"
"-73.58","45.50","MCTAVISH","7024745","2018-09-09 14:00","2018","09","09","14:00","16.0","","2.9","","41","","0.0","","2","","8","","","","101.83","","","","","","NA"
"-73.58","45.50","MCTAVISH","7024745","2018-09-09 15:00","2018","09","09","15:00","16.4","","2.4","","39","","0.0","","5","","7","","","","101.79","","","","","","NA"
"-73.58","45.50","MCTAVISH","7024745","2018-09-09 16:00","2018","09","09","16:00","16.1","","1.4","","37","","0.0","","4","","8","","","","101.77","","","","","","NA"
"-73.58","45.50","MCTAVISH","7024745","2018-09-09 17:00","2018","09","09","17:00","15.3","","1.5","","39","","0.0","","2","","8","","","","101.79","","","","","","NA"
"-73.58","45.50","MCTAVISH","7024745","2018-09-09 18:00","2018","09","09","18:00","15.0","","1.2","","39","","0.0","","6","","7","","","","101.79","","","","","","NA"
"-73.58","45.50","MCTAVISH","7024745","2018-09-09 19:00","2018","09","09","19:00","14.6","","1.3","","40","","0.0","","3","","6","","","","101.83","","","","","","NA"
"-73.58","45.50","MCTAVISH","7024745","2018-09-09 20:00","2018","09","09","20:00","14.0","","2.3","","45","","0.0","","3","","5","","","","101.84","","","","","","NA"
"-73.58","45.50","MCTAVISH","7024745","2018-09-09 21:00","2018","09","09","21:00","13.8","","2.9","","48","","0.0","","4","","5","","","","101.86","","","","","","NA"
"-73.58","45.50","MCTAVISH","7024745","2018-09-09 22:00","2018","09","09","22:00","13.3","","2.6","","48","","0.0","","2","","5","","","","101.90","","","","","","NA"
"-73.58","45.50","MCTAVISH","7024745","2018-09-09 23:00","2018","09","09","23:00","12.7","","2.5","","50","","0.0","","36","","7","","","","101.93","","","","","","NA"
"-73.58","45.50","MCTAVISH","7024745","2018-09-10 00:00","2018","09","10","00:00","12.1","","2.6","","52","","0.0","","36","","8","","","","101.93","","","","","","NA"
"-73.58","45.50","MCTAVISH","7024745","2018-09-10 01:00","2018","09","10","01:00","11.5","","3.1","","56","","0.0","","35","","9","","","","101.91","","","","","","NA"
"-73.58","45.50","MCTAVISH","7024745","2018-09-10 02:00","2018","09","10","02:00","10.7","","3.7","","62","","0.0","","36","","9","","","","101.90","","","","","","NA"
"-73.58","45.50","MCTAVISH","7024745","2018-09-10 03:00","2018","09","10","03:00","9.9","","4.3","","68","","0.0","","1","","7","","","","101.86","","","","","","NA"
"-73.58","45.50","MCTAVISH","7024745","2018-09-10 04:00","2018","09","10","04:00","9.6","","5.4","","75","","0.0","","1","","5","","","","101.84","","","","","","NA"
"-73.58","45.50","MCTAVISH","7024745","2018-09-10 05:00","2018","09","10","05:00","9.2","","5.7","","79","","0.0","","2","","5","","","","101.85","","","","","","NA"
"-73.58","45.50","MCTAVISH","7024745","2018-09-10 06:00","2018","09","10","06:00","9.3","","5.3","","76","","0.0","","1","","5","","","","101.86","","","","","","NA"
"-73.58","45.50","MCTAVISH","7024745","2018-09-10 07:00","2018","09","10","07:00","10.3","","5.7","","73","","0.0","","2","","4","","","","101.87","","","","","","NA"
"-73.58","45.50","MCTAVISH","7024745","2018-09-10 08:00","2018","09","10","08:00","11.7","","5.5","","66","","0.0","","3","","6","","","","101.89","","","","","","NA"
"-73.58","45.50","MCTAVISH","7024745","2018-09-10 09:00","2018","09","10","09:00","13.0","","6.4","","64","","0.0","","6","","4","","","","101.88","","","","","","NA"
"-73.58","45.50","MCTAVISH","7024745","2018-09-10 10:00","2018","09","10","10:00","14.9","","6.5","","57","","0.0","","16","","5","","","","101.83","","","","","","NA"
"-73.58","45.50","MCTAVISH","7024745","2018-09-10 11:00","2018","09","10","11:00","16.5","","6.5","","52","","0.0","","14","","6","","","","101.82","","","","","","NA"
"-73.58","45.50","MCTAVISH","7024745","2018-09-10 12:00","2018","09","10","12:00","17.6","","5.7","","46","","0.0","","17","","7","","","","101.75","","","","","","NA"
"-73.58","45.50","MCTAVISH","7024745","2018-09-10 13:00","2018","09","10","13:00","17.3","","4.4","","43","","0.0","","16","","8","","","","101.69","","","","","","NA"
"-73.58","45.50","MCTAVISH","7024745","2018-09-10 14:00","2018","09","10","14:00","17.7","","5.3","","44","","0.0","","16","","6","","","","101.64","","","","","","NA"
"-73.58","45.50","MCTAVISH","7024745","2018-09-10 15:00","2018","09","10","15:00","17.7","","5.3","","44","","0.0","","16","","5","","","","101.56","","","","","","NA"
"-73.58","45.50","MCTAVISH","7024745","2018-09-10 16:00","2018","09","10","16:00","17.2","","5.3","","45","","0.0","","15","","7","","","","101.54","","","","","","NA"
"-73.58","45.50","MCTAVISH","7024745","2018-09-10 17:00","2018","09","10","17:00","16.4","","7.4","","55","","0.0","","16","","8","","","","101.54","","","","","","NA"
"-73.58","45.50","MCTAVISH","7024745","2018-09-10 18:00","2018","09","10","18:00","15.8","","8.8","","63","","0.0","","17","","7","","","","101.51","","","","","","NA"
"-73.58","45.50","MCTAVISH","7024745","2018-09-10 19:00","2018","09","10","19:00","14.2","","10.2","","77","","0.0","","14","","7","","","","101.47","","","","","","NA"
"-73.58","45.50","MCTAVISH","7024745","2018-09-10 20:00","2018","09","10","20:00","12.9","","11.6","","92","","0.0","","14","","5","","","","101.46","","","","","","NA"
"-73.58","45.50","MCTAVISH","7024745","2018-09-10 21:00","2018","09","10","21:00","12.8","","11.8","","93","","0.9","","15","","3","","","","101.40","","","","","","NA"
"-73.58","45.50","MCTAVISH","7024745","2018-09-10 22:00","2018","09","10","22:00","12.9","","11.8","","93","","1.7","","13","","5","","","","101.35","","","","","","NA"
"-73.58","45.50","MCTAVISH","7024745","2018-09-10 23:00","2018","09","10","23:00","12.9","","12.1","","95","","5.5","","13","","6","","","","101.29","","","","","","NA"
"-73.58","45.50","MCTAVISH","7024745","2018-09-11 00:00","2018","09","11","00:00","12.9","","12.2","","96","","0.9","","14","","2","","","","101.25","","","","","","NA"
"-73.58","45.50","MCTAVISH","7024745","2018-09-11 01:00","2018","09","11","01:00","12.8","","12.2","","96","","4.6","","10","","3","","","","101.22","","","","","","NA"
"-73.58","45.50","MCTAVISH","7024745","2018-09-11 02:00","2018","09","11","02:00","13.0","","12.4","","96","","5.0","","9","","2","","","","101.16","","","","","","NA"
"-73.58","45.50","MCTAVISH","7024745","2018-09-11 03:00","2018","09","11","03:00","13.3","","12.8","","97","","1.4","","11","","3","","","","101.13","","","","","","NA"
"-73.58","45.50","MCTAVISH","7024745","2018-09-11 04:00","2018","09","11","04:00","13.5","","13.0","","97","","1.5","","8","","3","","","","101.09","","","","","","NA"
"-73.58","45.50","MCTAVISH","7024745","2018-09-11 05:00","2018","09","11","05:00","13.7","","13.2","","97","","0.5","","16","","3","","","","101.06","","","","","","NA"
"-73.58","45.50","MCTAVISH","7024745","2018-09-11 06:00","2018","09","11","06:00","14.1","","13.6","","97","","0.7","","17","","2","","","","101.08","","","","","","NA"
"-73.58","45.50","MCTAVISH","7024745","2018-09-11 07:00","2018","09","11","07:00","14.5","","14.0","","97","","1.5","","19","","3","","","","101.10","","","","","","NA"
"-73.58","45.50","MCTAVISH","7024745","2018-09-11 08:00","2018","09","11","08:00","15.1","","14.6","","97","","0.6","","0","","1","","","","101.11","","","","","","NA"
"-73.58","45.50","MCTAVISH","7024745","2018-09-11 09:00","2018","09","11","09:00","15.7","","15.0","","96","","0.3","","17","","4","","","","101.12","","","","","","NA"
"-73.58","45.50","MCTAVISH","7024745","2018-09-11 10:00","2018","09","11","10:00","16.8","","15.6","","93","","0.0","","19","","3","","","","101.11","","","","","","NA"
"-73.58","45.50","MCTAVISH","7024745","2018-09-11 11:00","2018","09","11","11:00","18.0","","15.4","","85","","0.0","","29","","4","","","","101.13","","","","","","NA"
"-73.58","45.50","MCTAVISH","7024745","2018-09-11 12:00","2018","09","11","12:00","18.4","","15.4","","82","","0.0","","30","","5","","","","101.16","","","","","","NA"
"-73.58","45.50","MCTAVISH","7024745","2018-09-11 13:00","2018","09","11","13:00","18.7","","15.0","","79","","0.0","","27","","4","","","","101.17","","","","","","NA"
"-73.58","45.50","MCTAVISH","7024745","2018-09-11 14:00","2018","09","11","14:00","18.8","","15.1","","79","","0.0","","35","","8","","","","101.18","","","","","","NA"
"-73.58","45.50","MCTAVISH","7024745","2018-09-11 15:00","2018","09","11","15:00","19.1","","14.8","","76","","0.0","","35","","5","","","","101.21","","","","","","NA"
"-73.58","45.50","MCTAVISH","7024745","2018-09-11 16:00","2018","09","11","16:00","19.3","","14.7","","75","","0.0","","35","","2","","","","101.20","","","","","","NA"
"-73.58","45.50","MCTAVISH","7024745","2018-09-11 17:00","2018","09","11","17:00","19.4","","14.6","","74","","0.0","","30","","2","","","","101.22","","","","","","NA"
"-73.58","45.50","MCTAVISH","7024745","2018-09-11 18:00","2018","09","11","18:00","18.8","","15.6","","82","","0.0","","31","","3","","","","101.26","","","","","","NA"
"-73.58","45.50","MCTAVISH","7024745","2018-09-11 19:00","2018","09","11","19:00","18.1","","15.8","","86","","0.0","","0","","1","","","","101.33","","","","","","NA"
"-73.58","45.50","MCTAVISH","7024745","2018-09-11 20:00","2018","09","11","20:00","17.9","","15.7","","87","","0.0","","23","","1","","","","101.36","","","","","","NA"
"-73.58","45.50","MCTAVISH","7024745","2018-09-11 21:00","2018","09","11","21:00","17.9","","15.6","","86","","0.0","","28","","2","","","","101.40","","","","","","NA"
"-73.58","45.50","MCTAVISH","7024745","2018-09-11 22:00","2018","09","11","22:00","18.4","","15.8","","84","","0.0","","22","","2","","","","101.42","","","","","","NA"
"-73.58","45.50","MCTAVISH","7024745","2018-09-11 23:00","2018","09","11","23:00","18.3","","15.7","","85","","0.0","","0","","1","","","","101.43","","","","","","NA"
"-73.58","45.50","MCTAVISH","7024745","2018-09-12 00:00","2018","09","12","00:00","17.9","","15.4","","85","","0.0","","32","","5","","","","101.41","","","","","","NA"
"-73.58","45.50","MCTAVISH","7024745","2018-09-12 01:00","2018","09","12","01:00","17.7","","15.0","","84","","0.0","","","","0","","","","101.46","","","","","","NA"
"-73.58","45.50","MCTAVISH","7024745","2018-09-12 02:00","2018","09","12","02:00","17.4","","15.3","","87","","0.0","","29","","2","","","","101.50","","","","","","NA"
"-73.58","45.50","MCTAVISH","7024745","2018-09-12 03:00","2018","09","12","03:00","17.6","","15.4","","87","","0.0","","35","","2","","","","101.57","","","","","","NA"
"-73.58","45.50","MCTAVISH","7024745","2018-09-12 04:00","2018","09","12","04:00","17.7","","15.5","","87","","0.0","","1","","3","","","","101.58","","","","","","NA"
"-73.58","45.50","MCTAVISH","7024745","2018-09-12 05:00","2018","09","12","05:00","17.4","","15.7","","90","","0.0","","35","","3","","","","101.63","","","","","","NA"
"-73.58","45.50","MCTAVISH","7024745","2018-09-12 06:00","2018","09","12","06:00","17.4","","15.9","","91","","0.0","","2","","4","","","","101.69","","","","","","NA"
"-73.58","45.50","MCTAVISH","7024745","2018-09-12 07:00","2018","09","12","07:00","17.7","","16.1","","91","","0.0","","3","","4","","","","101.72","","","","","","NA"
"-73.58","45.50","MCTAVISH","7024745","2018-09-12 08:00","2018","09","12","08:00","18.0","","16.1","","89","","0.0","","3","","5","","","","101.72","","","","","","NA"
"-73.58","45.50","MCTAVISH","7024745","2018-09-12 09:00","2018","09","12","09:00","19.8","","16.1","","79","","0.0","","11","","5","","","","101.71","","","","","","NA"
"-73.58","45.50","MCTAVISH","7024745","2018-09-12 10:00","2018","09","12","10:00","20.7","","15.7","","73","","0.0","","32","","2","","","","101.73","","25","","","","NA"
"-73.58","45.50","MCTAVISH","7024745","2018-09-12 11:00","2018","09","12","11:00","21.4","","13.8","","62","","0.0","","11","","4","","","","101.72","","25","","","","NA"
"-73.58","45.50","MCTAVISH","7024745","2018-09-12 12:00","2018","09","12","12:00","21.9","","14.0","","61","","0.0","","28","","1","","","","101.71","","25","","","","NA"
"-73.58","45.50","MCTAVISH","7024745","2018-09-12 13:00","2018","09","12","13:00","22.4","","13.8","","58","","0.0","","31","","2","","","","101.68","","26","","","","NA"
"-73.58","45.50","MCTAVISH","7024745","2018-09-12 14:00","2018","09","12","14:00","22.8","","14.3","","59","","0.0","","29","","3","","","","101.64","","26","","","","NA"
"-73.58","45.50","MCTAVISH","7024745","2018-09-12 15:00","2018","09","12","15:00","24.0","","16.0","","61","","0.0","","29","","4","","","","101.60","","29","","","","NA"
"-73.58","45.50","MCTAVISH","7024745","2018-09-12 16:00","2018","09","12","16:00","23.2","","14.5","","58","","0.0","","4","","5","","","","101.59","","27","","","","NA"
"-73.58","45.50","MCTAVISH","7024745","2018-09-12 17:00","2018","09","12","17:00","21.7","","15.2","","66","","0.0","","30","","4","","","","101.58","","26","","","","NA"
"-73.58","45.50","MCTAVISH","7024745","2018-09-12 18:00","2018","09","12","18:00","20.2","","15.1","","72","","0.0","","26","","3","","","","101.61","","","","","","NA"
"-73.58","45.50","MCTAVISH","7024745","2018-09-12 19:00","2018","09","12","19:00","19.4","","14.9","","75","","0.0","","25","","3","","","","101.60","","","","","","NA"
"-73.58","45.50","MCTAVISH","7024745","2018-09-12 20:00","2018","09","12","20:00","18.7","","14.4","","76","","0.0","","27","","3","","","","101.59","","","","","","NA"
"-73.58","45.50","MCTAVISH","7024745","2018-09-12 21:00","2018","09","12","21:00","18.6","","14.4","","76","","0.0","","24","","3","","","","101.62","","","","","","NA"
"-73.58","45.50","MCTAVISH","7024745","2018-09-12 22:00","2018","09","12","22:00","18.6","","14.8","","79","","0.0","","23","","3","","","","101.62","","","","","","NA"
"-73.58","45.50","MCTAVISH","7024745","2018-09-12 23:00","2018","09","12","23:00","18.1","","14.9","","81","","0.0","","29","","3","","","","101.66","","","","","","NA"
"-73.58","45.50","MCTAVISH","7024745","2018-09-13 00:00","2018","09","13","00:00","17.2","","14.3","","83","","0.0","","31","","2","","","","101.63","","","","","","NA"
"-73.58","45.50","MCTAVISH","7024745","2018-09-13 01:00","2018","09","13","01:00","17.4","","14.8","","85","","0.0","","31","","2","","","","101.66","","","","","","NA"
"-73.58","45.50","MCTAVISH","7024745","2018-09-13 02:00","2018","09","13","02:00","17.0","","14.7","","86","","0.0","","26","","1","","","","101.68","","","","","","NA"
"-73.58","45.50","MCTAVISH","7024745","2018-09-13 03:00","2018","09","13","03:00","16.5","","14.4","","88","","0.0","","31","","2","","","","101.70","","","","","","NA"
"-73.58","45.50","MCTAVISH","7024745","2018-09-13 04:00","2018","09","13","04:00","16.3","","14.9","","91","","0.0","","36","","3","","","","101.71","","","","","","NA"
"-73.58","45.50","MCTAVISH","7024745","2018-09-13 05:00","2018","09","13","05:00","16.2","","14.6","","90","","0.0","","2","","4","","","","101.75","","","","","","NA"
"-73.58","45.50","MCTAVISH","7024745","2018-09-13 06:00","2018","09","13","06:00","17.0","","14.3","","84","","0.0","","3","","8","","","","101.81","","","","","","NA"
"-73.58","45.50","MCTAVISH","7024745","2018-09-13 07:00","2018","09","13","07:00","18.5","","14.7","","79","","0.0","","5","","3","","","","101.81","","","","","","NA"
"-73.58","45.50","MCTAVISH","7024745","2018-09-13 08:00","2018","09","13","08:00","20.3","","14.6","","70","","0.0","","2","","3","","","","101.83","","","","","","NA"
"-73.58","45.50","MCTAVISH","7024745","2018-09-13 09:00","2018","09","13","09:00","20.7","","14.6","","68","","0.0","","3","","6","","","","101.85","","","","","","NA"
"-73.58","45.50","MCTAVISH","7024745","2018-09-13 10:00","2018","09","13","10:00","21.6","","14.1","","63","","0.0","","34","","5","","","","101.84","","25","","","","NA"
"-73.58","45.50","MCTAVISH","7024745","2018-09-13 11:00","2018","09","13","11:00","22.9","","14.9","","61","","0.0","","35","","7","","","","101.80","","27","","","","NA"
"-73.58","45.50","MCTAVISH","7024745","2018-09-13 12:00","2018","09","13","12:00","23.9","","15.7","","60","","0.0","","36","","5","","","","101.73","","28","","","","NA"
"-73.58","45.50","MCTAVISH","7024745","2018-09-13 13:00","2018","09","13","13:00","25.3","","16.5","","58","","0.0","","19","","4","","","","101.68","","30","","","","NA"
"-73.58","45.50","MCTAVISH","7024745","2018-09-13 14:00","2018","09","13","14:00","25.8","","15.2","","52","","0.0","","18","","5","","","","101.66","","30","","","","NA"
"-73.58","45.50","MCTAVISH","7024745","2018-09-13 15:00","2018","09","13","15:00","25.8","","14.6","","50","","0.0","","12","","5","","","","101.63","","30","","","","NA"
"-73.58","45.50","MCTAVISH","7024745","2018-09-13 16:00","2018","09","13","16:00","26.1","","17.0","","57","","0.0","","23","","3","","","","101.59","","31","","","","NA"
"-73.58","45.50","MCTAVISH","7024745","2018-09-13 17:00","2018","09","13","17:00","23.4","","16.3","","65","","0.0","","29","","3","","","","101.56","","28","","","","NA"
"-73.58","45.50","MCTAVISH","7024745","2018-09-13 18:00","2018","09","13","18:00","22.1","","16.0","","68","","0.0","","28","","4","","","","101.56","","27","","","","NA"
"-73.58","45.50","MCTAVISH","7024745","2018-09-13 19:00","2018","09","13","19:00","21.5","","15.8","","70","","0.0","","28","","2","","","","101.56","","26","","","","NA"
"-73.58","45.50","MCTAVISH","7024745","2018-09-13 20:00","2018","09","13","20:00","21.2","","15.8","","71","","0.0","","24","","2","","","","101.59","","26","","","","NA"
"-73.58","45.50","MCTAVISH","7024745","2018-09-13 21:00","2018","09","13","21:00","21.0","","15.9","","73","","0.0","","23","","4","","","","101.58","","26","","","","NA"
"-73.58","45.50","MCTAVISH","7024745","2018-09-13 22:00","2018","09","13","22:00","21.0","","16.3","","75","","0.0","","22","","3","","","","101.57","","26","","","","NA"
"-73.58","45.50","MCTAVISH","7024745","2018-09-13 23:00","2018","09","13","23:00","19.9","","16.0","","78","","0.0","","0","","1","","","","101.59","","","","","","NA"
"-73.58","45.50","MCTAVISH","7024745","2018-09-14 00:00","2018","09","14","00:00","19.5","","16.2","","81","","0.0","","26","","1","","","","101.58","","","","","","NA"
"-73.58","45.50","MCTAVISH","7024745","2018-09-14 01:00","2018","09","14","01:00","19.1","","16.4","","84","","0.0","","0","","1","","","","101.57","","","","","","NA"
"-73.58","45.50","MCTAVISH","7024745","2018-09-14 02:00","2018","09","14","02:00","18.5","","16.2","","86","","0.0","","26","","1","","","","101.54","","","","","","NA"
"-73.58","45.50","MCTAVISH","7024745","2018-09-14 03:00","2018","09","14","03:00","18.1","","16.4","","90","","0.0","","32","","2","","","","101.56","","","","","","NA"
"-73.58","45.50","MCTAVISH","7024745","2018-09-14 04:00","2018","09","14","04:00","17.9","","16.5","","91","","0.0","","1","","4","","","","101.55","","","","","","NA"
"-73.58","45.50","MCTAVISH","7024745","2018-09-14 05:00","2018","09","14","05:00","17.4","","16.5","","94","","0.0","","23","","2","","","","101.56","","","","","","NA"
"-73.58","45.50","MCTAVISH","7024745","2018-09-14 06:00","2018","09","14","06:00","18.0","","16.6","","92","","0.0","","21","","5","","","","101.60","","","","","","NA"
"-73.58","45.50","MCTAVISH","7024745","2018-09-14 07:00","2018","09","14","07:00","19.8","","16.9","","83","","0.0","","11","","3","","","","101.64","","","","","","NA"
"-73.58","45.50","MCTAVISH","7024745","2018-09-14 08:00","2018","09","14","08:00","19.9","","16.9","","83","","0.0","","3","","2","","","","101.62","","","","","","NA"
"-73.58","45.50","MCTAVISH","7024745","2018-09-14 09:00","2018","09","14","09:00","22.9","","17.5","","71","","0.0","","16","","3","","","","101.61","","29","","","","NA"
"-73.58","45.50","MCTAVISH","7024745","2018-09-14 10:00","2018","09","14","10:00","23.9","","16.6","","64","","0.0","","15","","5","","","","101.55","","29","","","","NA"
"-73.58","45.50","MCTAVISH","7024745","2018-09-14 11:00","2018","09","14","11:00","25.3","","17.3","","61","","0.0","","17","","6","","","","101.52","","31","","","","NA"
"-73.58","45.50","MCTAVISH","7024745","2018-09-14 12:00","2018","09","14","12:00","26.1","","16.7","","56","","0.0","","15","","4","","","","101.49","","31","","","","NA"
"-73.58","45.50","MCTAVISH","7024745","2018-09-14 13:00","2018","09","14","13:00","27.1","","16.4","","52","","0.0","","17","","6","","","","101.40","","32","","","","NA"
"-73.58","45.50","MCTAVISH","7024745","2018-09-14 14:00","2018","09","14","14:00","27.6","","14.1","","43","","0.0","","21","","7","","","","101.31","","31","","","","NA"
"-73.58","45.50","MCTAVISH","7024745","2018-09-14 15:00","2018","09","14","15:00","27.7","","12.0","","38","","0.0","","17","","5","","","","101.27","","30","","","","NA"
"-73.58","45.50","MCTAVISH","7024745","2018-09-14 16:00","2018","09","14","16:00","27.7","","13.2","","41","","0.0","","20","","6","","","","101.24","","31","","","","NA"
"-73.58","45.50","MCTAVISH","7024745","2018-09-14 17:00","2018","09","14","17:00","26.6","","13.4","","44","","0.0","","19","","6","","","","101.23","","30","","","","NA"
"-73.58","45.50","MCTAVISH","7024745","2018-09-14 18:00","2018","09","14","18:00","23.8","","13.8","","54","","0.0","","26","","3","","","","101.21","","27","","","","NA"
"-73.58","45.50","MCTAVISH","7024745","2018-09-14 19:00","2018","09","14","19:00","22.9","","13.9","","57","","0.0","","23","","3","","","","101.20","","26","","","","NA"
"-73.58","45.50","MCTAVISH","7024745","2018-09-14 20:00","2018","09","14","20:00","22.7","","15.3","","63","","0.0","","22","","3","","","","101.23","","27","","","","NA"
"-73.58","45.50","MCTAVISH","7024745","2018-09-14 21:00","2018","09","14","21:00","22.6","","16.1","","67","","0.0","","21","","4","","","","101.23","","27","","","","NA"
"-73.58","45.50","MCTAVISH","7024745","2018-09-14 22:00","2018","09","14","22:00","22.7","","16.0","","66","","0.0","","22","","8","","","","101.24","","27","","","","NA"
"-73.58","45.50","MCTAVISH","7024745","2018-09-14 23:00","2018","09","14","23:00","21.1","","16.1","","73","","0.0","","22","","3","","","","101.24","","26","","","","NA"
"-73.58","45.50","MCTAVISH","7024745","2018-09-15 00:00","2018","09","15","00:00","19.4","","15.0","","76","","0.0","","21","","2","","","","101.22","","","","","","NA"
"-73.58","45.50","MCTAVISH","7024745","2018-09-15 01:00","2018","09","15","01:00","19.2","","14.5","","74","","0.0","","26","","2","","","","101.20","","","","","","NA"
"-73.58","45.50","MCTAVISH","7024745","2018-09-15 02:00","2018","09","15","02:00","19.5","","15.2","","76","","0.0","","35","","2","","","","101.21","","","","","","NA"
"-73.58","45.50","MCTAVISH","7024745","2018-09-15 03:00","2018","09","15","03:00","19.2","","15.2","","78","","0.0","","32","","2","","","","101.22","","","","","","NA"
"-73.58","45.50","MCTAVISH","7024745","2018-09-15 04:00","2018","09","15","04:00","19.0","","15.5","","80","","0.0","","22","","3","","","","101.21","","","","","","NA"
"-73.58","45.50","MCTAVISH","7024745","2018-09-15 05:00","2018","09","15","05:00","19.0","","16.4","","85","","0.0","","21","","5","","","","101.25","","","","","","NA"
"-73.58","45.50","MCTAVISH","7024745","2018-09-15 06:00","2018","09","15","06:00","19.1","","16.7","","86","","0.0","","17","","3","","","","101.29","","","","","","NA"
"-73.58","45.50","MCTAVISH","7024745","2018-09-15 07:00","2018","09","15","07:00","20.1","","16.9","","82","","0.0","","17","","2","","","","101.32","","25","","","","NA"
"-73.58","45.50","MCTAVISH","7024745","2018-09-15 08:00","2018","09","15","08:00","21.7","","17.3","","76","","0.0","","17","","4","","","","101.28","","27","","","","NA"
"-73.58","45.50","MCTAVISH","7024745","2018-09-15 09:00","2018","09","15","09:00","23.5","","18.3","","73","","0.0","","15","","6","","","","101.32","","30","","","","NA"
"-73.58","45.50","MCTAVISH","7024745","2018-09-15 10:00","2018","09","15","10:00","25.1","","19.1","","69","","0.0","","24","","4","","","","101.31","","32","","","","NA"
"-73.58","45.50","MCTAVISH","7024745","2018-09-15 11:00","2018","09","15","11:00","26.9","","19.6","","64","","0.0","","19","","6","","","","101.29","","34","","","","NA"
"-73.58","45.50","MCTAVISH","7024745","2018-09-15 12:00","2018","09","15","12:00","27.3","","20.2","","65","","0.0","","25","","6","","","","101.23","","35","","","","NA"
"-73.58","45.50","MCTAVISH","7024745","2018-09-15 13:00","2018","09","15","13:00","28.0","","19.5","","60","","0.0","","19","","7","","","","101.21","","35","","","","NA"
"-73.58","45.50","MCTAVISH","7024745","2018-09-15 14:00","2018","09","15","14:00","28.7","","20.2","","60","","0.0","","27","","6","","","","101.16","","36","","","","NA"
"-73.58","45.50","MCTAVISH","7024745","2018-09-15 15:00","2018","09","15","15:00","29.2","","21.2","","62","","0.0","","30","","5","","","","101.12","","38","","","","NA"
"-73.58","45.50","MCTAVISH","7024745","2018-09-15 16:00","2018","09","15","16:00","29.1","","20.3","","59","","0.0","","23","","3","","","","101.12","","37","","","","NA"
"-73.58","45.50","MCTAVISH","7024745","2018-09-15 17:00","2018","09","15","17:00","27.7","","20.8","","66","","0.0","","29","","2","","","","101.12","","36","","","","NA"
"-73.58","45.50","MCTAVISH","7024745","2018-09-15 18:00","2018","09","15","18:00","26.8","","20.7","","69","","0.0","","28","","1","","","","101.10","","35","","","","NA"
"-73.58","45.50","MCTAVISH","7024745","2018-09-15 19:00","2018","09","15","19:00","25.0","","20.2","","75","","0.0","","28","","2","","","","101.12","","33","","","","NA"
"-73.58","45.50","MCTAVISH","7024745","2018-09-15 20:00","2018","09","15","20:00","25.0","","20.7","","77","","0.0","","25","","2","","","","101.15","","33","","","","NA"
"-73.58","45.50","MCTAVISH","7024745","2018-09-15 21:00","2018","09","15","21:00","25.4","","20.2","","73","","0.0","","31","","3","","","","101.16","","33","","","","NA"
"-73.58","45.50","MCTAVISH","7024745","2018-09-15 22:00","2018","09","15","22:00","25.3","","19.4","","70","","0.0","","30","","5","","","","101.17","","32","","","","NA"
"-73.58","45.50","MCTAVISH","7024745","2018-09-15 23:00","2018","09","15","23:00","24.7","","18.9","","71","","0.0","","34","","5","","","","101.21","","31","","","","NA"
"-73.58","45.50","MCTAVISH","7024745","2018-09-16 00:00","2018","09","16","00:00","24.0","","18.1","","70","","0.0","","32","","4","","","","101.22","","30","","","","NA"
"-73.58","45.50","MCTAVISH","7024745","2018-09-16 01:00","2018","09","16","01:00","23.4","","18.0","","72","","0.0","","32","","4","","","","101.22","","29","","","","NA"
"-73.58","45.50","MCTAVISH","7024745","2018-09-16 02:00","2018","09","16","02:00","22.2","","17.7","","76","","0.0","","27","","1","","","","101.22","","28","","","","NA"
"-73.58","45.50","MCTAVISH","7024745","2018-09-16 03:00","2018","09","16","03:00","22.0","","18.4","","80","","0.0","","2","","3","","","","101.26","","28","","","","NA"
"-73.58","45.50","MCTAVISH","7024745","2018-09-16 04:00","2018","09","16","04:00","21.7","","18.0","","80","","0.0","","1","","7","","","","101.29","","28","","","","NA"
"-73.58","45.50","MCTAVISH","7024745","2018-09-16 05:00","2018","09","16","05:00","21.0","","17.3","","80","","0.0","","1","","8","","","","101.34","","26","","","","NA"
"-73.58","45.50","MCTAVISH","7024745","2018-09-16 06:00","2018","09","16","06:00","20.6","","17.4","","82","","0.0","","36","","8","","","","101.41","","26","","","","NA"
"-73.58","45.50","MCTAVISH","7024745","2018-09-16 07:00","2018","09","16","07:00","21.4","","16.7","","75","","0.2","","3","","5","","","","101.47","","26","","","","NA"
"-73.58","45.50","MCTAVISH","7024745","2018-09-16 08:00","2018","09","16","08:00","21.8","","16.2","","71","","0.0","","5","","7","","","","101.49","","27","","","","NA"
"-73.58","45.50","MCTAVISH","7024745","2018-09-16 09:00","2018","09","16","09:00","22.6","","16.9","","70","","0.0","","6","","8","","","","101.52","","28","","","","NA"
"-73.58","45.50","MCTAVISH","7024745","2018-09-16 10:00","2018","09","16","10:00","23.4","","17.1","","68","","0.0","","3","","5","","","","101.53","","29","","","","NA"
"-73.58","45.50","MCTAVISH","7024745","2018-09-16 11:00","2018","09","16","11:00","24.1","","17.1","","65","","0.0","","3","","7","","","","101.52","","29","","","","NA"
"-73.58","45.50","MCTAVISH","7024745","2018-09-16 12:00","2018","09","16","12:00","25.0","","17.6","","63","","0.0","","4","","6","","","","101.47","","31","","","","NA"
"-73.58","45.50","MCTAVISH","7024745","2018-09-16 13:00","2018","09","16","13:00","25.4","","17.1","","60","","0.0","","6","","5","","","","101.43","","31","","","","NA"
"-73.58","45.50","MCTAVISH","7024745","2018-09-16 14:00","2018","09","16","14:00","26.0","","17.5","","59","","0.0","","6","","4","","","","101.39","","32","","","","NA"
"-73.58","45.50","MCTAVISH","7024745","2018-09-16 15:00","2018","09","16","15:00","26.3","","17.7","","59","","0.0","","4","","6","","","","101.33","","32","","","","NA"
"-73.58","45.50","MCTAVISH","7024745","2018-09-16 16:00","2018","09","16","16:00","26.3","","18.4","","62","","0.0","","4","","7","","","","101.26","","33","","","","NA"
"-73.58","45.50","MCTAVISH","7024745","2018-09-16 17:00","2018","09","16","17:00","25.4","","18.4","","65","","0.0","","2","","5","","","","101.24","","32","","","","NA"
"-73.58","45.50","MCTAVISH","7024745","2018-09-16 18:00","2018","09","16","18:00","24.8","","18.6","","69","","0.0","","3","","3","","","","101.22","","31","","","","NA"
"-73.58","45.50","MCTAVISH","7024745","2018-09-16 19:00","2018","09","16","19:00","24.0","","18.4","","71","","0.0","","2","","4","","","","101.22","","30","","","","NA"
"-73.58","45.50","MCTAVISH","7024745","2018-09-16 20:00","2018","09","16","20:00","22.8","","18.9","","79","","0.0","","22","","2","","","","101.20","","29","","","","NA"
"-73.58","45.50","MCTAVISH","7024745","2018-09-16 21:00","2018","09","16","21:00","22.7","","18.8","","79","","0.0","","19","","2","","","","101.17","","29","","","","NA"
"-73.58","45.50","MCTAVISH","7024745","2018-09-16 22:00","2018","09","16","22:00","23.4","","18.9","","76","","0.0","","22","","5","","","","101.16","","30","","","","NA"
"-73.58","45.50","MCTAVISH","7024745","2018-09-16 23:00","2018","09","16","23:00","22.8","","18.9","","79","","0.0","","22","","4","","","","101.11","","29","","","","NA"
"-73.58","45.50","MCTAVISH","7024745","2018-09-17 00:00","2018","09","17","00:00","22.6","","19.2","","81","","0.0","","22","","3","","","","101.05","","30","","","","NA"
"-73.58","45.50","MCTAVISH","7024745","2018-09-17 01:00","2018","09","17","01:00","22.6","","19.2","","81","","0.0","","22","","4","","","","100.99","","30","","","","NA"
"-73.58","45.50","MCTAVISH","7024745","2018-09-17 02:00","2018","09","17","02:00","22.4","","19.0","","81","","0.0","","20","","5","","","","100.92","","29","","","","NA"
"-73.58","45.50","MCTAVISH","7024745","2018-09-17 03:00","2018","09","17","03:00","21.7","","18.8","","84","","0.0","","21","","4","","","","100.87","","28","","","","NA"
"-73.58","45.50","MCTAVISH","7024745","2018-09-17 04:00","2018","09","17","04:00","21.6","","18.7","","84","","0.0","","20","","2","","","","100.85","","28","","","","NA"
"-73.58","45.50","MCTAVISH","7024745","2018-09-17 05:00","2018","09","17","05:00","22.2","","18.8","","81","","0.0","","18","","3","","","","100.85","","29","","","","NA"
"-73.58","45.50","MCTAVISH","7024745","2018-09-17 06:00","2018","09","17","06:00","22.0","","19.0","","84","","0.0","","26","","3","","","","100.86","","29","","","","NA"
"-73.58","45.50","MCTAVISH","7024745","2018-09-17 07:00","2018","09","17","07:00","22.6","","19.1","","81","","0.0","","18","","5","","","","100.85","","29","","","","NA"
"-73.58","45.50","MCTAVISH","7024745","2018-09-17 08:00","2018","09","17","08:00","24.1","","18.5","","71","","0.0","","21","","8","","","","100.83","","30","","","","NA"
"-73.58","45.50","MCTAVISH","7024745","2018-09-17 09:00","2018","09","17","09:00","24.9","","18.1","","66","","0.0","","20","","5","","","","100.78","","31","","","","NA"
"-73.58","45.50","MCTAVISH","7024745","2018-09-17 10:00","2018","09","17","10:00","26.2","","18.0","","61","","0.0","","19","","10","","","","100.71","","32","","","","NA"
"-73.58","45.50","MCTAVISH","7024745","2018-09-17 11:00","2018","09","17","11:00","27.1","","18.5","","59","","0.0","","21","","10","","","","100.65","","33","","","","NA"
"-73.58","45.50","MCTAVISH","7024745","2018-09-17 12:00","2018","09","17","12:00","27.8","","17.7","","54","","0.0","","23","","9","","","","100.57","","34","","","","NA"
"-73.58","45.50","MCTAVISH","7024745","2018-09-17 13:00","2018","09","17","13:00","28.1","","17.4","","52","","0.0","","22","","9","","","","100.47","","34","","","","NA"
"-73.58","45.50","MCTAVISH","7024745","2018-09-17 14:00","2018","09","17","14:00","28.9","","17.4","","50","","0.0","","21","","7","","","","100.38","","34","","","","NA"
"-73.58","45.50","MCTAVISH","7024745","2018-09-17 15:00","2018","09","17","15:00","29.1","","16.9","","48","","0.0","","24","","7","","","","100.28","","34","","","","NA"
"-73.58","45.50","MCTAVISH","7024745","2018-09-17 16:00","2018","09","17","16:00","28.6","","16.5","","48","","0.0","","22","","5","","","","100.22","","34","","","","NA"
"-73.58","45.50","MCTAVISH","7024745","2018-09-17 17:00","2018","09","17","17:00","28.0","","16.0","","48","","0.0","","20","","5","","","","100.16","","33","","","","NA"
"-73.58","45.50","MCTAVISH","7024745","2018-09-17 18:00","2018","09","17","18:00","26.9","","15.6","","50","","0.0","","19","","4","","","","100.13","","31","","","","NA"
"-73.58","45.50","MCTAVISH","7024745","2018-09-17 19:00","2018","09","17","19:00","25.8","","16.3","","56","","0.0","","19","","3","","","","100.10","","31","","","","NA"
"-73.58","45.50","MCTAVISH","7024745","2018-09-17 20:00","2018","09","17","20:00","24.8","","17.0","","62","","0.0","","21","","6","","","","100.17","","30","","","","NA"
"-73.58","45.50","MCTAVISH","7024745","2018-09-17 21:00","2018","09","17","21:00","23.9","","17.6","","68","","0.0","","19","","5","","","","100.15","","30","","","","NA"
"-73.58","45.50","MCTAVISH","7024745","2018-09-17 22:00","2018","09","17","22:00","23.1","","17.8","","72","","0.0","","19","","6","","","","100.17","","29","","","","NA"
"-73.58","45.50","MCTAVISH","7024745","2018-09-17 23:00","2018","09","17","23:00","22.8","","17.6","","72","","0.0","","19","","6","","","","100.14","","29","","","","NA"
"-73.58","45.50","MCTAVISH","7024745","2018-09-18 00:00","2018","09","18","00:00","22.3","","17.8","","76","","0.0","","19","","8","","","","100.10","","28","","","","NA"
"-73.58","45.50","MCTAVISH","7024745","2018-09-18 01:00","2018","09","18","01:00","22.0","","18.0","","78","","0.0","","19","","8","","","","100.04","","28","","","","NA"
"-73.58","45.50","MCTAVISH","7024745","2018-09-18 02:00","2018","09","18","02:00","21.7","","18.1","","80","","0.0","","19","","8","","","","100.02","","28","","","","NA"
"-73.58","45.50","MCTAVISH","7024745","2018-09-18 03:00","2018","09","18","03:00","21.8","","18.5","","81","","0.0","","19","","7","","","","99.98","","28","","","","NA"
"-73.58","45.50","MCTAVISH","7024745","2018-09-18 04:00","2018","09","18","04:00","21.6","","18.3","","82","","0.0","","20","","6","","","","99.94","","28","","","","NA"
"-73.58","45.50","MCTAVISH","7024745","2018-09-18 05:00","2018","09","18","05:00","21.3","","18.3","","83","","0.0","","20","","7","","","","99.92","","28","","","","NA"
"-73.58","45.50","MCTAVISH","7024745","2018-09-18 06:00","2018","09","18","06:00","21.1","","18.4","","84","","0.0","","21","","5","","","","99.90","","27","","","","NA"
"-73.58","45.50","MCTAVISH","7024745","2018-09-18 07:00","2018","09","18","07:00","21.2","","18.5","","85","","0.0","","23","","3","","","","99.91","","28","","","","NA"
"-73.58","45.50","MCTAVISH","7024745","2018-09-18 08:00","2018","09","18","08:00","21.2","","18.5","","84","","0.0","","23","","5","","","","99.88","","28","","","","NA"
"-73.58","45.50","MCTAVISH","7024745","2018-09-18 09:00","2018","09","18","09:00","21.7","","18.6","","83","","0.0","","29","","3","","","","99.89","","28","","","","NA"
"-73.58","45.50","MCTAVISH","7024745","2018-09-18 10:00","2018","09","18","10:00","22.3","","19.0","","82","","0.0","","21","","6","","","","99.91","","29","","","","NA"
"-73.58","45.50","MCTAVISH","7024745","2018-09-18 11:00","2018","09","18","11:00","22.9","","18.6","","76","","0.0","","25","","5","","","","99.88","","29","","","","NA"
"-73.58","45.50","MCTAVISH","7024745","2018-09-18 12:00","2018","09","18","12:00","24.4","","19.2","","73","","0.0","","30","","5","","","","99.85","","31","","","","NA"
"-73.58","45.50","MCTAVISH","7024745","2018-09-18 13:00","2018","09","18","13:00","24.9","","18.8","","69","","0.0","","33","","6","","","","99.86","","32","","","","NA"
"-73.58","45.50","MCTAVISH","7024745","2018-09-18 14:00","2018","09","18","14:00","20.3","","16.3","","78","","0.0","","36","","14","","","","99.93","","25","","","","NA"
"-73.58","45.50","MCTAVISH","7024745","2018-09-18 15:00","2018","09","18","15:00","20.0","","15.4","","75","","0.0","","4","","9","","","","99.91","","","","","","NA"
"-73.58","45.50","MCTAVISH","7024745","2018-09-18 16:00","2018","09","18","16:00","18.9","","13.8","","73","","0.0","","3","","12","","","","99.99","","","","","","NA"
"-73.58","45.50","MCTAVISH","7024745","2018-09-18 17:00","2018","09","18","17:00","17.3","","13.0","","76","","0.0","","2","","12","","","","100.11","","","","","","NA"
"-73.58","45.50","MCTAVISH","7024745","2018-09-18 18:00","2018","09","18","18:00","15.9","","11.7","","76","","0.0","","2","","12","","","","100.20","","","","","","NA"
"-73.58","45.50","MCTAVISH","7024745","2018-09-18 19:00","2018","09","18","19:00","15.0","","11.2","","78","","0.0","","4","","10","","","","100.28","","","","","","NA"
"-73.58","45.50","MCTAVISH","7024745","2018-09-18 20:00","2018","09","18","20:00","13.6","","9.6","","77","","0.0","","2","","12","","","","100.35","","","","","","NA"
"-73.58","45.50","MCTAVISH","7024745","2018-09-18 21:00","2018","09","18","21:00","12.2","","8.3","","77","","0.0","","2","","12","","","","100.38","","","","","","NA"
"-73.58","45.50","MCTAVISH","7024745","2018-09-18 22:00","2018","09","18","22:00","11.9","","8.1","","78","","0.0","","3","","8","","","","100.39","","","","","","NA"
"-73.58","45.50","MCTAVISH","7024745","2018-09-18 23:00","2018","09","18","23:00","11.3","","7.5","","77","","0.0","","2","","11","","","","100.43","","","","","","NA"
"-73.58","45.50","MCTAVISH","7024745","2018-09-19 00:00","2018","09","19","00:00","11.1","","7.5","","79","","0.0","","1","","12","","","","100.45","","","","","","NA"
"-73.58","45.50","MCTAVISH","7024745","2018-09-19 01:00","2018","09","19","01:00","10.9","","7.7","","81","","0.0","","3","","12","","","","100.52","","","","","","NA"
"-73.58","45.50","MCTAVISH","7024745","2018-09-19 02:00","2018","09","19","02:00","10.6","","7.9","","83","","0.0","","2","","9","","","","100.50","","","","","","NA"
"-73.58","45.50","MCTAVISH","7024745","2018-09-19 03:00","2018","09","19","03:00","10.7","","8.1","","84","","0.0","","2","","9","","","","100.48","","","","","","NA"
"-73.58","45.50","MCTAVISH","7024745","2018-09-19 04:00","2018","09","19","04:00","11.1","","7.6","","79","","0.0","","2","","11","","","","100.58","","","","","","NA"
"-73.58","45.50","MCTAVISH","7024745","2018-09-19 05:00","2018","09","19","05:00","11.0","","7.9","","81","","0.0","","3","","9","","","","100.65","","","","","","NA"
"-73.58","45.50","MCTAVISH","7024745","2018-09-19 06:00","2018","09","19","06:00","10.9","","8.0","","82","","0.0","","3","","9","","","","100.73","","","","","","NA"
"-73.58","45.50","MCTAVISH","7024745","2018-09-19 07:00","2018","09","19","07:00","11.3","","8.7","","84","","0.0","","4","","8","","","","100.81","","","","","","NA"
"-73.58","45.50","MCTAVISH","7024745","2018-09-19 08:00","2018","09","19","08:00","11.7","","9.1","","84","","0.0","","4","","8","","","","100.86","","","","","","NA"
"-73.58","45.50","MCTAVISH","7024745","2018-09-19 09:00","2018","09","19","09:00","12.3","","8.8","","79","","0.0","","4","","9","","","","100.90","","","","","","NA"
"-73.58","45.50","MCTAVISH","7024745","2018-09-19 10:00","2018","09","19","10:00","13.8","","8.1","","69","","0.0","","4","","8","","","","100.94","","","","","","NA"
"-73.58","45.50","MCTAVISH","7024745","2018-09-19 11:00","2018","09","19","11:00","13.7","","7.5","","66","","0.0","","36","","9","","","","100.97","","","","","","NA"
"-73.58","45.50","MCTAVISH","7024745","2018-09-19 12:00","2018","09","19","12:00","14.1","","8.5","","69","","0.0","","4","","8","","","","100.98","","","","","","NA"
"-73.58","45.50","MCTAVISH","7024745","2018-09-19 13:00","2018","09","19","13:00","14.7","","8.8","","68","","0.0","","5","","7","","","","100.93","","","","","","NA"
"-73.58","45.50","MCTAVISH","7024745","2018-09-19 14:00","2018","09","19","14:00","14.7","","8.2","","65","","0.0","","6","","8","","","","100.98","","","","","","NA"
"-73.58","45.50","MCTAVISH","7024745","2018-09-19 15:00","2018","09","19","15:00","14.9","","8.5","","66","","0.0","","5","","6","","","","100.99","","","","","","NA"
"-73.58","45.50","MCTAVISH","7024745","2018-09-19 16:00","2018","09","19","16:00","15.4","","9.2","","67","","0.0","","4","","9","","","","101.05","","","","","","NA"
"-73.58","45.50","MCTAVISH","7024745","2018-09-19 17:00","2018","09","19","17:00","14.6","","9.0","","69","","0.0","","5","","6","","","","101.05","","","","","","NA"
"-73.58","45.50","MCTAVISH","7024745","2018-09-19 18:00","2018","09","19","18:00","14.2","","8.9","","70","","0.0","","8","","3","","","","101.10","","","","","","NA"
"-73.58","45.50","MCTAVISH","7024745","2018-09-19 19:00","2018","09","19","19:00","13.8","","9.3","","74","","0.0","","8","","3","","","","101.18","","","","","","NA"
"-73.58","45.50","MCTAVISH","7024745","2018-09-19 20:00","2018","09","19","20:00","13.8","","9.5","","75","","0.0","","2","","5","","","","101.24","","","","","","NA"
"-73.58","45.50","MCTAVISH","7024745","2018-09-19 21:00","2018","09","19","21:00","13.5","","9.5","","77","","0.0","","2","","4","","","","101.24","","","","","","NA"
"-73.58","45.50","MCTAVISH","7024745","2018-09-19 22:00","2018","09","19","22:00","12.7","","9.7","","82","","0.0","","32","","6","","","","101.31","","","","","","NA"
"-73.58","45.50","MCTAVISH","7024745","2018-09-19 23:00","2018","09","19","23:00","12.4","","9.6","","83","","0.0","","1","","5","","","","101.27","","","","","","NA"
"-73.58","45.50","MCTAVISH","7024745","2018-09-20 00:00","2018","09","20","00:00","11.8","","9.6","","87","","0.0","","34","","5","","","","101.28","","","","","","NA"
"-73.58","45.50","MCTAVISH","7024745","2018-09-20 01:00","2018","09","20","01:00","11.9","","9.7","","87","","0.0","","36","","6","","","","101.30","","","","","","NA"
"-73.58","45.50","MCTAVISH","7024745","2018-09-20 02:00","2018","09","20","02:00","11.0","","9.2","","89","","0.0","","35","","7","","","","101.27","","","","","","NA"
"-73.58","45.50","MCTAVISH","7024745","2018-09-20 03:00","2018","09","20","03:00","10.7","","9.4","","91","","0.0","","36","","7","","","","101.26","","","","","","NA"
"-73.58","45.50","MCTAVISH","7024745","2018-09-20 04:00","2018","09","20","04:00","9.7","","8.4","","91","","0.0","","1","","9","","","","101.34","","","","","","NA"
"-73.58","45.50","MCTAVISH","7024745","2018-09-20 05:00","2018","09","20","05:00","10.0","","8.7","","92","","0.0","","2","","8","","","","101.42","","","","","","NA"
"-73.58","45.50","MCTAVISH","7024745","2018-09-20 06:00","2018","09","20","06:00","10.6","","9.6","","94","","0.0","","1","","11","","","","101.54","","","","","","NA"
"-73.58","45.50","MCTAVISH","7024745","2018-09-20 07:00","2018","09","20","07:00","10.9","","9.6","","92","","0.0","","2","","9","","","","101.59","","","","","","NA"
"-73.58","45.50","MCTAVISH","7024745","2018-09-20 08:00","2018","09","20","08:00","11.1","","9.7","","91","","0.0","","1","","8","","","","101.63","","","","","","NA"
"-73.58","45.50","MCTAVISH","7024745","2018-09-20 09:00","2018","09","20","09:00","11.7","","9.8","","88","","0.0","","3","","6","","","","101.60","","","","","","NA"
"-73.58","45.50","MCTAVISH","7024745","2018-09-20 10:00","2018","09","20","10:00","12.1","","9.7","","86","","0.0","","4","","7","","","","101.58","","","","","","NA"
"-73.58","45.50","MCTAVISH","7024745","2018-09-20 11:00","2018","09","20","11:00","13.0","","10.3","","84","","0.0","","3","","7","","","","101.63","","","","","","NA"
"-73.58","45.50","MCTAVISH","7024745","2018-09-20 12:00","2018","09","20","12:00","13.5","","9.8","","78","","0.0","","36","","5","","","","101.60","","","","","","NA"
"-73.58","45.50","MCTAVISH","7024745","2018-09-20 13:00","2018","09","20","13:00","14.8","","10.3","","75","","0.0","","2","","6","","","","101.58","","","","","","NA"
"-73.58","45.50","MCTAVISH","7024745","2018-09-20 14:00","2018","09","20","14:00","15.7","","9.8","","68","","0.0","","35","","6","","","","101.56","","","","","","NA"
"-73.58","45.50","MCTAVISH","7024745","2018-09-20 15:00","2018","09","20","15:00","16.1","","9.3","","64","","0.0","","4","","2","","","","101.51","","","","","","NA"
"-73.58","45.50","MCTAVISH","7024745","2018-09-20 16:00","2018","09","20","16:00","16.3","","8.3","","59","","0.0","","7","","4","","","","101.47","","","","","","NA"
"-73.58","45.50","MCTAVISH","7024745","2018-09-20 17:00","2018","09","20","17:00","16.0","","9.1","","64","","0.0","","9","","6","","","","101.50","","","","","","NA"
"-73.58","45.50","MCTAVISH","7024745","2018-09-20 18:00","2018","09","20","18:00","15.9","","8.5","","61","","0.0","","4","","5","","","","101.53","","","","","","NA"
"-73.58","45.50","MCTAVISH","7024745","2018-09-20 19:00","2018","09","20","19:00","15.8","","9.3","","65","","0.0","","4","","4","","","","101.53","","","","","","NA"
"-73.58","45.50","MCTAVISH","7024745","2018-09-20 20:00","2018","09","20","20:00","15.5","","9.8","","69","","0.0","","6","","3","","","","101.51","","","","","","NA"
"-73.58","45.50","MCTAVISH","7024745","2018-09-20 21:00","2018","09","20","21:00","15.3","","9.7","","69","","0.0","","11","","4","","","","101.53","","","","","","NA"
"-73.58","45.50","MCTAVISH","7024745","2018-09-20 22:00","2018","09","20","22:00","14.9","","9.0","","68","","0.0","","5","","3","","","","101.52","","","","","","NA"
"-73.58","45.50","MCTAVISH","7024745","2018-09-20 23:00","2018","09","20","23:00","14.7","","9.3","","70","","0.0","","9","","4","","","","101.48","","","","","","NA"
"-73.58","45.50","MCTAVISH","7024745","2018-09-21 00:00","2018","09","21","00:00","15.0","","9.5","","70","","0.0","","6","","3","","","","101.38","","","","","","NA"
"-73.58","45.50","MCTAVISH","7024745","2018-09-21 01:00","2018","09","21","01:00","14.9","","9.5","","71","","0.0","","9","","4","","","","101.28","","","","","","NA"
"-73.58","45.50","MCTAVISH","7024745","2018-09-21 02:00","2018","09","21","02:00","14.5","","10.2","","76","","0.0","","16","","2","","","","101.22","","","","","","NA"
"-73.58","45.50","MCTAVISH","7024745","2018-09-21 03:00","2018","09","21","03:00","14.5","","10.7","","78","","0.0","","18","","5","","","","101.08","","","","","","NA"
"-73.58","45.50","MCTAVISH","7024745","2018-09-21 04:00","2018","09","21","04:00","14.9","","11.7","","81","","0.0","","18","","4","","","","101.02","","","","","","NA"
"-73.58","45.50","MCTAVISH","7024745","2018-09-21 05:00","2018","09","21","05:00","15.0","","12.1","","83","","0.0","","17","","4","","","","100.87","","","","","","NA"
"-73.58","45.50","MCTAVISH","7024745","2018-09-21 06:00","2018","09","21","06:00","15.6","","14.0","","90","","0.0","","20","","6","","","","100.77","","","","","","NA"
"-73.58","45.50","MCTAVISH","7024745","2018-09-21 07:00","2018","09","21","07:00","16.3","","15.3","","94","","3.0","","19","","9","","","","100.64","","","","","","NA"
"-73.58","45.50","MCTAVISH","7024745","2018-09-21 08:00","2018","09","21","08:00","16.6","","15.7","","94","","1.5","","20","","8","","","","100.52","","","","","","NA"
"-73.58","45.50","MCTAVISH","7024745","2018-09-21 09:00","2018","09","21","09:00","16.9","","15.9","","94","","0.8","","19","","10","","","","100.41","","","","","","NA"
"-73.58","45.50","MCTAVISH","7024745","2018-09-21 10:00","2018","09","21","10:00","16.9","","16.1","","95","","3.7","","20","","10","","","","100.27","","","","","","NA"
"-73.58","45.50","MCTAVISH","7024745","2018-09-21 11:00","2018","09","21","11:00","17.0","","16.3","","95","","7.0","","19","","11","","","","100.18","","","","","","NA"
"-73.58","45.50","MCTAVISH","7024745","2018-09-21 12:00","2018","09","21","12:00","18.2","","16.7","","91","","0.0","","19","","10","","","","100.00","","","","","","NA"
"-73.58","45.50","MCTAVISH","7024745","2018-09-21 13:00","2018","09","21","13:00","19.8","","17.3","","85","","0.0","","20","","11","","","","99.89","","","","","","NA"
"-73.58","45.50","MCTAVISH","7024745","2018-09-21 14:00","2018","09","21","14:00","20.9","","17.5","","81","","0.0","","20","","11","","","","99.75","","27","","","","NA"
"-73.58","45.50","MCTAVISH","7024745","2018-09-21 15:00","2018","09","21","15:00","22.1","","17.6","","76","","0.0","","19","","12","","","","99.54","","28","","","","NA"
"-73.58","45.50","MCTAVISH","7024745","2018-09-21 16:00","2018","09","21","16:00","21.5","","17.2","","77","","0.0","","19","","12","","","","99.40","","27","","","","NA"
"-73.58","45.50","MCTAVISH","7024745","2018-09-21 17:00","2018","09","21","17:00","20.8","","17.2","","80","","0.0","","18","","10","","","","99.25","","26","","","","NA"
"-73.58","45.50","MCTAVISH","7024745","2018-09-21 18:00","2018","09","21","18:00","20.2","","16.9","","81","","0.0","","20","","12","","","","99.17","","25","","","","NA"
"-73.58","45.50","MCTAVISH","7024745","2018-09-21 19:00","2018","09","21","19:00","19.0","","17.3","","89","","1.1","","19","","14","","","","99.13","","","","","","NA"
"-73.58","45.50","MCTAVISH","7024745","2018-09-21 20:00","2018","09","21","20:00","19.1","","18.2","","94","","17.9","","15","","9","","","","99.33","","","","","","NA"
"-73.58","45.50","MCTAVISH","7024745","2018-09-21 21:00","2018","09","21","21:00","19.8","","18.0","","89","","1.3","","18","","9","","","","99.36","","","","","","NA"
"-73.58","45.50","MCTAVISH","7024745","2018-09-21 22:00","2018","09","21","22:00","21.7","","18.2","","80","","0.0","","19","","10","","","","99.40","","28","","","","NA"
"-73.58","45.50","MCTAVISH","7024745","2018-09-21 23:00","2018","09","21","23:00","21.7","","16.6","","73","","0.0","","20","","11","","","","99.46","","27","","","","NA"
"-73.58","45.50","MCTAVISH","7024745","2018-09-22 00:00","2018","09","22","00:00","20.1","","11.7","","58","","0.0","","17","","9","","","","99.61","","","","","","NA"
"-73.58","45.50","MCTAVISH","7024745","2018-09-22 01:00","2018","09","22","01:00","18.7","","10.9","","61","","0.0","","20","","8","","","","99.76","","","","","","NA"
"-73.58","45.50","MCTAVISH","7024745","2018-09-22 02:00","2018","09","22","02:00","17.4","","6.8","","50","","0.0","","2","","10","","","","100.01","","","","","","NA"
"-73.58","45.50","MCTAVISH","7024745","2018-09-22 03:00","2018","09","22","03:00","15.4","","7.1","","58","","0.0","","5","","8","","","","100.25","","","","","","NA"
"-73.58","45.50","MCTAVISH","7024745","2018-09-22 04:00","2018","09","22","04:00","13.0","","5.8","","62","","0.0","","35","","9","","","","100.56","","","","","","NA"
"-73.58","45.50","MCTAVISH","7024745","2018-09-22 05:00","2018","09","22","05:00","11.4","","3.5","","58","","0.0","","36","","15","","","","100.81","","","","","","NA"
"-73.58","45.50","MCTAVISH","7024745","2018-09-22 06:00","2018","09","22","06:00","10.1","","2.9","","61","","0.0","","36","","8","","","","101.04","","","","","","NA"
"-73.58","45.50","MCTAVISH","7024745","2018-09-22 07:00","2018","09","22","07:00","10.6","","2.1","","56","","0.0","","35","","8","","","","101.23","","","","","","NA"
"-73.58","45.50","MCTAVISH","7024745","2018-09-22 08:00","2018","09","22","08:00","11.1","","1.7","","52","","0.2","","35","","13","","","","101.30","","","","","","NA"
"-73.58","45.50","MCTAVISH","7024745","2018-09-22 09:00","2018","09","22","09:00","11.3","","1.7","","52","","0.0","","35","","13","","","","101.42","","","","","","NA"
"-73.58","45.50","MCTAVISH","7024745","2018-09-22 10:00","2018","09","22","10:00","12.0","","2.3","","51","","0.0","","35","","12","","","","101.45","","","","","","NA"
"-73.58","45.50","MCTAVISH","7024745","2018-09-22 11:00","2018","09","22","11:00","12.2","","1.5","","48","","0.0","","35","","9","","","","101.46","","","","","","NA"
"-73.58","45.50","MCTAVISH","7024745","2018-09-22 12:00","2018","09","22","12:00","13.6","","2.1","","46","","0.0","","31","","8","","","","101.44","","","","","","NA"
"-73.58","45.50","MCTAVISH","7024745","2018-09-22 13:00","2018","09","22","13:00","14.1","","2.0","","44","","0.0","","36","","12","","","","101.40","","","","","","NA"
"-73.58","45.50","MCTAVISH","7024745","2018-09-22 14:00","2018","09","22","14:00","14.9","","1.3","","40","","0.0","","29","","6","","","","101.35","","","","","","NA"
"-73.58","45.50","MCTAVISH","7024745","2018-09-22 15:00","2018","09","22","15:00","15.2","","1.8","","40","","0.0","","29","","7","","","","101.36","","","","","","NA"
"-73.58","45.50","MCTAVISH","7024745","2018-09-22 16:00","2018","09","22","16:00","15.0","","2.6","","43","","0.0","","28","","5","","","","101.33","","","","","","NA"
"-73.58","45.50","MCTAVISH","7024745","2018-09-22 17:00","2018","09","22","17:00","13.6","","2.9","","48","","0.0","","29","","4","","","","101.36","","","","","","NA"
"-73.58","45.50","MCTAVISH","7024745","2018-09-22 18:00","2018","09","22","18:00","12.0","","4.0","","58","","0.0","","32","","2","","","","101.38","","","","","","NA"
"-73.58","45.50","MCTAVISH","7024745","2018-09-22 19:00","2018","09","22","19:00","11.0","","4.5","","64","","0.0","","27","","1","","","","101.42","","","","","","NA"
"-73.58","45.50","MCTAVISH","7024745","2018-09-22 20:00","2018","09","22","20:00","10.8","","4.2","","64","","0.0","","21","","2","","","","101.44","","","","","","NA"
"-73.58","45.50","MCTAVISH","7024745","2018-09-22 21:00","2018","09","22","21:00","9.9","","4.6","","70","","0.0","","","","0","","","","101.41","","","","","","NA"
"-73.58","45.50","MCTAVISH","7024745","2018-09-22 22:00","2018","09","22","22:00","10.9","","4.3","","64","","0.0","","19","","2","","","","101.42","","","","","","NA"
"-73.58","45.50","MCTAVISH","7024745","2018-09-22 23:00","2018","09","22","23:00","9.6","","5.1","","74","","0.0","","28","","3","","","","101.45","","","","","","NA"
"-73.58","45.50","MCTAVISH","7024745","2018-09-23 00:00","2018","09","23","00:00","10.5","","5.9","","73","","0.0","","18","","4","","","","101.41","","","","","","NA"
"-73.58","45.50","MCTAVISH","7024745","2018-09-23 01:00","2018","09","23","01:00","10.2","","5.6","","73","","0.0","","19","","5","","","","101.40","","","","","","NA"
"-73.58","45.50","MCTAVISH","7024745","2018-09-23 02:00","2018","09","23","02:00","9.5","","6.8","","83","","0.0","","19","","4","","","","101.41","","","","","","NA"
"-73.58","45.50","MCTAVISH","7024745","2018-09-23 03:00","2018","09","23","03:00","9.3","","6.3","","82","","0.0","","18","","6","","","","101.39","","","","","","NA"
"-73.58","45.50","MCTAVISH","7024745","2018-09-23 04:00","2018","09","23","04:00","8.8","","5.4","","79","","0.0","","18","","5","","","","101.42","","","","","","NA"
"-73.58","45.50","MCTAVISH","7024745","2018-09-23 05:00","2018","09","23","05:00","9.4","","5.8","","78","","0.0","","19","","6","","","","101.45","","","","","","NA"
"-73.58","45.50","MCTAVISH","7024745","2018-09-23 06:00","2018","09","23","06:00","9.5","","6.0","","79","","0.0","","26","","6","","","","101.42","","","","","","NA"
"-73.58","45.50","MCTAVISH","7024745","2018-09-23 07:00","2018","09","23","07:00","9.8","","5.9","","76","","0.0","","25","","8","","","","101.47","","","","","","NA"
"-73.58","45.50","MCTAVISH","7024745","2018-09-23 08:00","2018","09","23","08:00","10.3","","5.9","","74","","0.0","","27","","1","","","","101.50","","","","","","NA"
"-73.58","45.50","MCTAVISH","7024745","2018-09-23 09:00","2018","09","23","09:00","11.2","","5.7","","69","","0.0","","25","","7","","","","101.52","","","","","","NA"
"-73.58","45.50","MCTAVISH","7024745","2018-09-23 10:00","2018","09","23","10:00","12.8","","5.1","","59","","0.0","","26","","7","","","","101.56","","","","","","NA"
"-73.58","45.50","MCTAVISH","7024745","2018-09-23 11:00","2018","09","23","11:00","13.8","","5.6","","58","","0.0","","36","","4","","","","101.53","","","","","","NA"
"-73.58","45.50","MCTAVISH","7024745","2018-09-23 12:00","2018","09","23","12:00","15.6","","6.9","","56","","0.0","","28","","4","","","","101.54","","","","","","NA"
"-73.58","45.50","MCTAVISH","7024745","2018-09-23 13:00","2018","09","23","13:00","15.7","","5.6","","51","","0.0","","33","","7","","","","101.51","","","","","","NA"
"-73.58","45.50","MCTAVISH","7024745","2018-09-23 14:00","2018","09","23","14:00","16.5","","5.6","","49","","0.0","","30","","6","","","","101.49","","","","","","NA"
"-73.58","45.50","MCTAVISH","7024745","2018-09-23 15:00","2018","09","23","15:00","16.2","","6.3","","52","","0.0","","31","","5","","","","101.52","","","","","","NA"
"-73.58","45.50","MCTAVISH","7024745","2018-09-23 16:00","2018","09","23","16:00","12.9","","6.9","","67","","0.0","","2","","13","","","","101.64","","","","","","NA"
"-73.58","45.50","MCTAVISH","7024745","2018-09-23 17:00","2018","09","23","17:00","11.0","","4.8","","66","","0.0","","2","","15","","","","101.77","","","","","","NA"
"-73.58","45.50","MCTAVISH","7024745","2018-09-23 18:00","2018","09","23","18:00","10.5","","3.3","","61","","0.0","","2","","10","","","","101.87","","","","","","NA"
"-73.58","45.50","MCTAVISH","7024745","2018-09-23 19:00","2018","09","23","19:00","9.7","","2.9","","63","","0.0","","4","","12","","","","102.02","","","","","","NA"
"-73.58","45.50","MCTAVISH","7024745","2018-09-23 20:00","2018","09","23","20:00","8.9","","2.3","","63","","0.0","","4","","14","","","","102.10","","","","","","NA"
"-73.58","45.50","MCTAVISH","7024745","2018-09-23 21:00","2018","09","23","21:00","8.8","","1.4","","60","","0.0","","3","","11","","","","102.18","","","","","","NA"
"-73.58","45.50","MCTAVISH","7024745","2018-09-23 22:00","2018","09","23","22:00","8.5","","-1.7","","49","","0.0","","5","","10","","","","102.25","","","","","","NA"
"-73.58","45.50","MCTAVISH","7024745","2018-09-23 23:00","2018","09","23","23:00","8.3","","-1.6","","50","","0.0","","3","","8","","","","102.31","","","","","","NA"
"-73.58","45.50","MCTAVISH","7024745","2018-09-24 00:00","2018","09","24","00:00","8.1","","-1.8","","50","","0.0","","4","","8","","","","102.34","","","","","","NA"
"-73.58","45.50","MCTAVISH","7024745","2018-09-24 01:00","2018","09","24","01:00","8.1","","-0.8","","54","","0.0","","4","","8","","","","102.38","","","","","","NA"
"-73.58","45.50","MCTAVISH","7024745","2018-09-24 02:00","2018","09","24","02:00","8.1","","-0.5","","55","","0.0","","4","","9","","","","102.42","","","","","","NA"
"-73.58","45.50","MCTAVISH","7024745","2018-09-24 03:00","2018","09","24","03:00","7.3","","0.5","","62","","0.0","","3","","10","","","","102.47","","","","","","NA"
"-73.58","45.50","MCTAVISH","7024745","2018-09-24 04:00","2018","09","24","04:00","6.0","","0.5","","68","","0.0","","4","","9","","","","102.53","","","","","","NA"
"-73.58","45.50","MCTAVISH","7024745","2018-09-24 05:00","2018","09","24","05:00","5.4","","0.2","","69","","0.0","","4","","8","","","","102.61","","","","","","NA"
"-73.58","45.50","MCTAVISH","7024745","2018-09-24 06:00","2018","09","24","06:00","4.8","","0.6","","75","","0.0","","4","","9","","","","102.70","","","","","","NA"
"-73.58","45.50","MCTAVISH","7024745","2018-09-24 07:00","2018","09","24","07:00","5.4","","0.1","","69","","0.0","","5","","8","","","","102.76","","","","","","NA"
"-73.58","45.50","MCTAVISH","7024745","2018-09-24 08:00","2018","09","24","08:00","6.2","","-1.4","","58","","0.0","","5","","10","","","","102.81","","","","","","NA"
"-73.58","45.50","MCTAVISH","7024745","2018-09-24 09:00","2018","09","24","09:00","7.6","","-1.7","","52","","0.0","","5","","10","","","","102.80","","","","","","NA"
"-73.58","45.50","MCTAVISH","7024745","2018-09-24 10:00","2018","09","24","10:00","9.2","","-1.9","","46","","0.0","","7","","10","","","","102.76","","","","","","NA"
"-73.58","45.50","MCTAVISH","7024745","2018-09-24 11:00","2018","09","24","11:00","10.9","","-0.6","","45","","0.0","","8","","9","","","","102.71","","","","","","NA"
"-73.58","45.50","MCTAVISH","7024745","2018-09-24 12:00","2018","09","24","12:00","11.5","","-2.5","","37","","0.0","","5","","9","","","","102.63","","","","","","NA"
"-73.58","45.50","MCTAVISH","7024745","2018-09-24 13:00","2018","09","24","13:00","12.7","","-2.5","","35","","0.0","","5","","8","","","","102.59","","","","","","NA"
"-73.58","45.50","MCTAVISH","7024745","2018-09-24 14:00","2018","09","24","14:00","13.5","","-3.4","","31","","0.0","","8","","7","","","","102.49","","","","","","NA"
"-73.58","45.50","MCTAVISH","7024745","2018-09-24 15:00","2018","09","24","15:00","14.2","","-2.7","","31","","0.0","","7","","6","","","","102.44","","","","","","NA"
"-73.58","45.50","MCTAVISH","7024745","2018-09-24 16:00","2018","09","24","16:00","14.0","","-2.2","","32","","0.0","","5","","8","","","","102.38","","","","","","NA"
"-73.58","45.50","MCTAVISH","7024745","2018-09-24 17:00","2018","09","24","17:00","13.4","","-2.2","","34","","0.0","","4","","9","","","","102.41","","","","","","NA"
"-73.58","45.50","MCTAVISH","7024745","2018-09-24 18:00","2018","09","24","18:00","12.7","","-0.6","","40","","0.0","","3","","6","","","","102.45","","","","","","NA"
"-73.58","45.50","MCTAVISH","7024745","2018-09-24 19:00","2018","09","24","19:00","11.8","","0.2","","45","","0.0","","1","","6","","","","102.43","","","","","","NA"
"-73.58","45.50","MCTAVISH","7024745","2018-09-24 20:00","2018","09","24","20:00","11.2","","-0.5","","45","","0.0","","6","","5","","","","102.40","","","","","","NA"
"-73.58","45.50","MCTAVISH","7024745","2018-09-24 21:00","2018","09","24","21:00","11.2","","5.7","","69","","0.0","","17","","4","","","","102.37","","","","","","NA"
"-73.58","45.50","MCTAVISH","7024745","2018-09-24 22:00","2018","09","24","22:00","11.3","","6.8","","74","","0.0","","18","","4","","","","102.33","","","","","","NA"
"-73.58","45.50","MCTAVISH","7024745","2018-09-24 23:00","2018","09","24","23:00","10.9","","6.6","","75","","0.0","","16","","5","","","","102.28","","","","","","NA"
"-73.58","45.50","MCTAVISH","7024745","2018-09-25 00:00","2018","09","25","00:00","10.6","","6.6","","76","","0.0","","17","","6","","","","102.22","","","","","","NA"
"-73.58","45.50","MCTAVISH","7024745","2018-09-25 01:00","2018","09","25","01:00","10.6","","6.5","","76","","0.0","","18","","6","","","","102.15","","","","","","NA"
"-73.58","45.50","MCTAVISH","7024745","2018-09-25 02:00","2018","09","25","02:00","10.8","","7.1","","78","","0.0","","19","","6","","","","102.07","","","","","","NA"
"-73.58","45.50","MCTAVISH","7024745","2018-09-25 03:00","2018","09","25","03:00","11.3","","6.6","","73","","0.0","","18","","9","","","","102.00","","","","","","NA"
"-73.58","45.50","MCTAVISH","7024745","2018-09-25 04:00","2018","09","25","04:00","11.2","","5.9","","70","","0.0","","18","","10","","","","101.93","","","","","","NA"
"-73.58","45.50","MCTAVISH","7024745","2018-09-25 05:00","2018","09","25","05:00","11.4","","4.9","","64","","0.0","","18","","10","","","","101.93","","","","","","NA"
"-73.58","45.50","MCTAVISH","7024745","2018-09-25 06:00","2018","09","25","06:00","11.9","","5.8","","66","","0.0","","19","","3","","","","101.93","","","","","","NA"
"-73.58","45.50","MCTAVISH","7024745","2018-09-25 07:00","2018","09","25","07:00","12.2","","6.6","","69","","0.0","","18","","7","","","","101.89","","","","","","NA"
"-73.58","45.50","MCTAVISH","7024745","2018-09-25 08:00","2018","09","25","08:00","12.3","","6.5","","68","","0.0","","18","","10","","","","101.84","","","","","","NA"
"-73.58","45.50","MCTAVISH","7024745","2018-09-25 09:00","2018","09","25","09:00","12.1","","8.1","","77","","0.2","","18","","7","","","","101.78","","","","","","NA"
"-73.58","45.50","MCTAVISH","7024745","2018-09-25 10:00","2018","09","25","10:00","12.7","","8.2","","74","","0.0","","18","","12","","","","101.70","","","","","","NA"
"-73.58","45.50","MCTAVISH","7024745","2018-09-25 11:00","2018","09","25","11:00","11.2","","9.7","","90","","1.8","","18","","8","","","","101.62","","","","","","NA"
"-73.58","45.50","MCTAVISH","7024745","2018-09-25 12:00","2018","09","25","12:00","11.0","","10.0","","93","","2.2","","18","","11","","","","101.53","","","","","","NA"
"-73.58","45.50","MCTAVISH","7024745","2018-09-25 13:00","2018","09","25","13:00","11.8","","10.7","","93","","0.5","","18","","10","","","","101.38","","","","","","NA"
"-73.58","45.50","MCTAVISH","7024745","2018-09-25 14:00","2018","09","25","14:00","12.2","","11.1","","93","","1.3","","19","","11","","","","101.30","","","","","","NA"
"-73.58","45.50","MCTAVISH","7024745","2018-09-25 15:00","2018","09","25","15:00","12.8","","11.5","","92","","1.3","","18","","9","","","","101.23","","","","","","NA"
"-73.58","45.50","MCTAVISH","7024745","2018-09-25 16:00","2018","09","25","16:00","13.8","","11.9","","88","","0.2","","18","","11","","","","101.14","","","","","","NA"
"-73.58","45.50","MCTAVISH","7024745","2018-09-25 17:00","2018","09","25","17:00","14.5","","12.2","","86","","0.0","","18","","10","","","","101.09","","","","","","NA"
"-73.58","45.50","MCTAVISH","7024745","2018-09-25 18:00","2018","09","25","18:00","14.5","","12.5","","88","","0.0","","18","","8","","","","101.00","","","","","","NA"
"-73.58","45.50","MCTAVISH","7024745","2018-09-25 19:00","2018","09","25","19:00","15.0","","12.9","","87","","0.0","","19","","8","","","","100.93","","","","","","NA"
"-73.58","45.50","MCTAVISH","7024745","2018-09-25 20:00","2018","09","25","20:00","15.5","","13.1","","86","","0.0","","18","","6","","","","100.87","","","","","","NA"
"-73.58","45.50","MCTAVISH","7024745","2018-09-25 21:00","2018","09","25","21:00","15.8","","13.2","","85","","0.0","","19","","7","","","","100.79","","","","","","NA"
"-73.58","45.50","MCTAVISH","7024745","2018-09-25 22:00","2018","09","25","22:00","16.0","","13.6","","86","","0.0","","20","","8","","","","100.70","","","","","","NA"
"-73.58","45.50","MCTAVISH","7024745","2018-09-25 23:00","2018","09","25","23:00","15.9","","13.9","","88","","0.0","","19","","7","","","","100.57","","","","","","NA"
"-73.58","45.50","MCTAVISH","7024745","2018-09-26 00:00","2018","09","26","00:00","15.9","","14.0","","89","","0.0","","20","","7","","","","100.46","","","","","","NA"
"-73.58","45.50","MCTAVISH","7024745","2018-09-26 01:00","2018","09","26","01:00","15.9","","14.2","","89","","0.0","","20","","6","","","","100.40","","","","","","NA"
"-73.58","45.50","MCTAVISH","7024745","2018-09-26 02:00","2018","09","26","02:00","16.2","","14.4","","89","","0.0","","20","","5","","","","100.34","","","","","","NA"
"-73.58","45.50","MCTAVISH","7024745","2018-09-26 03:00","2018","09","26","03:00","16.4","","14.6","","90","","0.0","","20","","6","","","","100.23","","","","","","NA"
"-73.58","45.50","MCTAVISH","7024745","2018-09-26 04:00","2018","09","26","04:00","16.3","","15.1","","93","","0.3","","21","","7","","","","100.10","","","","","","NA"
"-73.58","45.50","MCTAVISH","7024745","2018-09-26 05:00","2018","09","26","05:00","16.6","","15.6","","94","","0.0","","20","","6","","","","100.00","","","","","","NA"
"-73.58","45.50","MCTAVISH","7024745","2018-09-26 06:00","2018","09","26","06:00","17.2","","16.2","","94","","0.2","","20","","6","","","","99.97","","","","","","NA"
"-73.58","45.50","MCTAVISH","7024745","2018-09-26 07:00","2018","09","26","07:00","17.6","","16.4","","93","","0.0","","19","","7","","","","99.94","","","","","","NA"
"-73.58","45.50","MCTAVISH","7024745","2018-09-26 08:00","2018","09","26","08:00","18.7","","17.3","","92","","0.0","","19","","7","","","","99.91","","","","","","NA"
"-73.58","45.50","MCTAVISH","7024745","2018-09-26 09:00","2018","09","26","09:00","21.0","","18.5","","86","","0.0","","18","","6","","","","99.88","","27","","","","NA"
"-73.58","45.50","MCTAVISH","7024745","2018-09-26 10:00","2018","09","26","10:00","21.7","","18.8","","84","","0.0","","17","","6","","","","99.83","","28","","","","NA"
"-73.58","45.50","MCTAVISH","7024745","2018-09-26 11:00","2018","09","26","11:00","21.1","","19.3","","90","","0.3","","20","","6","","","","99.79","","28","","","","NA"
"-73.58","45.50","MCTAVISH","7024745","2018-09-26 12:00","2018","09","26","12:00","21.0","","19.0","","89","","0.0","","20","","6","","","","99.71","","28","","","","NA"
"-73.58","45.50","MCTAVISH","7024745","2018-09-26 13:00","2018","09","26","13:00","20.6","","19.8","","95","","4.6","","18","","7","","","","99.59","","28","","","","NA"
"-73.58","45.50","MCTAVISH","7024745","2018-09-26 14:00","2018","09","26","14:00","21.6","","20.2","","92","","0.0","","20","","8","","","","99.54","","29","","","","NA"
"-73.58","45.50","MCTAVISH","7024745","2018-09-26 15:00","2018","09","26","15:00","21.8","","20.7","","93","","0.3","","18","","5","","","","99.57","","30","","","","NA"
"-73.58","45.50","MCTAVISH","7024745","2018-09-26 16:00","2018","09","26","16:00","19.3","","17.0","","87","","1.2","","22","","6","","","","99.63","","","","","","NA"
"-73.58","45.50","MCTAVISH","7024745","2018-09-26 17:00","2018","09","26","17:00","19.3","","17.3","","88","","1.6","","18","","6","","","","99.72","","","","","","NA"
"-73.58","45.50","MCTAVISH","7024745","2018-09-26 18:00","2018","09","26","18:00","19.4","","17.0","","86","","0.0","","18","","5","","","","99.88","","","","","","NA"
"-73.58","45.50","MCTAVISH","7024745","2018-09-26 19:00","2018","09","26","19:00","18.7","","14.5","","77","","0.0","","20","","3","","","","100.07","","","","","","NA"
"-73.58","45.50","MCTAVISH","7024745","2018-09-26 20:00","2018","09","26","20:00","17.7","","12.2","","70","","0.0","","5","","4","","","","100.26","","","","","","NA"
"-73.58","45.50","MCTAVISH","7024745","2018-09-26 21:00","2018","09","26","21:00","16.4","","9.6","","64","","0.0","","36","","8","","","","100.42","","","","","","NA"
"-73.58","45.50","MCTAVISH","7024745","2018-09-26 22:00","2018","09","26","22:00","15.1","","9.3","","68","","0.0","","33","","4","","","","100.59","","","","","","NA"
"-73.58","45.50","MCTAVISH","7024745","2018-09-26 23:00","2018","09","26","23:00","14.5","","8.9","","69","","0.0","","33","","2","","","","100.74","","","","","","NA"
"-73.58","45.50","MCTAVISH","7024745","2018-09-27 00:00","2018","09","27","00:00","13.4","","7.7","","68","","0.0","","32","","5","","","","100.80","","","","","","NA"
"-73.58","45.50","MCTAVISH","7024745","2018-09-27 01:00","2018","09","27","01:00","12.3","","6.4","","67","","0.0","","32","","5","","","","100.88","","","","","","NA"
"-73.58","45.50","MCTAVISH","7024745","2018-09-27 02:00","2018","09","27","02:00","12.1","","6.2","","67","","0.0","","32","","9","","","","100.88","","","","","","NA"
"-73.58","45.50","MCTAVISH","7024745","2018-09-27 03:00","2018","09","27","03:00","11.4","","6.2","","70","","0.0","","33","","5","","","","100.92","","","","","","NA"
"-73.58","45.50","MCTAVISH","7024745","2018-09-27 04:00","2018","09","27","04:00","10.9","","5.5","","69","","0.0","","34","","7","","","","101.04","","","","","","NA"
"-73.58","45.50","MCTAVISH","7024745","2018-09-27 05:00","2018","09","27","05:00","9.0","","6.4","","84","","0.0","","30","","3","","","","101.12","","","","","","NA"
"-73.58","45.50","MCTAVISH","7024745","2018-09-27 06:00","2018","09","27","06:00","9.3","","6.9","","85","","0.0","","27","","2","","","","101.20","","","","","","NA"
"-73.58","45.50","MCTAVISH","7024745","2018-09-27 07:00","2018","09","27","07:00","11.4","","7.4","","76","","0.0","","18","","2","","","","101.24","","","","","","NA"
"-73.58","45.50","MCTAVISH","7024745","2018-09-27 08:00","2018","09","27","08:00","12.8","","5.6","","62","","0.0","","12","","4","","","","101.33","","","","","","NA"
"-73.58","45.50","MCTAVISH","7024745","2018-09-27 09:00","2018","09","27","09:00","14.6","","5.3","","54","","0.2","","11","","3","","","","101.37","","","","","","NA"
"-73.58","45.50","MCTAVISH","7024745","2018-09-27 10:00","2018","09","27","10:00","15.2","","4.7","","49","","0.0","","19","","6","","","","101.33","","","","","","NA"
"-73.58","45.50","MCTAVISH","7024745","2018-09-27 11:00","2018","09","27","11:00","15.8","","4.7","","48","","0.0","","21","","3","","","","101.35","","","","","","NA"
"-73.58","45.50","MCTAVISH","7024745","2018-09-27 12:00","2018","09","27","12:00","16.3","","5.2","","48","","0.0","","17","","7","","","","101.32","","","","","","NA"
"-73.58","45.50","MCTAVISH","7024745","2018-09-27 13:00","2018","09","27","13:00","16.8","","5.7","","48","","0.0","","13","","8","","","","101.28","","","","","","NA"
"-73.58","45.50","MCTAVISH","7024745","2018-09-27 14:00","2018","09","27","14:00","16.8","","6.0","","49","","0.0","","16","","4","","","","101.24","","","","","","NA"
"-73.58","45.50","MCTAVISH","7024745","2018-09-27 15:00","2018","09","27","15:00","17.2","","6.0","","48","","0.0","","14","","4","","","","101.18","","","","","","NA"
"-73.58","45.50","MCTAVISH","7024745","2018-09-27 16:00","2018","09","27","16:00","16.7","","5.8","","49","","0.0","","11","","3","","","","101.11","","","","","","NA"
"-73.58","45.50","MCTAVISH","7024745","2018-09-27 17:00","2018","09","27","17:00","16.3","","5.8","","50","","0.0","","9","","6","","","","101.17","","","","","","NA"
"-73.58","45.50","MCTAVISH","7024745","2018-09-27 18:00","2018","09","27","18:00","15.7","","5.7","","51","","0.0","","11","","6","","","","101.14","","","","","","NA"
"-73.58","45.50","MCTAVISH","7024745","2018-09-27 19:00","2018","09","27","19:00","15.2","","6.1","","55","","0.0","","14","","4","","","","101.13","","","","","","NA"
"-73.58","45.50","MCTAVISH","7024745","2018-09-27 20:00","2018","09","27","20:00","14.9","","6.6","","57","","0.0","","12","","3","","","","101.11","","","","","","NA"
"-73.58","45.50","MCTAVISH","7024745","2018-09-27 21:00","2018","09","27","21:00","14.5","","6.1","","57","","0.0","","10","","6","","","","101.03","","","","","","NA"
"-73.58","45.50","MCTAVISH","7024745","2018-09-27 22:00","2018","09","27","22:00","14.2","","7.0","","62","","0.0","","27","","3","","","","101.01","","","","","","NA"
"-73.58","45.50","MCTAVISH","7024745","2018-09-27 23:00","2018","09","27","23:00","14.3","","7.0","","61","","0.0","","11","","4","","","","100.97","","","","","","NA"
"-73.58","45.50","MCTAVISH","7024745","2018-09-28 00:00","2018","09","28","00:00","14.0","","7.4","","64","","0.0","","24","","2","","","","100.96","","","","","","NA"
"-73.58","45.50","MCTAVISH","7024745","2018-09-28 01:00","2018","09","28","01:00","13.8","","7.6","","66","","0.0","","18","","3","","","","100.95","","","","","","NA"
"-73.58","45.50","MCTAVISH","7024745","2018-09-28 02:00","2018","09","28","02:00","13.4","","8.3","","71","","0.0","","19","","5","","","","100.91","","","","","","NA"
"-73.58","45.50","MCTAVISH","7024745","2018-09-28 03:00","2018","09","28","03:00","13.4","","9.1","","75","","0.0","","20","","5","","","","100.88","","","","","","NA"
"-73.58","45.50","MCTAVISH","7024745","2018-09-28 04:00","2018","09","28","04:00","13.9","","10.0","","77","","0.0","","19","","6","","","","100.88","","","","","","NA"
"-73.58","45.50","MCTAVISH","7024745","2018-09-28 05:00","2018","09","28","05:00","13.8","","11.3","","85","","0.0","","20","","6","","","","100.92","","","","","","NA"
"-73.58","45.50","MCTAVISH","7024745","2018-09-28 06:00","2018","09","28","06:00","13.8","","11.4","","86","","0.0","","19","","6","","","","100.90","","","","","","NA"
"-73.58","45.50","MCTAVISH","7024745","2018-09-28 07:00","2018","09","28","07:00","14.1","","12.3","","89","","0.0","","18","","4","","","","100.90","","","","","","NA"
"-73.58","45.50","MCTAVISH","7024745","2018-09-28 08:00","2018","09","28","08:00","14.5","","12.6","","88","","0.0","","18","","6","","","","100.89","","","","","","NA"
"-73.58","45.50","MCTAVISH","7024745","2018-09-28 09:00","2018","09","28","09:00","15.6","","11.9","","78","","0.0","","19","","8","","","","100.86","","","","","","NA"
"-73.58","45.50","MCTAVISH","7024745","2018-09-28 10:00","2018","09","28","10:00","17.1","","12.0","","72","","0.0","","19","","11","","","","100.80","","","","","","NA"
"-73.58","45.50","MCTAVISH","7024745","2018-09-28 11:00","2018","09","28","11:00","18.3","","12.3","","68","","0.0","","15","","9","","","","100.78","","","","","","NA"
"-73.58","45.50","MCTAVISH","7024745","2018-09-28 12:00","2018","09","28","12:00","19.1","","12.0","","63","","0.0","","16","","7","","","","100.69","","","","","","NA"
"-73.58","45.50","MCTAVISH","7024745","2018-09-28 13:00","2018","09","28","13:00","19.4","","12.2","","63","","0.0","","20","","6","","","","100.66","","","","","","NA"
"-73.58","45.50","MCTAVISH","7024745","2018-09-28 14:00","2018","09","28","14:00","19.6","","11.6","","60","","0.0","","19","","5","","","","100.60","","","","","","NA"
"-73.58","45.50","MCTAVISH","7024745","2018-09-28 15:00","2018","09","28","15:00","20.7","","11.4","","55","","0.0","","19","","7","","","","100.58","","","","","","NA"
"-73.58","45.50","MCTAVISH","7024745","2018-09-28 16:00","2018","09","28","16:00","19.7","","11.7","","60","","0.0","","20","","6","","","","100.55","","","","","","NA"
"-73.58","45.50","MCTAVISH","7024745","2018-09-28 17:00","2018","09","28","17:00","19.1","","12.9","","67","","0.0","","20","","5","","","","100.48","","","","","","NA"
"-73.58","45.50","MCTAVISH","7024745","2018-09-28 18:00","2018","09","28","18:00","18.4","","12.8","","70","","0.0","","20","","7","","","","100.55","","","","","","NA"
"-73.58","45.50","MCTAVISH","7024745","2018-09-28 19:00","2018","09","28","19:00","17.2","","12.9","","76","","0.0","","20","","7","","","","100.57","","","","","","NA"
"-73.58","45.50","MCTAVISH","7024745","2018-09-28 20:00","2018","09","28","20:00","16.6","","12.6","","77","","0.0","","19","","6","","","","100.57","","","","","","NA"
"-73.58","45.50","MCTAVISH","7024745","2018-09-28 21:00","2018","09","28","21:00","16.9","","11.6","","71","","0.0","","18","","8","","","","100.58","","","","","","NA"
"-73.58","45.50","MCTAVISH","7024745","2018-09-28 22:00","2018","09","28","22:00","17.2","","11.5","","69","","0.0","","23","","5","","","","100.63","","","","","","NA"
"-73.58","45.50","MCTAVISH","7024745","2018-09-28 23:00","2018","09","28","23:00","13.0","","10.1","","82","","0.0","","19","","2","","","","100.71","","","","","","NA"
"-73.58","45.50","MCTAVISH","7024745","2018-09-29 00:00","2018","09","29","00:00","12.7","","9.1","","79","","0.0","","20","","5","","","","100.82","","","","","","NA"
"-73.58","45.50","MCTAVISH","7024745","2018-09-29 01:00","2018","09","29","01:00","12.1","","8.5","","78","","0.0","","21","","4","","","","100.96","","","","","","NA"
"-73.58","45.50","MCTAVISH","7024745","2018-09-29 02:00","2018","09","29","02:00","11.3","","9.1","","86","","0.4","","22","","3","","","","101.02","","","","","","NA"
"-73.58","45.50","MCTAVISH","7024745","2018-09-29 03:00","2018","09","29","03:00","11.1","","9.4","","89","","0.3","","18","","3","","","","100.92","","","","","","NA"
"-73.58","45.50","MCTAVISH","7024745","2018-09-29 04:00","2018","09","29","04:00","10.9","","8.8","","87","","0.0","","20","","5","","","","101.04","","","","","","NA"
"-73.58","45.50","MCTAVISH","7024745","2018-09-29 05:00","2018","09","29","05:00","9.8","","7.9","","88","","0.0","","28","","2","","","","101.09","","","","","","NA"
"-73.58","45.50","MCTAVISH","7024745","2018-09-29 06:00","2018","09","29","06:00","10.2","","7.9","","85","","0.2","","17","","3","","","","101.14","","","","","","NA"
"-73.58","45.50","MCTAVISH","7024745","2018-09-29 07:00","2018","09","29","07:00","10.9","","7.8","","81","","0.0","","19","","8","","","","101.18","","","","","","NA"
"-73.58","45.50","MCTAVISH","7024745","2018-09-29 08:00","2018","09","29","08:00","12.3","","8.9","","80","","0.0","","25","","5","","","","101.25","","","","","","NA"
"-73.58","45.50","MCTAVISH","7024745","2018-09-29 09:00","2018","09","29","09:00","13.0","","8.9","","76","","0.0","","27","","5","","","","101.29","","","","","","NA"
"-73.58","45.50","MCTAVISH","7024745","2018-09-29 10:00","2018","09","29","10:00","14.2","","8.7","","70","","0.0","","28","","5","","","","101.27","","","","","","NA"
"-73.58","45.50","MCTAVISH","7024745","2018-09-29 11:00","2018","09","29","11:00","14.6","","8.2","","66","","0.0","","30","","7","","","","101.24","","","","","","NA"
"-73.58","45.50","MCTAVISH","7024745","2018-09-29 12:00","2018","09","29","12:00","15.7","","6.8","","55","","0.0","","22","","8","","","","101.24","","","","","","NA"
"-73.58","45.50","MCTAVISH","7024745","2018-09-29 13:00","2018","09","29","13:00","15.6","","6.8","","55","","0.0","","23","","8","","","","101.20","","","","","","NA"
"-73.58","45.50","MCTAVISH","7024745","2018-09-29 14:00","2018","09","29","14:00","14.7","","7.1","","60","","0.0","","23","","7","","","","101.19","","","","","","NA"
"-73.58","45.50","MCTAVISH","7024745","2018-09-29 15:00","2018","09","29","15:00","15.1","","9.2","","68","","0.0","","27","","4","","","","101.20","","","","","","NA"
"-73.58","45.50","MCTAVISH","7024745","2018-09-29 16:00","2018","09","29","16:00","14.7","","8.5","","66","","0.0","","30","","3","","","","101.23","","","","","","NA"
"-73.58","45.50","MCTAVISH","7024745","2018-09-29 17:00","2018","09","29","17:00","14.0","","6.5","","61","","0.0","","21","","3","","","","101.25","","","","","","NA"
"-73.58","45.50","MCTAVISH","7024745","2018-09-29 18:00","2018","09","29","18:00","13.8","","7.2","","64","","0.0","","26","","1","","","","101.30","","","","","","NA"
"-73.58","45.50","MCTAVISH","7024745","2018-09-29 19:00","2018","09","29","19:00","12.7","","7.7","","72","","0.0","","31","","5","","","","101.34","","","","","","NA"
"-73.58","45.50","MCTAVISH","7024745","2018-09-29 20:00","2018","09","29","20:00","12.3","","8.3","","77","","0.0","","22","","2","","","","101.37","","","","","","NA"
"-73.58","45.50","MCTAVISH","7024745","2018-09-29 21:00","2018","09","29","21:00","12.0","","9.0","","82","","0.0","","22","","1","","","","101.41","","","","","","NA"
"-73.58","45.50","MCTAVISH","7024745","2018-09-29 22:00","2018","09","29","22:00","11.7","","7.2","","74","","0.3","","32","","5","","","","101.48","","","","","","NA"
"-73.58","45.50","MCTAVISH","7024745","2018-09-29 23:00","2018","09","29","23:00","11.1","","7.5","","78","","0.0","","30","","4","","","","101.51","","","","","","NA"
"-73.58","45.50","MCTAVISH","7024745","2018-09-30 00:00","2018","09","30","00:00","10.9","","7.4","","79","","0.0","","27","","3","","","","101.50","","","","","","NA"
"-73.58","45.50","MCTAVISH","7024745","2018-09-30 01:00","2018","09","30","01:00","11.1","","7.5","","78","","0.0","","29","","4","","","","101.51","","","","","","NA"
"-73.58","45.50","MCTAVISH","7024745","2018-09-30 02:00","2018","09","30","02:00","10.4","","7.2","","80","","0.0","","31","","5","","","","101.52","","","","","","NA"
"-73.58","45.50","MCTAVISH","7024745","2018-09-30 03:00","2018","09","30","03:00","10.5","","4.2","","65","","0.0","","31","","5","","","","101.53","","","","","","NA"
"-73.58","45.50","MCTAVISH","7024745","2018-09-30 04:00","2018","09","30","04:00","10.1","","8.1","","88","","0.0","","29","","4","","","","101.56","","","","","","NA"
"-73.58","45.50","MCTAVISH","7024745","2018-09-30 05:00","2018","09","30","05:00","9.8","","7.9","","88","","0.0","","29","","1","","","","101.64","","","","","","NA"
"-73.58","45.50","MCTAVISH","7024745","2018-09-30 06:00","2018","09","30","06:00","9.2","","6.7","","84","","0.0","","19","","2","","","","101.67","","","","","","NA"
"-73.58","45.50","MCTAVISH","7024745","2018-09-30 07:00","2018","09","30","07:00","9.3","","6.1","","81","","0.0","","27","","3","","","","101.71","","","","","","NA"
"-73.58","45.50","MCTAVISH","7024745","2018-09-30 08:00","2018","09","30","08:00","9.8","","6.6","","81","","0.0","","20","","2","","","","101.68","","","","","","NA"
"-73.58","45.50","MCTAVISH","7024745","2018-09-30 09:00","2018","09","30","09:00","9.9","","6.0","","77","","0.0","","22","","6","","","","101.71","","","","","","NA"
"-73.58","45.50","MCTAVISH","7024745","2018-09-30 10:00","2018","09","30","10:00","10.2","","6.3","","77","","0.0","","24","","4","","","","101.74","","","","","","NA"
"-73.58","45.50","MCTAVISH","7024745","2018-09-30 11:00","2018","09","30","11:00","10.3","","5.1","","70","","0.0","","22","","4","","","","101.70","","","","","","NA"
"-73.58","45.50","MCTAVISH","7024745","2018-09-30 12:00","2018","09","30","12:00","10.4","","4.5","","67","","0.0","","22","","8","","","","101.72","","","","","","NA"
"-73.58","45.50","MCTAVISH","7024745","2018-09-30 13:00","2018","09","30","13:00","10.8","","4.4","","65","","0.0","","23","","6","","","","101.66","","","","","","NA"
"-73.58","45.50","MCTAVISH","7024745","2018-09-30 14:00","2018","09","30","14:00","10.9","","3.7","","61","","0.0","","21","","3","","","","101.68","","","","","","NA"
"-73.58","45.50","MCTAVISH","7024745","2018-09-30 15:00","2018","09","30","15:00","11.7","","4.0","","59","","0.0","","21","","5","","","","101.64","","","","","","NA"
"-73.58","45.50","MCTAVISH","7024745","2018-09-30 16:00","2018","09","30","16:00","11.4","","3.5","","58","","0.0","","32","","3","","","","101.62","","","","","","NA"
"-73.58","45.50","MCTAVISH","7024745","2018-09-30 17:00","2018","09","30","17:00","10.9","","3.8","","61","","0.0","","25","","2","","","","101.62","","","","","","NA"
"-73.58","45.50","MCTAVISH","7024745","2018-09-30 18:00","2018","09","30","18:00","10.4","","3.8","","64","","0.0","","35","","5","","","","101.62","","","","","","NA"
"-73.58","45.50","MCTAVISH","7024745","2018-09-30 19:00","2018","09","30","19:00","10.1","","4.6","","69","","0.0","","32","","2","","","","101.62","","","","","","NA"
"-73.58","45.50","MCTAVISH","7024745","2018-09-30 20:00","2018","09","30","20:00","9.7","","4.6","","71","","0.0","","33","","5","","","","101.64","","","","","","NA"
"-73.58","45.50","MCTAVISH","7024745","2018-09-30 21:00","2018","09","30","21:00","8.2","","6.6","","89","","0.0","","35","","8","","","","101.69","","","","","","NA"
"-73.58","45.50","MCTAVISH","7024745","2018-09-30 22:00","2018","09","30","22:00","8.2","","7.1","","93","","0.0","","35","","8","","","","101.71","","","","","","NA"
"-73.58","45.50","MCTAVISH","7024745","2018-09-30 23:00","2018","09","30","23:00","8.2","","6.5","","89","","0.2","","32","","5","","","","101.73","","","","","","NA"
