"Longitude (x)","Latitude (y)","Station Name","Climate ID","Date/Time (LST)","Year","Month","Day","Time (LST)","Temp (°C)","Temp Flag","Dew Point Temp (°C)","Dew Point Temp Flag","Rel Hum (%)","Rel Hum Flag","Precip. Amount (mm)","Precip. Amount Flag","Wind Dir (10s deg)","Wind Dir Flag","Wind Spd (km/h)","Wind Spd Flag","Visibility (km)","Visibility Flag","Stn Press (kPa)","Stn Press Flag","Hmdx","Hmdx Flag","Wind Chill","Wind Chill Flag","Weather"
"-73.58","45.50","MCTAVISH","7024745","2019-02-01 00:00","2019","02","01","00:00","-15.1","","-18.3","","77","","0.0","","21","","8","","","","101.19","","","","-20","","NA"
"-73.58","45.50","MCTAVISH","7024745","2019-02-01 01:00","2019","02","01","01:00","-15.3","","-19.4","","70","","0.0","","21","","8","","","","101.23","","","","-21","","NA"
"-73.58","45.50","MCTAVISH","7024745","2019-02-01 02:00","2019","02","01","02:00","-15.5","","-21.4","","61","","0.0","","19","","7","","","","101.26","","","","-20","","NA"
"-73.58","45.50","MCTAVISH","7024745","2019-02-01 03:00","2019","02","01","03:00","-15.7","","-21.7","","60","","0.0","","20","","9","","","","101.29","","","","-22","","NA"
"-73.58","45.50","MCTAVISH","7024745","2019-02-01 04:00","2019","02","01","04:00","-16.2","","-21.9","","62","","0.0","","20","","8","","","","101.31","","","","-22","","NA"
"-73.58","45.50","MCTAVISH","7024745","2019-02-01 05:00","2019","02","01","05:00","-16.5","","-22.1","","62","","0.0","","19","","9","","","","101.36","","","","-23","","NA"
"-73.58","45.50","MCTAVISH","7024745","2019-02-01 06:00","2019","02","01","06:00","-16.8","","-22.1","","64","","0.0","","21","","11","","","","101.38","","","","-24","","NA"
"-73.58","45.50","MCTAVISH","7024745","2019-02-01 07:00","2019","02","01","07:00","-16.9","","-22.1","","64","","0.0","","19","","8","","","","101.47","","","","-23","","NA"
"-73.58","45.50","MCTAVISH","7024745","2019-02-01 08:00","2019","02","01","08:00","-16.8","","-22.1","","64","","0.0","","20","","10","","","","101.54","","","","-23","","NA"
"-73.58","45.50","MCTAVISH","7024745","2019-02-01 09:00","2019","02","01","09:00","-16.0","","-22.6","","57","","0.0","","20","","9","","","","101.58","","","","-22","","NA"
"-73.58","45.50","MCTAVISH","7024745","2019-02-01 10:00","2019","02","01","10:00","-15.3","","-22.7","","53","","0.0","","23","","7","","","","101.62","","","","-20","","NA"
"-73.58","45.50","MCTAVISH","7024745","2019-02-01 11:00","2019","02","01","11:00","-14.2","","-23.1","","47","","0.0","","22","","8","","","","101.63","","","","-19","","NA"
"-73.58","45.50","MCTAVISH","7024745","2019-02-01 12:00","2019","02","01","12:00","-13.6","","-23.9","","42","","0.0","","24","","7","","","","101.57","","","","-18","","NA"
"-73.58","45.50","MCTAVISH","7024745","2019-02-01 13:00","2019","02","01","13:00","-13.0","","-23.1","","43","","0.0","","20","","10","","","","101.52","","","","-19","","NA"
"-73.58","45.50","MCTAVISH","7024745","2019-02-01 14:00","2019","02","01","14:00","-12.3","","-23.1","","40","","0.0","","20","","7","","","","101.51","","","","-17","","NA"
"-73.58","45.50","MCTAVISH","7024745","2019-02-01 15:00","2019","02","01","15:00","-12.1","","-23.5","","38","","0.0","","21","","8","","","","101.52","","","","-17","","NA"
"-73.58","45.50","MCTAVISH","7024745","2019-02-01 16:00","2019","02","01","16:00","-12.4","","-24.3","","37","","0.0","","20","","8","","","","101.55","","","","-17","","NA"
"-73.58","45.50","MCTAVISH","7024745","2019-02-01 17:00","2019","02","01","17:00","-12.7","","-24.0","","38","","0.0","","20","","7","","","","101.58","","","","-17","","NA"
"-73.58","45.50","MCTAVISH","7024745","2019-02-01 18:00","2019","02","01","18:00","-12.7","","-24.0","","38","","0.0","","20","","7","","","","101.62","","","","-17","","NA"
"-73.58","45.50","MCTAVISH","7024745","2019-02-01 19:00","2019","02","01","19:00","-12.8","","-23.3","","41","","0.0","","18","","6","","","","101.64","","","","-17","","NA"
"-73.58","45.50","MCTAVISH","7024745","2019-02-01 20:00","2019","02","01","20:00","-12.6","","-22.9","","42","","0.0","","19","","7","","","","101.64","","","","-17","","NA"
"-73.58","45.50","MCTAVISH","7024745","2019-02-01 21:00","2019","02","01","21:00","-12.5","","-22.5","","43","","0.0","","19","","8","","","","101.63","","","","-17","","NA"
"-73.58","45.50","MCTAVISH","7024745","2019-02-01 22:00","2019","02","01","22:00","-12.7","","-19.5","","57","","0.0","","20","","8","","","","101.63","","","","-18","","NA"
"-73.58","45.50","MCTAVISH","7024745","2019-02-01 23:00","2019","02","01","23:00","-13.1","","-18.8","","62","","0.0","","19","","7","","","","101.60","","","","-18","","NA"
"-73.58","45.50","MCTAVISH","7024745","2019-02-02 00:00","2019","02","02","00:00","-13.6","","-18.9","","65","","0.0","","19","","6","","","","101.60","","","","-18","","NA"
"-73.58","45.50","MCTAVISH","7024745","2019-02-02 01:00","2019","02","02","01:00","-14.1","","-19.0","","67","","0.0","","19","","6","","","","101.55","","","","-18","","NA"
"-73.58","45.50","MCTAVISH","7024745","2019-02-02 02:00","2019","02","02","02:00","-14.3","","-19.0","","67","","0.0","","20","","9","","","","101.54","","","","-20","","NA"
"-73.58","45.50","MCTAVISH","7024745","2019-02-02 03:00","2019","02","02","03:00","-13.7","","-17.7","","72","","0.0","","20","","7","","","","101.54","","","","-18","","NA"
"-73.58","45.50","MCTAVISH","7024745","2019-02-02 04:00","2019","02","02","04:00","-13.5","","-16.8","","76","","0.0","","18","","5","","","","101.46","","","","-17","","NA"
"-73.58","45.50","MCTAVISH","7024745","2019-02-02 05:00","2019","02","02","05:00","-13.3","","-17.6","","70","","0.0","","20","","6","","","","101.35","","","","-17","","NA"
"-73.58","45.50","MCTAVISH","7024745","2019-02-02 06:00","2019","02","02","06:00","-12.7","","-17.4","","68","","0.0","","19","","7","","","","101.24","","","","-17","","NA"
"-73.58","45.50","MCTAVISH","7024745","2019-02-02 07:00","2019","02","02","07:00","-12.0","","-16.5","","69","","0.0","","19","","7","","","","101.16","","","","-16","","NA"
"-73.58","45.50","MCTAVISH","7024745","2019-02-02 08:00","2019","02","02","08:00","-11.2","","-15.3","","71","","0.0","","19","","9","","","","101.08","","","","-16","","NA"
"-73.58","45.50","MCTAVISH","7024745","2019-02-02 09:00","2019","02","02","09:00","-10.8","","-14.0","","77","","0.0","","19","","8","","","","100.93","","","","-15","","NA"
"-73.58","45.50","MCTAVISH","7024745","2019-02-02 10:00","2019","02","02","10:00","-9.7","","-13.2","","76","","0.0","","20","","12","","","","100.83","","","","-16","","NA"
"-73.58","45.50","MCTAVISH","7024745","2019-02-02 11:00","2019","02","02","11:00","-9.3","","-12.0","","80","","0.2","","20","","12","","","","100.68","","","","-15","","NA"
"-73.58","45.50","MCTAVISH","7024745","2019-02-02 12:00","2019","02","02","12:00","-8.9","","-11.3","","83","","0.3","","20","","9","","","","100.51","","","","-14","","NA"
"-73.58","45.50","MCTAVISH","7024745","2019-02-02 13:00","2019","02","02","13:00","-8.4","","-10.3","","86","","1.1","","21","","10","","","","100.41","","","","-13","","NA"
"-73.58","45.50","MCTAVISH","7024745","2019-02-02 14:00","2019","02","02","14:00","-7.8","","-9.9","","85","","0.8","","20","","6","","","","100.33","","","","-11","","NA"
"-73.58","45.50","MCTAVISH","7024745","2019-02-02 15:00","2019","02","02","15:00","-7.8","","-9.8","","86","","0.6","","20","","9","","","","100.32","","","","-12","","NA"
"-73.58","45.50","MCTAVISH","7024745","2019-02-02 16:00","2019","02","02","16:00","-7.2","","-9.2","","86","","0.5","","19","","9","","","","100.33","","","","-12","","NA"
"-73.58","45.50","MCTAVISH","7024745","2019-02-02 17:00","2019","02","02","17:00","-6.8","","-8.7","","86","","0.2","","19","","6","","","","100.37","","","","-10","","NA"
"-73.58","45.50","MCTAVISH","7024745","2019-02-02 18:00","2019","02","02","18:00","-6.7","","-8.8","","85","","0.0","","22","","3","","","","100.45","","","","-8","","NA"
"-73.58","45.50","MCTAVISH","7024745","2019-02-02 19:00","2019","02","02","19:00","-7.1","","-9.2","","85","","0.0","","23","","5","","","","100.54","","","","-10","","NA"
"-73.58","45.50","MCTAVISH","7024745","2019-02-02 20:00","2019","02","02","20:00","-7.6","","-9.9","","84","","0.0","","24","","4","","","","100.67","","","","-10","","NA"
"-73.58","45.50","MCTAVISH","7024745","2019-02-02 21:00","2019","02","02","21:00","-7.8","","-10.2","","83","","0.0","","22","","2","","","","100.74","","","","-9","","NA"
"-73.58","45.50","MCTAVISH","7024745","2019-02-02 22:00","2019","02","02","22:00","-8.1","","-10.5","","83","","0.0","","34","","3","","","","100.82","","","","-10","","NA"
"-73.58","45.50","MCTAVISH","7024745","2019-02-02 23:00","2019","02","02","23:00","-8.6","","-11.0","","83","","0.0","","30","","9","","","","100.85","","","","-13","","NA"
"-73.58","45.50","MCTAVISH","7024745","2019-02-03 00:00","2019","02","03","00:00","-8.6","","-12.2","","76","","0.0","","35","","7","","","","100.91","","","","-12","","NA"
"-73.58","45.50","MCTAVISH","7024745","2019-02-03 01:00","2019","02","03","01:00","-8.2","","-11.9","","75","","0.0","","35","","9","","","","100.95","","","","-13","","NA"
"-73.58","45.50","MCTAVISH","7024745","2019-02-03 02:00","2019","02","03","02:00","-8.6","","-12.4","","74","","0.0","","1","","7","","","","100.97","","","","-12","","NA"
"-73.58","45.50","MCTAVISH","7024745","2019-02-03 03:00","2019","02","03","03:00","-9.4","","-12.3","","79","","0.0","","2","","7","","","","101.08","","","","-13","","NA"
"-73.58","45.50","MCTAVISH","7024745","2019-02-03 04:00","2019","02","03","04:00","-12.0","","-16.2","","71","","0.0","","5","","6","","","","101.12","","","","-16","","NA"
"-73.58","45.50","MCTAVISH","7024745","2019-02-03 05:00","2019","02","03","05:00","-13.0","","-17.5","","69","","0.0","","5","","7","","","","101.18","","","","-18","","NA"
"-73.58","45.50","MCTAVISH","7024745","2019-02-03 06:00","2019","02","03","06:00","-13.3","","-17.2","","72","","0.0","","3","","11","","","","101.23","","","","-20","","NA"
"-73.58","45.50","MCTAVISH","7024745","2019-02-03 07:00","2019","02","03","07:00","-13.5","","-18.0","","69","","0.0","","4","","9","","","","101.30","","","","-19","","NA"
"-73.58","45.50","MCTAVISH","7024745","2019-02-03 08:00","2019","02","03","08:00","-13.9","","-17.9","","72","","0.0","","3","","9","","","","101.33","","","","-20","","NA"
"-73.58","45.50","MCTAVISH","7024745","2019-02-03 09:00","2019","02","03","09:00","-13.6","","-17.7","","71","","0.0","","3","","10","","","","101.30","","","","-20","","NA"
"-73.58","45.50","MCTAVISH","7024745","2019-02-03 10:00","2019","02","03","10:00","-13.3","","-19.7","","58","","0.0","","4","","9","","","","101.27","","","","-19","","NA"
"-73.58","45.50","MCTAVISH","7024745","2019-02-03 11:00","2019","02","03","11:00","-13.0","","-18.7","","62","","0.0","","5","","9","","","","101.27","","","","-18","","NA"
"-73.58","45.50","MCTAVISH","7024745","2019-02-03 12:00","2019","02","03","12:00","-13.0","","-18.8","","62","","0.0","","3","","7","","","","101.13","","","","-18","","NA"
"-73.58","45.50","MCTAVISH","7024745","2019-02-03 13:00","2019","02","03","13:00","-12.9","","-17.8","","67","","0.0","","2","","10","","","","101.03","","","","-19","","NA"
"-73.58","45.50","MCTAVISH","7024745","2019-02-03 14:00","2019","02","03","14:00","-13.1","","-16.1","","79","","0.0","","3","","9","","","","100.87","","","","-19","","NA"
"-73.58","45.50","MCTAVISH","7024745","2019-02-03 15:00","2019","02","03","15:00","-12.9","","-15.2","","83","","0.5","","2","","11","","","","100.82","","","","-19","","NA"
"-73.58","45.50","MCTAVISH","7024745","2019-02-03 16:00","2019","02","03","16:00","-12.8","","-15.0","","84","","0.3","","2","","10","","","","100.79","","","","-19","","NA"
"-73.58","45.50","MCTAVISH","7024745","2019-02-03 17:00","2019","02","03","17:00","-12.6","","-14.7","","84","","0.3","","1","","14","","","","100.71","","","","-20","","NA"
"-73.58","45.50","MCTAVISH","7024745","2019-02-03 18:00","2019","02","03","18:00","-12.3","","-14.1","","87","","0.0","","1","","15","","","","100.66","","","","-20","","NA"
"-73.58","45.50","MCTAVISH","7024745","2019-02-03 19:00","2019","02","03","19:00","-12.1","","-13.5","","89","","0.2","","1","","13","","","","100.61","","","","-19","","NA"
"-73.58","45.50","MCTAVISH","7024745","2019-02-03 20:00","2019","02","03","20:00","-11.2","","-12.5","","90","","0.2","","1","","11","","","","100.57","","","","-17","","NA"
"-73.58","45.50","MCTAVISH","7024745","2019-02-03 21:00","2019","02","03","21:00","-10.5","","-11.7","","91","","0.0","","1","","8","","","","100.52","","","","-15","","NA"
"-73.58","45.50","MCTAVISH","7024745","2019-02-03 22:00","2019","02","03","22:00","-10.6","","-11.8","","91","","0.0","","2","","12","","","","100.50","","","","-17","","NA"
"-73.58","45.50","MCTAVISH","7024745","2019-02-03 23:00","2019","02","03","23:00","-10.9","","-12.2","","90","","0.0","","2","","9","","","","100.43","","","","-16","","NA"
"-73.58","45.50","MCTAVISH","7024745","2019-02-04 00:00","2019","02","04","00:00","-10.9","","-12.2","","90","","0.0","","2","","8","","","","100.42","","","","-16","","NA"
"-73.58","45.50","MCTAVISH","7024745","2019-02-04 01:00","2019","02","04","01:00","-10.7","","-12.0","","90","","0.0","","3","","9","","","","100.41","","","","-16","","NA"
"-73.58","45.50","MCTAVISH","7024745","2019-02-04 02:00","2019","02","04","02:00","-9.3","","-10.5","","91","","0.2","","3","","4","","","","100.41","","","","-12","","NA"
"-73.58","45.50","MCTAVISH","7024745","2019-02-04 03:00","2019","02","04","03:00","-8.8","","-9.9","","92","","0.2","","","","","M","","","100.41","","","","","","NA"
"-73.58","45.50","MCTAVISH","7024745","2019-02-04 04:00","2019","02","04","04:00","-7.9","","-8.9","","92","","0.2","","","","","M","","","100.41","","","","","","NA"
"-73.58","45.50","MCTAVISH","7024745","2019-02-04 05:00","2019","02","04","05:00","-7.1","","-8.0","","93","","0.0","","","","","M","","","100.46","","","","","","NA"
"-73.58","45.50","MCTAVISH","7024745","2019-02-04 06:00","2019","02","04","06:00","-6.2","","-7.1","","94","","0.2","","","","","M","","","100.50","","","","","","NA"
"-73.58","45.50","MCTAVISH","7024745","2019-02-04 07:00","2019","02","04","07:00","-5.9","","-6.7","","94","","0.0","","","","","M","","","100.56","","","","","","NA"
"-73.58","45.50","MCTAVISH","7024745","2019-02-04 08:00","2019","02","04","08:00","-5.6","","-6.4","","94","","0.0","","","","","M","","","100.65","","","","","","NA"
"-73.58","45.50","MCTAVISH","7024745","2019-02-04 09:00","2019","02","04","09:00","-5.1","","-5.8","","95","","0.0","","","","","M","","","100.66","","","","","","NA"
"-73.58","45.50","MCTAVISH","7024745","2019-02-04 10:00","2019","02","04","10:00","-4.8","","-5.5","","95","","0.0","","","","","M","","","100.70","","","","","","NA"
"-73.58","45.50","MCTAVISH","7024745","2019-02-04 11:00","2019","02","04","11:00","-5.6","","-6.4","","94","","0.0","","","","","M","","","100.72","","","","","","NA"
"-73.58","45.50","MCTAVISH","7024745","2019-02-04 12:00","2019","02","04","12:00","-5.7","","-6.5","","94","","0.0","","","","","M","","","100.68","","","","","","NA"
"-73.58","45.50","MCTAVISH","7024745","2019-02-04 13:00","2019","02","04","13:00","-5.5","","-6.3","","94","","0.0","","","","","M","","","100.64","","","","","","NA"
"-73.58","45.50","MCTAVISH","7024745","2019-02-04 14:00","2019","02","04","14:00","-4.7","","-5.3","","95","","0.2","","","","","M","","","100.62","","","","","","NA"
"-73.58","45.50","MCTAVISH","7024745","2019-02-04 15:00","2019","02","04","15:00","-4.5","","-5.2","","95","","0.0","","","","","M","","","100.62","","","","","","NA"
"-73.58","45.50","MCTAVISH","7024745","2019-02-04 16:00","2019","02","04","16:00","-3.9","","-4.5","","96","","0.0","","","","","M","","","100.57","","","","","","NA"
"-73.58","45.50","MCTAVISH","7024745","2019-02-04 17:00","2019","02","04","17:00","-3.7","","-4.3","","96","","0.0","","","","","M","","","100.56","","","","","","NA"
"-73.58","45.50","MCTAVISH","7024745","2019-02-04 18:00","2019","02","04","18:00","-3.9","","-4.5","","96","","0.0","","","","","M","","","100.48","","","","","","NA"
"-73.58","45.50","MCTAVISH","7024745","2019-02-04 19:00","2019","02","04","19:00","-3.7","","-4.2","","96","","0.0","","","","","M","","","100.34","","","","","","NA"
"-73.58","45.50","MCTAVISH","7024745","2019-02-04 20:00","2019","02","04","20:00","-3.4","","-3.9","","96","","0.0","","","","","M","","","100.26","","","","","","NA"
"-73.58","45.50","MCTAVISH","7024745","2019-02-04 21:00","2019","02","04","21:00","-3.3","","-3.8","","96","","0.0","","","","","M","","","100.13","","","","","","NA"
"-73.58","45.50","MCTAVISH","7024745","2019-02-04 22:00","2019","02","04","22:00","-3.9","","-4.4","","96","","0.0","","","","","M","","","100.02","","","","","","NA"
"-73.58","45.50","MCTAVISH","7024745","2019-02-04 23:00","2019","02","04","23:00","-3.7","","-4.2","","96","","0.0","","","","","M","","","99.92","","","","","","NA"
"-73.58","45.50","MCTAVISH","7024745","2019-02-05 00:00","2019","02","05","00:00","-3.1","","-3.5","","97","","0.0","","","","","M","","","99.83","","","","","","NA"
"-73.58","45.50","MCTAVISH","7024745","2019-02-05 01:00","2019","02","05","01:00","-2.6","","-3.0","","97","","0.2","","","","","M","","","99.76","","","","","","NA"
"-73.58","45.50","MCTAVISH","7024745","2019-02-05 02:00","2019","02","05","02:00","-1.3","","-1.6","","98","","1.6","","","","","M","","","99.71","","","","","","NA"
"-73.58","45.50","MCTAVISH","7024745","2019-02-05 03:00","2019","02","05","03:00","1.9","","1.6","","98","","3.3","","","","","M","","","99.62","","","","","","NA"
"-73.58","45.50","MCTAVISH","7024745","2019-02-05 04:00","2019","02","05","04:00","3.5","","3.0","","97","","2.8","","21","","7","","","","99.57","","","","","","NA"
"-73.58","45.50","MCTAVISH","7024745","2019-02-05 05:00","2019","02","05","05:00","4.3","","3.7","","96","","0.5","","17","","7","","","","99.64","","","","","","NA"
"-73.58","45.50","MCTAVISH","7024745","2019-02-05 06:00","2019","02","05","06:00","4.5","","3.6","","94","","0.3","","17","","7","","","","99.64","","","","","","NA"
"-73.58","45.50","MCTAVISH","7024745","2019-02-05 07:00","2019","02","05","07:00","5.2","","4.8","","97","","0.0","","17","","7","","","","99.67","","","","","","NA"
"-73.58","45.50","MCTAVISH","7024745","2019-02-05 08:00","2019","02","05","08:00","6.3","","5.7","","97","","0.0","","19","","11","","","","99.71","","","","","","NA"
"-73.58","45.50","MCTAVISH","7024745","2019-02-05 09:00","2019","02","05","09:00","6.4","","5.6","","95","","0.0","","19","","7","","","","99.79","","","","","","NA"
"-73.58","45.50","MCTAVISH","7024745","2019-02-05 10:00","2019","02","05","10:00","6.4","","4.6","","89","","0.2","","20","","10","","","","99.82","","","","","","NA"
"-73.58","45.50","MCTAVISH","7024745","2019-02-05 11:00","2019","02","05","11:00","6.4","","2.6","","76","","0.0","","23","","9","","","","99.89","","","","","","NA"
"-73.58","45.50","MCTAVISH","7024745","2019-02-05 12:00","2019","02","05","12:00","4.4","","0.4","","75","","0.0","","23","","8","","","","100.05","","","","","","NA"
"-73.58","45.50","MCTAVISH","7024745","2019-02-05 13:00","2019","02","05","13:00","3.5","","-2.0","","68","","0.0","","30","","9","","","","100.20","","","","","","NA"
"-73.58","45.50","MCTAVISH","7024745","2019-02-05 14:00","2019","02","05","14:00","2.7","","-3.9","","62","","0.0","","24","","5","","","","100.37","","","","","","NA"
"-73.58","45.50","MCTAVISH","7024745","2019-02-05 15:00","2019","02","05","15:00","2.4","","-4.3","","61","","0.0","","22","","5","","","","100.55","","","","","","NA"
"-73.58","45.50","MCTAVISH","7024745","2019-02-05 16:00","2019","02","05","16:00","-1.2","","-7.5","","62","","0.0","","1","","14","","","","100.82","","","","-6","","NA"
"-73.58","45.50","MCTAVISH","7024745","2019-02-05 17:00","2019","02","05","17:00","-3.1","","-9.6","","61","","0.0","","35","","11","","","","101.00","","","","-7","","NA"
"-73.58","45.50","MCTAVISH","7024745","2019-02-05 18:00","2019","02","05","18:00","-4.5","","-10.8","","62","","0.0","","35","","9","","","","101.19","","","","-8","","NA"
"-73.58","45.50","MCTAVISH","7024745","2019-02-05 19:00","2019","02","05","19:00","-5.7","","-11.6","","63","","0.0","","35","","8","","","","101.36","","","","-9","","NA"
"-73.58","45.50","MCTAVISH","7024745","2019-02-05 20:00","2019","02","05","20:00","-6.7","","-12.2","","65","","0.0","","34","","6","","","","101.47","","","","-10","","NA"
"-73.58","45.50","MCTAVISH","7024745","2019-02-05 21:00","2019","02","05","21:00","-7.0","","-12.0","","68","","0.0","","34","","9","","","","101.54","","","","-11","","NA"
"-73.58","45.50","MCTAVISH","7024745","2019-02-05 22:00","2019","02","05","22:00","-7.3","","-12.5","","66","","0.0","","1","","12","","","","101.57","","","","-13","","NA"
"-73.58","45.50","MCTAVISH","7024745","2019-02-05 23:00","2019","02","05","23:00","-7.9","","-13.4","","65","","0.0","","2","","10","","","","101.60","","","","-13","","NA"
"-73.58","45.50","MCTAVISH","7024745","2019-02-06 00:00","2019","02","06","00:00","-8.4","","-13.7","","66","","0.0","","2","","8","","","","101.70","","","","-13","","NA"
"-73.58","45.50","MCTAVISH","7024745","2019-02-06 01:00","2019","02","06","01:00","-9.0","","-14.0","","67","","0.0","","1","","10","","","","101.73","","","","-14","","NA"
"-73.58","45.50","MCTAVISH","7024745","2019-02-06 02:00","2019","02","06","02:00","-9.5","","-13.8","","71","","0.0","","4","","6","","","","101.76","","","","-13","","NA"
"-73.58","45.50","MCTAVISH","7024745","2019-02-06 03:00","2019","02","06","03:00","-9.9","","-14.5","","69","","0.0","","1","","9","","","","101.82","","","","-15","","NA"
"-73.58","45.50","MCTAVISH","7024745","2019-02-06 04:00","2019","02","06","04:00","-10.3","","-15.0","","69","","0.0","","3","","7","","","","101.75","","","","-14","","NA"
"-73.58","45.50","MCTAVISH","7024745","2019-02-06 05:00","2019","02","06","05:00","-10.3","","-14.9","","69","","0.0","","5","","6","","","","101.80","","","","-14","","NA"
"-73.58","45.50","MCTAVISH","7024745","2019-02-06 06:00","2019","02","06","06:00","-10.7","","-15.3","","69","","0.0","","1","","11","","","","101.88","","","","-16","","NA"
"-73.58","45.50","MCTAVISH","7024745","2019-02-06 07:00","2019","02","06","07:00","-10.8","","-15.1","","70","","0.0","","7","","9","","","","101.88","","","","-16","","NA"
"-73.58","45.50","MCTAVISH","7024745","2019-02-06 08:00","2019","02","06","08:00","-11.4","","-15.7","","71","","0.0","","6","","8","","","","101.84","","","","-16","","NA"
"-73.58","45.50","MCTAVISH","7024745","2019-02-06 09:00","2019","02","06","09:00","-11.4","","-16.0","","69","","0.0","","3","","9","","","","101.83","","","","-17","","NA"
"-73.58","45.50","MCTAVISH","7024745","2019-02-06 10:00","2019","02","06","10:00","-10.7","","-15.4","","69","","0.0","","4","","8","","","","101.78","","","","-15","","NA"
"-73.58","45.50","MCTAVISH","7024745","2019-02-06 11:00","2019","02","06","11:00","-10.6","","-14.9","","70","","0.0","","3","","10","","","","101.75","","","","-16","","NA"
"-73.58","45.50","MCTAVISH","7024745","2019-02-06 12:00","2019","02","06","12:00","-10.8","","-15.2","","70","","0.0","","3","","12","","","","101.61","","","","-17","","NA"
"-73.58","45.50","MCTAVISH","7024745","2019-02-06 13:00","2019","02","06","13:00","-10.5","","-13.4","","79","","1.0","","3","","8","","","","101.56","","","","-15","","NA"
"-73.58","45.50","MCTAVISH","7024745","2019-02-06 14:00","2019","02","06","14:00","-10.3","","-13.2","","79","","0.4","","3","","11","","","","101.39","","","","-16","","NA"
"-73.58","45.50","MCTAVISH","7024745","2019-02-06 15:00","2019","02","06","15:00","-9.7","","-12.4","","80","","0.0","","3","","9","","","","101.40","","","","-15","","NA"
"-73.58","45.50","MCTAVISH","7024745","2019-02-06 16:00","2019","02","06","16:00","-9.4","","-12.2","","80","","0.0","","4","","12","","","","101.21","","","","-15","","NA"
"-73.58","45.50","MCTAVISH","7024745","2019-02-06 17:00","2019","02","06","17:00","-9.0","","-11.8","","80","","0.0","","4","","11","","","","101.09","","","","-14","","NA"
"-73.58","45.50","MCTAVISH","7024745","2019-02-06 18:00","2019","02","06","18:00","-8.8","","-11.0","","84","","0.3","","3","","11","","","","101.10","","","","-14","","NA"
"-73.58","45.50","MCTAVISH","7024745","2019-02-06 19:00","2019","02","06","19:00","-8.1","","-10.1","","86","","0.6","","1","","12","","","","101.01","","","","-14","","NA"
"-73.58","45.50","MCTAVISH","7024745","2019-02-06 20:00","2019","02","06","20:00","-7.5","","-9.2","","88","","0.2","","3","","11","","","","100.97","","","","-13","","NA"
"-73.58","45.50","MCTAVISH","7024745","2019-02-06 21:00","2019","02","06","21:00","-7.1","","-8.4","","90","","0.4","","3","","9","","","","100.91","","","","-11","","NA"
"-73.58","45.50","MCTAVISH","7024745","2019-02-06 22:00","2019","02","06","22:00","-6.7","","-7.8","","92","","0.8","","1","","14","","","","100.92","","","","-12","","NA"
"-73.58","45.50","MCTAVISH","7024745","2019-02-06 23:00","2019","02","06","23:00","-6.4","","-7.2","","94","","0.0","","2","","11","","","","100.92","","","","-11","","NA"
"-73.58","45.50","MCTAVISH","7024745","2019-02-07 00:00","2019","02","07","00:00","-6.1","","-6.8","","95","","0.0","","3","","9","","","","100.91","","","","-10","","NA"
"-73.58","45.50","MCTAVISH","7024745","2019-02-07 01:00","2019","02","07","01:00","-6.1","","-6.8","","95","","0.0","","1","","9","","","","100.91","","","","-10","","NA"
"-73.58","45.50","MCTAVISH","7024745","2019-02-07 02:00","2019","02","07","02:00","-6.4","","-7.2","","94","","0.0","","1","","9","","","","101.01","","","","-11","","NA"
"-73.58","45.50","MCTAVISH","7024745","2019-02-07 03:00","2019","02","07","03:00","-6.6","","-7.5","","93","","0.0","","1","","10","","","","101.02","","","","-11","","NA"
"-73.58","45.50","MCTAVISH","7024745","2019-02-07 04:00","2019","02","07","04:00","-6.6","","-7.8","","92","","0.0","","1","","10","","","","101.05","","","","-11","","NA"
"-73.58","45.50","MCTAVISH","7024745","2019-02-07 05:00","2019","02","07","05:00","-6.3","","-7.2","","93","","0.0","","2","","8","","","","101.12","","","","-10","","NA"
"-73.58","45.50","MCTAVISH","7024745","2019-02-07 06:00","2019","02","07","06:00","-6.0","","-6.8","","94","","0.0","","2","","6","","","","101.12","","","","-9","","NA"
"-73.58","45.50","MCTAVISH","7024745","2019-02-07 07:00","2019","02","07","07:00","-5.9","","-6.7","","94","","0.0","","1","","7","","","","101.17","","","","-9","","NA"
"-73.58","45.50","MCTAVISH","7024745","2019-02-07 08:00","2019","02","07","08:00","-5.8","","-6.7","","93","","0.0","","1","","9","","","","101.18","","","","-10","","NA"
"-73.58","45.50","MCTAVISH","7024745","2019-02-07 09:00","2019","02","07","09:00","-5.5","","-6.6","","92","","0.0","","1","","7","","","","101.20","","","","-9","","NA"
"-73.58","45.50","MCTAVISH","7024745","2019-02-07 10:00","2019","02","07","10:00","-5.3","","-6.5","","92","","0.0","","3","","8","","","","101.21","","","","-9","","NA"
"-73.58","45.50","MCTAVISH","7024745","2019-02-07 11:00","2019","02","07","11:00","-5.1","","-6.5","","90","","0.0","","2","","8","","","","101.25","","","","-9","","NA"
"-73.58","45.50","MCTAVISH","7024745","2019-02-07 12:00","2019","02","07","12:00","-4.6","","-5.9","","91","","0.0","","3","","6","","","","101.23","","","","-7","","NA"
"-73.58","45.50","MCTAVISH","7024745","2019-02-07 13:00","2019","02","07","13:00","-4.4","","-5.6","","91","","0.0","","4","","6","","","","101.12","","","","-7","","NA"
"-73.58","45.50","MCTAVISH","7024745","2019-02-07 14:00","2019","02","07","14:00","-4.0","","-5.0","","93","","0.0","","3","","4","","","","100.98","","","","-6","","NA"
"-73.58","45.50","MCTAVISH","7024745","2019-02-07 15:00","2019","02","07","15:00","-4.1","","-5.1","","93","","0.0","","4","","8","","","","100.96","","","","-8","","NA"
"-73.58","45.50","MCTAVISH","7024745","2019-02-07 16:00","2019","02","07","16:00","-4.0","","-4.8","","94","","0.0","","1","","10","","","","100.98","","","","-8","","NA"
"-73.58","45.50","MCTAVISH","7024745","2019-02-07 17:00","2019","02","07","17:00","-3.6","","-4.5","","94","","0.0","","2","","9","","","","100.93","","","","-7","","NA"
"-73.58","45.50","MCTAVISH","7024745","2019-02-07 18:00","2019","02","07","18:00","-3.6","","-4.4","","95","","0.0","","3","","8","","","","100.86","","","","-7","","NA"
"-73.58","45.50","MCTAVISH","7024745","2019-02-07 19:00","2019","02","07","19:00","-3.5","","-4.1","","95","","0.0","","3","","6","","","","100.75","","","","-6","","NA"
"-73.58","45.50","MCTAVISH","7024745","2019-02-07 20:00","2019","02","07","20:00","-3.3","","-3.9","","95","","0.0","","2","","7","","","","100.56","","","","-6","","NA"
"-73.58","45.50","MCTAVISH","7024745","2019-02-07 21:00","2019","02","07","21:00","-2.6","","-3.2","","95","","0.0","","2","","6","","","","100.36","","","","-5","","NA"
"-73.58","45.50","MCTAVISH","7024745","2019-02-07 22:00","2019","02","07","22:00","-2.6","","-3.1","","96","","0.0","","2","","5","","","","100.16","","","","-5","","NA"
"-73.58","45.50","MCTAVISH","7024745","2019-02-07 23:00","2019","02","07","23:00","-0.9","","-1.5","","96","","0.2","","10","","5","","","","99.93","","","","-3","","NA"
"-73.58","45.50","MCTAVISH","7024745","2019-02-08 00:00","2019","02","08","00:00","-0.4","","-1.3","","94","","0.0","","3","","4","","","","99.87","","","","-2","","NA"
"-73.58","45.50","MCTAVISH","7024745","2019-02-08 01:00","2019","02","08","01:00","2.1","","1.1","","94","","0.3","","19","","4","","","","99.73","","","","","","NA"
"-73.58","45.50","MCTAVISH","7024745","2019-02-08 02:00","2019","02","08","02:00","3.4","","2.2","","92","","2.0","","19","","7","","","","99.55","","","","","","NA"
"-73.58","45.50","MCTAVISH","7024745","2019-02-08 03:00","2019","02","08","03:00","4.2","","2.3","","88","","0.0","","20","","13","","","","99.41","","","","","","NA"
"-73.58","45.50","MCTAVISH","7024745","2019-02-08 04:00","2019","02","08","04:00","4.4","","2.6","","88","","0.0","","20","","9","","","","99.24","","","","","","NA"
"-73.58","45.50","MCTAVISH","7024745","2019-02-08 05:00","2019","02","08","05:00","4.1","","2.5","","89","","0.0","","20","","10","","","","99.04","","","","","","NA"
"-73.58","45.50","MCTAVISH","7024745","2019-02-08 06:00","2019","02","08","06:00","4.3","","2.6","","89","","0.3","","20","","10","","","","99.10","","","","","","NA"
"-73.58","45.50","MCTAVISH","7024745","2019-02-08 07:00","2019","02","08","07:00","3.8","","2.6","","92","","0.0","","20","","7","","","","99.08","","","","","","NA"
"-73.58","45.50","MCTAVISH","7024745","2019-02-08 08:00","2019","02","08","08:00","6.6","","2.6","","76","","0.0","","20","","14","","","","99.24","","","","","","NA"
"-73.58","45.50","MCTAVISH","7024745","2019-02-08 09:00","2019","02","08","09:00","5.0","","0.6","","73","","0.0","","20","","14","","","","99.32","","","","","","NA"
"-73.58","45.50","MCTAVISH","7024745","2019-02-08 10:00","2019","02","08","10:00","4.6","","-3.7","","55","","0.0","","20","","16","","","","99.46","","","","","","NA"
"-73.58","45.50","MCTAVISH","7024745","2019-02-08 11:00","2019","02","08","11:00","3.7","","-3.1","","61","","0.0","","21","","11","","","","99.54","","","","","","NA"
"-73.58","45.50","MCTAVISH","7024745","2019-02-08 12:00","2019","02","08","12:00","1.9","","-2.2","","74","","0.0","","22","","11","","","","99.58","","","","","","NA"
"-73.58","45.50","MCTAVISH","7024745","2019-02-08 13:00","2019","02","08","13:00","1.4","","-4.5","","65","","0.0","","20","","13","","","","99.62","","","","","","NA"
"-73.58","45.50","MCTAVISH","7024745","2019-02-08 14:00","2019","02","08","14:00","0.1","","-4.2","","73","","0.0","","20","","16","","","","99.71","","","","","","NA"
"-73.58","45.50","MCTAVISH","7024745","2019-02-08 15:00","2019","02","08","15:00","-0.2","","-7.7","","57","","0.0","","22","","13","","","","99.82","","","","-4","","NA"
"-73.58","45.50","MCTAVISH","7024745","2019-02-08 16:00","2019","02","08","16:00","-0.7","","-7.9","","58","","0.0","","21","","11","","","","99.92","","","","-4","","NA"
"-73.58","45.50","MCTAVISH","7024745","2019-02-08 17:00","2019","02","08","17:00","-1.3","","-10.1","","51","","0.0","","21","","9","","","","100.00","","","","-5","","NA"
"-73.58","45.50","MCTAVISH","7024745","2019-02-08 18:00","2019","02","08","18:00","-2.4","","-10.1","","55","","0.0","","19","","12","","","","100.11","","","","-7","","NA"
"-73.58","45.50","MCTAVISH","7024745","2019-02-08 19:00","2019","02","08","19:00","-4.2","","-9.2","","68","","0.5","","19","","10","","","","100.20","","","","-8","","NA"
"-73.58","45.50","MCTAVISH","7024745","2019-02-08 20:00","2019","02","08","20:00","-4.9","","-13.1","","53","","0.0","","20","","10","","","","100.37","","","","-9","","NA"
"-73.58","45.50","MCTAVISH","7024745","2019-02-08 21:00","2019","02","08","21:00","-6.2","","-16.6","","44","","0.0","","25","","11","","","","100.49","","","","-11","","NA"
"-73.58","45.50","MCTAVISH","7024745","2019-02-08 22:00","2019","02","08","22:00","-7.1","","-16.6","","47","","0.0","","21","","7","","","","100.61","","","","-11","","NA"
"-73.58","45.50","MCTAVISH","7024745","2019-02-08 23:00","2019","02","08","23:00","-8.1","","-17.3","","48","","0.0","","25","","9","","","","100.71","","","","-13","","NA"
"-73.58","45.50","MCTAVISH","7024745","2019-02-09 00:00","2019","02","09","00:00","-8.7","","-18.6","","45","","0.0","","25","","9","","","","100.86","","","","-13","","NA"
"-73.58","45.50","MCTAVISH","7024745","2019-02-09 01:00","2019","02","09","01:00","-8.9","","-18.9","","44","","0.0","","25","","10","","","","100.95","","","","-14","","NA"
"-73.58","45.50","MCTAVISH","7024745","2019-02-09 02:00","2019","02","09","02:00","-9.3","","-18.6","","47","","0.0","","23","","12","","","","101.04","","","","-15","","NA"
"-73.58","45.50","MCTAVISH","7024745","2019-02-09 03:00","2019","02","09","03:00","-9.9","","-18.6","","49","","0.0","","23","","8","","","","101.14","","","","-14","","NA"
"-73.58","45.50","MCTAVISH","7024745","2019-02-09 04:00","2019","02","09","04:00","-10.4","","-18.0","","54","","0.0","","20","","8","","","","101.26","","","","-15","","NA"
"-73.58","45.50","MCTAVISH","7024745","2019-02-09 05:00","2019","02","09","05:00","-10.7","","-18.0","","55","","0.0","","24","","11","","","","101.42","","","","-16","","NA"
"-73.58","45.50","MCTAVISH","7024745","2019-02-09 06:00","2019","02","09","06:00","-11.2","","-17.8","","58","","0.0","","21","","9","","","","101.54","","","","-16","","NA"
"-73.58","45.50","MCTAVISH","7024745","2019-02-09 07:00","2019","02","09","07:00","-11.6","","-18.6","","56","","0.0","","21","","8","","","","101.73","","","","-16","","NA"
"-73.58","45.50","MCTAVISH","7024745","2019-02-09 08:00","2019","02","09","08:00","-11.7","","-18.9","","55","","0.0","","24","","10","","","","101.90","","","","-17","","NA"
"-73.58","45.50","MCTAVISH","7024745","2019-02-09 09:00","2019","02","09","09:00","-10.7","","-19.5","","48","","0.0","","18","","6","","","","102.09","","","","-14","","NA"
"-73.58","45.50","MCTAVISH","7024745","2019-02-09 10:00","2019","02","09","10:00","-10.1","","-19.9","","45","","0.0","","22","","9","","","","102.20","","","","-15","","NA"
"-73.58","45.50","MCTAVISH","7024745","2019-02-09 11:00","2019","02","09","11:00","-9.9","","-20.5","","42","","0.0","","35","","5","","","","102.30","","","","-13","","NA"
"-73.58","45.50","MCTAVISH","7024745","2019-02-09 12:00","2019","02","09","12:00","-9.1","","-20.4","","40","","0.0","","30","","10","","","","102.37","","","","-14","","NA"
"-73.58","45.50","MCTAVISH","7024745","2019-02-09 13:00","2019","02","09","13:00","-7.8","","-19.2","","40","","0.0","","26","","6","","","","102.38","","","","-11","","NA"
"-73.58","45.50","MCTAVISH","7024745","2019-02-09 14:00","2019","02","09","14:00","-7.3","","-19.5","","37","","0.0","","23","","8","","","","102.41","","","","-11","","NA"
"-73.58","45.50","MCTAVISH","7024745","2019-02-09 15:00","2019","02","09","15:00","-6.8","","-19.2","","37","","0.0","","24","","9","","","","102.49","","","","-11","","NA"
"-73.58","45.50","MCTAVISH","7024745","2019-02-09 16:00","2019","02","09","16:00","-7.7","","-18.0","","43","","0.0","","25","","7","","","","102.54","","","","-11","","NA"
"-73.58","45.50","MCTAVISH","7024745","2019-02-09 17:00","2019","02","09","17:00","-8.4","","-17.4","","48","","0.0","","22","","6","","","","102.56","","","","-12","","NA"
"-73.58","45.50","MCTAVISH","7024745","2019-02-09 18:00","2019","02","09","18:00","-9.1","","-17.7","","50","","0.0","","21","","8","","","","102.61","","","","-13","","NA"
"-73.58","45.50","MCTAVISH","7024745","2019-02-09 19:00","2019","02","09","19:00","-9.6","","-18.1","","50","","0.0","","21","","6","","","","102.59","","","","-13","","NA"
"-73.58","45.50","MCTAVISH","7024745","2019-02-09 20:00","2019","02","09","20:00","-9.6","","-18.4","","49","","0.0","","20","","8","","","","102.62","","","","-14","","NA"
"-73.58","45.50","MCTAVISH","7024745","2019-02-09 21:00","2019","02","09","21:00","-9.1","","-18.4","","47","","0.0","","21","","7","","","","102.65","","","","-13","","NA"
"-73.58","45.50","MCTAVISH","7024745","2019-02-09 22:00","2019","02","09","22:00","-9.2","","-19.2","","44","","0.0","","19","","5","","","","102.69","","","","-12","","NA"
"-73.58","45.50","MCTAVISH","7024745","2019-02-09 23:00","2019","02","09","23:00","-9.6","","-19.5","","44","","0.0","","17","","4","","","","102.65","","","","-12","","NA"
"-73.58","45.50","MCTAVISH","7024745","2019-02-10 00:00","2019","02","10","00:00","-9.7","","-19.6","","45","","0.0","","18","","4","","","","102.67","","","","-12","","NA"
"-73.58","45.50","MCTAVISH","7024745","2019-02-10 01:00","2019","02","10","01:00","-10.1","","-19.2","","47","","0.0","","21","","3","","","","102.69","","","","-12","","NA"
"-73.58","45.50","MCTAVISH","7024745","2019-02-10 02:00","2019","02","10","02:00","-10.4","","-19.1","","49","","0.0","","22","","3","","","","102.70","","","","-12","","NA"
"-73.58","45.50","MCTAVISH","7024745","2019-02-10 03:00","2019","02","10","03:00","-10.7","","-18.9","","51","","0.0","","20","","4","","","","102.67","","","","-13","","NA"
"-73.58","45.50","MCTAVISH","7024745","2019-02-10 04:00","2019","02","10","04:00","-11.5","","-18.9","","54","","0.0","","21","","5","","","","102.67","","","","-15","","NA"
"-73.58","45.50","MCTAVISH","7024745","2019-02-10 05:00","2019","02","10","05:00","-12.0","","-19.0","","56","","0.0","","21","","5","","","","102.67","","","","-15","","NA"
"-73.58","45.50","MCTAVISH","7024745","2019-02-10 06:00","2019","02","10","06:00","-12.6","","-18.9","","59","","0.0","","20","","3","","","","102.65","","","","-15","","NA"
"-73.58","45.50","MCTAVISH","7024745","2019-02-10 07:00","2019","02","10","07:00","-12.9","","-19.1","","60","","0.0","","23","","3","","","","102.66","","","","-15","","NA"
"-73.58","45.50","MCTAVISH","7024745","2019-02-10 08:00","2019","02","10","08:00","-12.7","","-19.2","","58","","0.0","","23","","5","","","","102.67","","","","-16","","NA"
"-73.58","45.50","MCTAVISH","7024745","2019-02-10 09:00","2019","02","10","09:00","-11.4","","-19.3","","52","","0.0","","31","","3","","","","102.67","","","","-13","","NA"
"-73.58","45.50","MCTAVISH","7024745","2019-02-10 10:00","2019","02","10","10:00","-9.8","","-18.6","","49","","0.0","","24","","5","","","","102.65","","","","-13","","NA"
"-73.58","45.50","MCTAVISH","7024745","2019-02-10 11:00","2019","02","10","11:00","-9.1","","-18.1","","48","","0.0","","22","","7","","","","102.57","","","","-13","","NA"
"-73.58","45.50","MCTAVISH","7024745","2019-02-10 12:00","2019","02","10","12:00","-8.1","","-16.8","","50","","0.0","","21","","9","","","","102.45","","","","-13","","NA"
"-73.58","45.50","MCTAVISH","7024745","2019-02-10 13:00","2019","02","10","13:00","-7.3","","-15.7","","51","","0.0","","21","","8","","","","102.30","","","","-11","","NA"
"-73.58","45.50","MCTAVISH","7024745","2019-02-10 14:00","2019","02","10","14:00","-6.5","","-15.4","","49","","0.0","","25","","6","","","","102.23","","","","-9","","NA"
"-73.58","45.50","MCTAVISH","7024745","2019-02-10 15:00","2019","02","10","15:00","-6.6","","-15.2","","51","","0.0","","23","","9","","","","102.18","","","","-11","","NA"
"-73.58","45.50","MCTAVISH","7024745","2019-02-10 16:00","2019","02","10","16:00","-7.0","","-15.0","","53","","0.0","","22","","6","","","","102.16","","","","-10","","NA"
"-73.58","45.50","MCTAVISH","7024745","2019-02-10 17:00","2019","02","10","17:00","-7.2","","-14.8","","55","","0.0","","22","","6","","","","102.08","","","","-10","","NA"
"-73.58","45.50","MCTAVISH","7024745","2019-02-10 18:00","2019","02","10","18:00","-7.6","","-14.6","","57","","0.0","","20","","5","","","","102.07","","","","-10","","NA"
"-73.58","45.50","MCTAVISH","7024745","2019-02-10 19:00","2019","02","10","19:00","-7.8","","-14.7","","58","","0.0","","11","","2","","","","102.10","","","","-9","","NA"
"-73.58","45.50","MCTAVISH","7024745","2019-02-10 20:00","2019","02","10","20:00","-7.9","","-14.6","","59","","0.0","","21","","4","","","","102.07","","","","-10","","NA"
"-73.58","45.50","MCTAVISH","7024745","2019-02-10 21:00","2019","02","10","21:00","-8.5","","-15.2","","58","","0.0","","10","","1","","","","102.03","","","","-9","","NA"
"-73.58","45.50","MCTAVISH","7024745","2019-02-10 22:00","2019","02","10","22:00","-8.3","","-15.4","","56","","0.0","","17","","3","","","","102.02","","","","-10","","NA"
"-73.58","45.50","MCTAVISH","7024745","2019-02-10 23:00","2019","02","10","23:00","-7.7","","-15.6","","53","","0.0","","14","","3","","","","101.96","","","","-9","","NA"
"-73.58","45.50","MCTAVISH","7024745","2019-02-11 00:00","2019","02","11","00:00","-7.7","","-15.5","","54","","0.0","","31","","3","","","","101.97","","","","-9","","NA"
"-73.58","45.50","MCTAVISH","7024745","2019-02-11 01:00","2019","02","11","01:00","-8.1","","-15.6","","55","","0.0","","35","","5","","","","101.98","","","","-11","","NA"
"-73.58","45.50","MCTAVISH","7024745","2019-02-11 02:00","2019","02","11","02:00","-8.7","","-15.8","","56","","0.0","","33","","4","","","","101.97","","","","-11","","NA"
"-73.58","45.50","MCTAVISH","7024745","2019-02-11 03:00","2019","02","11","03:00","-9.8","","-16.1","","60","","0.0","","36","","4","","","","101.94","","","","-12","","NA"
"-73.58","45.50","MCTAVISH","7024745","2019-02-11 04:00","2019","02","11","04:00","-10.7","","-16.4","","63","","0.0","","2","","8","","","","101.99","","","","-15","","NA"
"-73.58","45.50","MCTAVISH","7024745","2019-02-11 05:00","2019","02","11","05:00","-11.2","","-17.4","","60","","0.0","","2","","10","","","","102.05","","","","-17","","NA"
"-73.58","45.50","MCTAVISH","7024745","2019-02-11 06:00","2019","02","11","06:00","-12.0","","-18.0","","61","","0.0","","1","","10","","","","102.08","","","","-18","","NA"
"-73.58","45.50","MCTAVISH","7024745","2019-02-11 07:00","2019","02","11","07:00","-12.4","","-19.1","","57","","0.0","","2","","9","","","","102.15","","","","-18","","NA"
"-73.58","45.50","MCTAVISH","7024745","2019-02-11 08:00","2019","02","11","08:00","-12.7","","-19.2","","58","","0.0","","1","","11","","","","102.24","","","","-19","","NA"
"-73.58","45.50","MCTAVISH","7024745","2019-02-11 09:00","2019","02","11","09:00","-12.5","","-19.7","","55","","0.0","","3","","8","","","","102.30","","","","-17","","NA"
"-73.58","45.50","MCTAVISH","7024745","2019-02-11 10:00","2019","02","11","10:00","-13.4","","-21.0","","53","","0.0","","1","","12","","","","102.32","","","","-20","","NA"
"-73.58","45.50","MCTAVISH","7024745","2019-02-11 11:00","2019","02","11","11:00","-12.9","","-21.4","","49","","0.0","","1","","9","","","","102.31","","","","-18","","NA"
"-73.58","45.50","MCTAVISH","7024745","2019-02-11 12:00","2019","02","11","12:00","-12.0","","-21.2","","46","","0.0","","36","","9","","","","102.27","","","","-17","","NA"
"-73.58","45.50","MCTAVISH","7024745","2019-02-11 13:00","2019","02","11","13:00","-10.7","","-20.3","","45","","0.0","","32","","4","","","","102.25","","","","-13","","NA"
"-73.58","45.50","MCTAVISH","7024745","2019-02-11 14:00","2019","02","11","14:00","-10.2","","-20.5","","42","","0.0","","3","","5","","","","102.22","","","","-13","","NA"
"-73.58","45.50","MCTAVISH","7024745","2019-02-11 15:00","2019","02","11","15:00","-9.2","","-21.2","","37","","0.0","","13","","4","","","","102.20","","","","-11","","NA"
"-73.58","45.50","MCTAVISH","7024745","2019-02-11 16:00","2019","02","11","16:00","-9.8","","-19.6","","45","","0.0","","23","","5","","","","102.23","","","","-13","","NA"
"-73.58","45.50","MCTAVISH","7024745","2019-02-11 17:00","2019","02","11","17:00","-10.1","","-18.9","","48","","0.0","","32","","4","","","","102.27","","","","-12","","NA"
"-73.58","45.50","MCTAVISH","7024745","2019-02-11 18:00","2019","02","11","18:00","-10.7","","-18.3","","54","","0.0","","24","","2","","","","102.33","","","","-12","","NA"
"-73.58","45.50","MCTAVISH","7024745","2019-02-11 19:00","2019","02","11","19:00","-10.5","","-18.0","","54","","0.0","","13","","4","","","","102.43","","","","-13","","NA"
"-73.58","45.50","MCTAVISH","7024745","2019-02-11 20:00","2019","02","11","20:00","-11.7","","-17.8","","60","","0.0","","29","","3","","","","102.55","","","","-14","","NA"
"-73.58","45.50","MCTAVISH","7024745","2019-02-11 21:00","2019","02","11","21:00","-12.2","","-18.1","","62","","0.0","","33","","4","","","","102.57","","","","-15","","NA"
"-73.58","45.50","MCTAVISH","7024745","2019-02-11 22:00","2019","02","11","22:00","-11.6","","-20.5","","48","","0.0","","2","","10","","","","102.62","","","","-17","","NA"
"-73.58","45.50","MCTAVISH","7024745","2019-02-11 23:00","2019","02","11","23:00","-12.3","","-20.3","","52","","0.0","","1","","10","","","","102.63","","","","-18","","NA"
"-73.58","45.50","MCTAVISH","7024745","2019-02-12 00:00","2019","02","12","00:00","-13.2","","-20.5","","54","","0.0","","1","","10","","","","102.63","","","","-19","","NA"
"-73.58","45.50","MCTAVISH","7024745","2019-02-12 01:00","2019","02","12","01:00","-14.2","","-21.1","","56","","0.0","","1","","11","","","","102.65","","","","-21","","NA"
"-73.58","45.50","MCTAVISH","7024745","2019-02-12 02:00","2019","02","12","02:00","-14.9","","-21.4","","57","","0.0","","2","","9","","","","102.65","","","","-21","","NA"
"-73.58","45.50","MCTAVISH","7024745","2019-02-12 03:00","2019","02","12","03:00","-15.7","","-22.0","","58","","0.0","","7","","6","","","","102.68","","","","-20","","NA"
"-73.58","45.50","MCTAVISH","7024745","2019-02-12 04:00","2019","02","12","04:00","-16.2","","-22.4","","59","","0.0","","6","","9","","","","102.63","","","","-22","","NA"
"-73.58","45.50","MCTAVISH","7024745","2019-02-12 05:00","2019","02","12","05:00","-16.5","","-21.8","","63","","0.0","","6","","8","","","","102.54","","","","-22","","NA"
"-73.58","45.50","MCTAVISH","7024745","2019-02-12 06:00","2019","02","12","06:00","-16.8","","-22.6","","61","","0.0","","5","","9","","","","102.54","","","","-23","","NA"
"-73.58","45.50","MCTAVISH","7024745","2019-02-12 07:00","2019","02","12","07:00","-16.9","","-22.3","","63","","0.0","","6","","9","","","","102.49","","","","-23","","NA"
"-73.58","45.50","MCTAVISH","7024745","2019-02-12 08:00","2019","02","12","08:00","-16.8","","-22.3","","63","","0.0","","4","","10","","","","102.49","","","","-23","","NA"
"-73.58","45.50","MCTAVISH","7024745","2019-02-12 09:00","2019","02","12","09:00","-16.7","","-22.0","","64","","0.0","","3","","11","","","","102.37","","","","-24","","NA"
"-73.58","45.50","MCTAVISH","7024745","2019-02-12 10:00","2019","02","12","10:00","-16.1","","-21.3","","64","","0.0","","3","","11","","","","102.28","","","","-23","","NA"
"-73.58","45.50","MCTAVISH","7024745","2019-02-12 11:00","2019","02","12","11:00","-15.6","","-20.5","","66","","0.0","","3","","11","","","","102.17","","","","-22","","NA"
"-73.58","45.50","MCTAVISH","7024745","2019-02-12 12:00","2019","02","12","12:00","-15.0","","-20.7","","62","","0.0","","3","","11","","","","102.05","","","","-22","","NA"
"-73.58","45.50","MCTAVISH","7024745","2019-02-12 13:00","2019","02","12","13:00","-14.0","","-20.2","","59","","0.0","","2","","12","","","","101.83","","","","-21","","NA"
"-73.58","45.50","MCTAVISH","7024745","2019-02-12 14:00","2019","02","12","14:00","-13.5","","-19.6","","60","","0.0","","4","","12","","","","101.74","","","","-20","","NA"
"-73.58","45.50","MCTAVISH","7024745","2019-02-12 15:00","2019","02","12","15:00","-12.6","","-18.6","","61","","0.0","","3","","11","","","","101.64","","","","-19","","NA"
"-73.58","45.50","MCTAVISH","7024745","2019-02-12 16:00","2019","02","12","16:00","-11.9","","-17.4","","64","","0.0","","3","","11","","","","101.46","","","","-18","","NA"
"-73.58","45.50","MCTAVISH","7024745","2019-02-12 17:00","2019","02","12","17:00","-11.6","","-14.9","","76","","0.0","","4","","9","","","","101.39","","","","-17","","NA"
"-73.58","45.50","MCTAVISH","7024745","2019-02-12 18:00","2019","02","12","18:00","-11.3","","-13.1","","87","","1.3","","2","","10","","","","101.28","","","","-17","","NA"
"-73.58","45.50","MCTAVISH","7024745","2019-02-12 19:00","2019","02","12","19:00","-10.9","","-12.5","","87","","1.3","","2","","9","","","","101.14","","","","-16","","NA"
"-73.58","45.50","MCTAVISH","7024745","2019-02-12 20:00","2019","02","12","20:00","-9.9","","-11.3","","89","","1.4","","2","","8","","","","100.89","","","","-14","","NA"
"-73.58","45.50","MCTAVISH","7024745","2019-02-12 21:00","2019","02","12","21:00","-8.5","","-9.8","","91","","1.5","","3","","7","","","","100.65","","","","-12","","NA"
"-73.58","45.50","MCTAVISH","7024745","2019-02-12 22:00","2019","02","12","22:00","-7.0","","-8.0","","92","","1.6","","2","","6","","","","100.45","","","","-10","","NA"
"-73.58","45.50","MCTAVISH","7024745","2019-02-12 23:00","2019","02","12","23:00","-6.1","","-7.0","","93","","2.4","","4","","8","","","","100.26","","","","-10","","NA"
"-73.58","45.50","MCTAVISH","7024745","2019-02-13 00:00","2019","02","13","00:00","-5.8","","-6.7","","93","","2.8","","2","","9","","","","100.13","","","","-10","","NA"
"-73.58","45.50","MCTAVISH","7024745","2019-02-13 01:00","2019","02","13","01:00","-7.5","","-8.5","","92","","3.1","","2","","10","","","","99.93","","","","-12","","NA"
"-73.58","45.50","MCTAVISH","7024745","2019-02-13 02:00","2019","02","13","02:00","-7.0","","-8.0","","93","","3.3","","2","","9","","","","99.77","","","","-11","","NA"
"-73.58","45.50","MCTAVISH","7024745","2019-02-13 03:00","2019","02","13","03:00","-7.0","","-8.0","","93","","3.6","","3","","12","","","","99.64","","","","-12","","NA"
"-73.58","45.50","MCTAVISH","7024745","2019-02-13 04:00","2019","02","13","04:00","-6.6","","-7.5","","93","","3.1","","2","","8","","","","99.46","","","","-10","","NA"
"-73.58","45.50","MCTAVISH","7024745","2019-02-13 05:00","2019","02","13","05:00","-6.0","","-6.8","","94","","2.2","","1","","8","","","","99.34","","","","-10","","NA"
"-73.58","45.50","MCTAVISH","7024745","2019-02-13 06:00","2019","02","13","06:00","-5.5","","-6.2","","94","","1.1","","1","","7","","","","99.24","","","","-9","","NA"
"-73.58","45.50","MCTAVISH","7024745","2019-02-13 07:00","2019","02","13","07:00","-5.1","","-5.9","","94","","1.4","","36","","8","","","","99.15","","","","-9","","NA"
"-73.58","45.50","MCTAVISH","7024745","2019-02-13 08:00","2019","02","13","08:00","-4.1","","-4.7","","95","","0.8","","33","","2","","","","99.13","","","","-5","","NA"
"-73.58","45.50","MCTAVISH","7024745","2019-02-13 09:00","2019","02","13","09:00","-2.8","","-3.4","","95","","0.6","","20","","7","","","","99.09","","","","-6","","NA"
"-73.58","45.50","MCTAVISH","7024745","2019-02-13 10:00","2019","02","13","10:00","-2.3","","-2.9","","95","","0.3","","19","","6","","","","99.08","","","","-5","","NA"
"-73.58","45.50","MCTAVISH","7024745","2019-02-13 11:00","2019","02","13","11:00","-1.1","","-2.0","","94","","0.5","","17","","3","","","","99.04","","","","-2","","NA"
"-73.58","45.50","MCTAVISH","7024745","2019-02-13 12:00","2019","02","13","12:00","-0.2","","-2.2","","86","","0.0","","20","","6","","","","98.99","","","","-2","","NA"
"-73.58","45.50","MCTAVISH","7024745","2019-02-13 13:00","2019","02","13","13:00","-0.1","","-2.3","","85","","0.0","","21","","6","","","","98.96","","","","-2","","NA"
"-73.58","45.50","MCTAVISH","7024745","2019-02-13 14:00","2019","02","13","14:00","0.1","","-2.5","","82","","0.0","","21","","7","","","","98.92","","","","","","NA"
"-73.58","45.50","MCTAVISH","7024745","2019-02-13 15:00","2019","02","13","15:00","-0.1","","-3.2","","79","","0.0","","22","","10","","","","98.98","","","","-3","","NA"
"-73.58","45.50","MCTAVISH","7024745","2019-02-13 16:00","2019","02","13","16:00","-0.3","","-4.1","","76","","0.0","","21","","7","","","","99.01","","","","-3","","NA"
"-73.58","45.50","MCTAVISH","7024745","2019-02-13 17:00","2019","02","13","17:00","-0.9","","-4.9","","74","","0.0","","21","","8","","","","99.05","","","","-4","","NA"
"-73.58","45.50","MCTAVISH","7024745","2019-02-13 18:00","2019","02","13","18:00","-1.7","","-4.0","","84","","0.0","","21","","9","","","","99.08","","","","-5","","NA"
"-73.58","45.50","MCTAVISH","7024745","2019-02-13 19:00","2019","02","13","19:00","-2.2","","-4.0","","88","","0.0","","20","","6","","","","99.13","","","","-5","","NA"
"-73.58","45.50","MCTAVISH","7024745","2019-02-13 20:00","2019","02","13","20:00","-2.5","","-5.9","","78","","0.0","","21","","9","","","","99.15","","","","-6","","NA"
"-73.58","45.50","MCTAVISH","7024745","2019-02-13 21:00","2019","02","13","21:00","-2.9","","-5.9","","80","","0.0","","21","","7","","","","99.19","","","","-6","","NA"
"-73.58","45.50","MCTAVISH","7024745","2019-02-13 22:00","2019","02","13","22:00","-3.2","","-5.9","","82","","0.0","","21","","10","","","","99.22","","","","-7","","NA"
"-73.58","45.50","MCTAVISH","7024745","2019-02-13 23:00","2019","02","13","23:00","-4.2","","-8.2","","74","","0.0","","21","","9","","","","99.28","","","","-8","","NA"
"-73.58","45.50","MCTAVISH","7024745","2019-02-14 00:00","2019","02","14","00:00","-4.6","","-8.0","","77","","0.0","","19","","6","","","","99.35","","","","-7","","NA"
"-73.58","45.50","MCTAVISH","7024745","2019-02-14 01:00","2019","02","14","01:00","-5.0","","-7.5","","83","","0.0","","20","","4","","","","99.44","","","","-7","","NA"
"-73.58","45.50","MCTAVISH","7024745","2019-02-14 02:00","2019","02","14","02:00","-4.9","","-9.0","","73","","0.0","","21","","5","","","","99.51","","","","-7","","NA"
"-73.58","45.50","MCTAVISH","7024745","2019-02-14 03:00","2019","02","14","03:00","-6.1","","-9.7","","76","","0.0","","21","","6","","","","99.61","","","","-9","","NA"
"-73.58","45.50","MCTAVISH","7024745","2019-02-14 04:00","2019","02","14","04:00","-6.8","","-9.4","","82","","0.0","","19","","8","","","","99.70","","","","-11","","NA"
"-73.58","45.50","MCTAVISH","7024745","2019-02-14 05:00","2019","02","14","05:00","-7.0","","-10.5","","76","","0.0","","18","","6","","","","99.79","","","","-10","","NA"
"-73.58","45.50","MCTAVISH","7024745","2019-02-14 06:00","2019","02","14","06:00","-6.8","","-10.5","","75","","0.0","","19","","7","","","","99.89","","","","-10","","NA"
"-73.58","45.50","MCTAVISH","7024745","2019-02-14 07:00","2019","02","14","07:00","-6.3","","-9.8","","76","","0.0","","21","","6","","","","99.98","","","","-9","","NA"
"-73.58","45.50","MCTAVISH","7024745","2019-02-14 08:00","2019","02","14","08:00","-6.4","","-9.5","","79","","0.0","","21","","6","","","","100.09","","","","-9","","NA"
"-73.58","45.50","MCTAVISH","7024745","2019-02-14 09:00","2019","02","14","09:00","-6.5","","-10.0","","76","","0.0","","21","","9","","","","100.19","","","","-11","","NA"
"-73.58","45.50","MCTAVISH","7024745","2019-02-14 10:00","2019","02","14","10:00","-6.7","","-11.3","","70","","0.0","","21","","9","","","","100.27","","","","-11","","NA"
"-73.58","45.50","MCTAVISH","7024745","2019-02-14 11:00","2019","02","14","11:00","-6.2","","-11.3","","67","","0.0","","24","","7","","","","100.37","","","","-10","","NA"
"-73.58","45.50","MCTAVISH","7024745","2019-02-14 12:00","2019","02","14","12:00","-5.1","","-11.3","","61","","0.0","","22","","9","","","","100.42","","","","-9","","NA"
"-73.58","45.50","MCTAVISH","7024745","2019-02-14 13:00","2019","02","14","13:00","-4.9","","-11.7","","59","","0.0","","23","","9","","","","100.43","","","","-9","","NA"
"-73.58","45.50","MCTAVISH","7024745","2019-02-14 14:00","2019","02","14","14:00","-4.3","","-11.6","","57","","0.0","","21","","8","","","","100.43","","","","-8","","NA"
"-73.58","45.50","MCTAVISH","7024745","2019-02-14 15:00","2019","02","14","15:00","-4.5","","-12.1","","56","","0.0","","21","","9","","","","100.52","","","","-8","","NA"
"-73.58","45.50","MCTAVISH","7024745","2019-02-14 16:00","2019","02","14","16:00","-5.1","","-11.9","","59","","0.0","","22","","6","","","","100.58","","","","-8","","NA"
"-73.58","45.50","MCTAVISH","7024745","2019-02-14 17:00","2019","02","14","17:00","-5.0","","-12.1","","57","","0.0","","20","","5","","","","100.60","","","","-7","","NA"
"-73.58","45.50","MCTAVISH","7024745","2019-02-14 18:00","2019","02","14","18:00","-5.7","","-13.2","","55","","0.0","","25","","2","","","","100.62","","","","-7","","NA"
"-73.58","45.50","MCTAVISH","7024745","2019-02-14 19:00","2019","02","14","19:00","-7.4","","-13.6","","61","","0.0","","3","","3","","","","100.64","","","","-9","","NA"
"-73.58","45.50","MCTAVISH","7024745","2019-02-14 20:00","2019","02","14","20:00","-6.6","","-13.8","","56","","0.0","","35","","5","","","","100.62","","","","-9","","NA"
"-73.58","45.50","MCTAVISH","7024745","2019-02-14 21:00","2019","02","14","21:00","-6.2","","-12.1","","63","","0.0","","20","","5","","","","100.64","","","","-9","","NA"
"-73.58","45.50","MCTAVISH","7024745","2019-02-14 22:00","2019","02","14","22:00","-7.2","","-12.3","","67","","0.0","","25","","3","","","","100.60","","","","-9","","NA"
"-73.58","45.50","MCTAVISH","7024745","2019-02-14 23:00","2019","02","14","23:00","-6.1","","-12.4","","61","","0.0","","15","","6","","","","100.57","","","","-9","","NA"
"-73.58","45.50","MCTAVISH","7024745","2019-02-15 00:00","2019","02","15","00:00","-6.0","","-13.0","","58","","0.0","","12","","9","","","","100.49","","","","-10","","NA"
"-73.58","45.50","MCTAVISH","7024745","2019-02-15 01:00","2019","02","15","01:00","-5.2","","-12.5","","56","","0.0","","10","","5","","","","100.42","","","","-7","","NA"
"-73.58","45.50","MCTAVISH","7024745","2019-02-15 02:00","2019","02","15","02:00","-4.4","","-11.3","","58","","0.0","","8","","6","","","","100.33","","","","-7","","NA"
"-73.58","45.50","MCTAVISH","7024745","2019-02-15 03:00","2019","02","15","03:00","-5.8","","-10.5","","69","","0.0","","2","","6","","","","100.15","","","","-9","","NA"
"-73.58","45.50","MCTAVISH","7024745","2019-02-15 04:00","2019","02","15","04:00","-6.1","","-10.8","","69","","0.0","","3","","7","","","","100.05","","","","-9","","NA"
"-73.58","45.50","MCTAVISH","7024745","2019-02-15 05:00","2019","02","15","05:00","-6.6","","-10.5","","74","","0.0","","36","","10","","","","99.98","","","","-11","","NA"
"-73.58","45.50","MCTAVISH","7024745","2019-02-15 06:00","2019","02","15","06:00","-6.4","","-9.9","","76","","0.0","","2","","6","","","","99.85","","","","-9","","NA"
"-73.58","45.50","MCTAVISH","7024745","2019-02-15 07:00","2019","02","15","07:00","-5.3","","-8.6","","77","","0.0","","1","","7","","","","99.74","","","","-9","","NA"
"-73.58","45.50","MCTAVISH","7024745","2019-02-15 08:00","2019","02","15","08:00","-2.9","","-4.2","","91","","0.6","","18","","7","","","","99.60","","","","-6","","NA"
"-73.58","45.50","MCTAVISH","7024745","2019-02-15 09:00","2019","02","15","09:00","1.2","","-3.6","","70","","0.4","","19","","8","","","","99.43","","","","","","NA"
"-73.58","45.50","MCTAVISH","7024745","2019-02-15 10:00","2019","02","15","10:00","2.0","","-2.5","","72","","0.0","","19","","11","","","","99.33","","","","","","NA"
"-73.58","45.50","MCTAVISH","7024745","2019-02-15 11:00","2019","02","15","11:00","2.0","","-2.1","","74","","0.0","","18","","10","","","","99.27","","","","","","NA"
"-73.58","45.50","MCTAVISH","7024745","2019-02-15 12:00","2019","02","15","12:00","2.5","","-1.4","","76","","0.0","","18","","10","","","","99.12","","","","","","NA"
"-73.58","45.50","MCTAVISH","7024745","2019-02-15 13:00","2019","02","15","13:00","2.9","","-1.0","","75","","0.0","","19","","8","","","","99.01","","","","","","NA"
"-73.58","45.50","MCTAVISH","7024745","2019-02-15 14:00","2019","02","15","14:00","3.6","","0.5","","80","","0.0","","20","","8","","","","98.90","","","","","","NA"
"-73.58","45.50","MCTAVISH","7024745","2019-02-15 15:00","2019","02","15","15:00","3.6","","1.1","","83","","0.4","","20","","7","","","","98.90","","","","","","NA"
"-73.58","45.50","MCTAVISH","7024745","2019-02-15 16:00","2019","02","15","16:00","3.7","","1.3","","84","","0.4","","21","","6","","","","98.89","","","","","","NA"
"-73.58","45.50","MCTAVISH","7024745","2019-02-15 17:00","2019","02","15","17:00","3.0","","0.4","","83","","0.6","","20","","9","","","","98.96","","","","","","NA"
"-73.58","45.50","MCTAVISH","7024745","2019-02-15 18:00","2019","02","15","18:00","3.1","","-0.9","","75","","0.0","","20","","13","","","","99.03","","","","","","NA"
"-73.58","45.50","MCTAVISH","7024745","2019-02-15 19:00","2019","02","15","19:00","2.7","","-3.4","","64","","0.0","","20","","12","","","","99.11","","","","","","NA"
"-73.58","45.50","MCTAVISH","7024745","2019-02-15 20:00","2019","02","15","20:00","1.6","","-3.8","","67","","0.0","","20","","11","","","","99.17","","","","","","NA"
"-73.58","45.50","MCTAVISH","7024745","2019-02-15 21:00","2019","02","15","21:00","0.8","","-4.1","","70","","0.0","","22","","9","","","","99.26","","","","","","NA"
"-73.58","45.50","MCTAVISH","7024745","2019-02-15 22:00","2019","02","15","22:00","0.1","","-6.2","","63","","0.0","","21","","10","","","","99.30","","","","","","NA"
"-73.58","45.50","MCTAVISH","7024745","2019-02-15 23:00","2019","02","15","23:00","-0.7","","-7.3","","61","","0.0","","21","","9","","","","99.35","","","","-4","","NA"
"-73.58","45.50","MCTAVISH","7024745","2019-02-16 00:00","2019","02","16","00:00","-1.3","","-6.6","","67","","0.0","","20","","9","","","","99.44","","","","-5","","NA"
"-73.58","45.50","MCTAVISH","7024745","2019-02-16 01:00","2019","02","16","01:00","-1.8","","-7.1","","67","","0.0","","21","","9","","","","99.52","","","","-5","","NA"
"-73.58","45.50","MCTAVISH","7024745","2019-02-16 02:00","2019","02","16","02:00","-2.1","","-7.0","","69","","0.0","","21","","11","","","","99.57","","","","-6","","NA"
"-73.58","45.50","MCTAVISH","7024745","2019-02-16 03:00","2019","02","16","03:00","-2.4","","-7.3","","69","","0.0","","21","","9","","","","99.58","","","","-6","","NA"
"-73.58","45.50","MCTAVISH","7024745","2019-02-16 04:00","2019","02","16","04:00","-2.4","","-6.9","","71","","0.0","","19","","7","","","","99.62","","","","-5","","NA"
"-73.58","45.50","MCTAVISH","7024745","2019-02-16 05:00","2019","02","16","05:00","-2.3","","-6.6","","72","","0.0","","20","","9","","","","99.69","","","","-6","","NA"
"-73.58","45.50","MCTAVISH","7024745","2019-02-16 06:00","2019","02","16","06:00","-2.4","","-6.7","","72","","0.0","","20","","7","","","","99.73","","","","-5","","NA"
"-73.58","45.50","MCTAVISH","7024745","2019-02-16 07:00","2019","02","16","07:00","-2.8","","-7.1","","72","","0.0","","20","","6","","","","99.80","","","","-5","","NA"
"-73.58","45.50","MCTAVISH","7024745","2019-02-16 08:00","2019","02","16","08:00","-2.9","","-7.5","","71","","0.0","","19","","5","","","","99.88","","","","-5","","NA"
"-73.58","45.50","MCTAVISH","7024745","2019-02-16 09:00","2019","02","16","09:00","-2.9","","-8.0","","68","","0.0","","24","","7","","","","99.95","","","","-6","","NA"
"-73.58","45.50","MCTAVISH","7024745","2019-02-16 10:00","2019","02","16","10:00","-3.5","","-10.7","","58","","0.0","","14","","4","","","","100.00","","","","-5","","NA"
"-73.58","45.50","MCTAVISH","7024745","2019-02-16 11:00","2019","02","16","11:00","-3.1","","-10.4","","57","","0.0","","25","","6","","","","100.06","","","","-6","","NA"
"-73.58","45.50","MCTAVISH","7024745","2019-02-16 12:00","2019","02","16","12:00","-4.2","","-12.1","","54","","0.0","","29","","10","","","","100.12","","","","-8","","NA"
"-73.58","45.50","MCTAVISH","7024745","2019-02-16 13:00","2019","02","16","13:00","-4.0","","-12.6","","51","","0.0","","28","","7","","","","100.17","","","","-7","","NA"
"-73.58","45.50","MCTAVISH","7024745","2019-02-16 14:00","2019","02","16","14:00","-3.7","","-12.4","","51","","0.0","","23","","6","","","","100.23","","","","-6","","NA"
"-73.58","45.50","MCTAVISH","7024745","2019-02-16 15:00","2019","02","16","15:00","-4.1","","-12.8","","51","","0.0","","17","","5","","","","100.35","","","","-6","","NA"
"-73.58","45.50","MCTAVISH","7024745","2019-02-16 16:00","2019","02","16","16:00","-4.4","","-13.2","","50","","0.0","","31","","5","","","","100.45","","","","-7","","NA"
"-73.58","45.50","MCTAVISH","7024745","2019-02-16 17:00","2019","02","16","17:00","-4.4","","-12.8","","52","","0.0","","24","","4","","","","100.54","","","","-6","","NA"
"-73.58","45.50","MCTAVISH","7024745","2019-02-16 18:00","2019","02","16","18:00","-5.0","","-12.7","","55","","0.0","","2","","7","","","","100.68","","","","-8","","NA"
"-73.58","45.50","MCTAVISH","7024745","2019-02-16 19:00","2019","02","16","19:00","-6.1","","-13.2","","57","","0.0","","36","","7","","","","100.78","","","","-9","","NA"
"-73.58","45.50","MCTAVISH","7024745","2019-02-16 20:00","2019","02","16","20:00","-7.3","","-13.7","","60","","0.0","","2","","6","","","","100.82","","","","-10","","NA"
"-73.58","45.50","MCTAVISH","7024745","2019-02-16 21:00","2019","02","16","21:00","-8.0","","-14.5","","59","","0.0","","36","","9","","","","100.90","","","","-13","","NA"
"-73.58","45.50","MCTAVISH","7024745","2019-02-16 22:00","2019","02","16","22:00","-8.8","","-15.2","","60","","0.0","","34","","3","","","","100.89","","","","-10","","NA"
"-73.58","45.50","MCTAVISH","7024745","2019-02-16 23:00","2019","02","16","23:00","-9.6","","-15.8","","61","","0.0","","33","","5","","","","100.92","","","","-12","","NA"
"-73.58","45.50","MCTAVISH","7024745","2019-02-17 00:00","2019","02","17","00:00","-10.0","","-15.8","","62","","0.0","","33","","6","","","","100.99","","","","-14","","NA"
"-73.58","45.50","MCTAVISH","7024745","2019-02-17 01:00","2019","02","17","01:00","-11.0","","-16.3","","65","","0.0","","30","","7","","","","101.06","","","","-15","","NA"
"-73.58","45.50","MCTAVISH","7024745","2019-02-17 02:00","2019","02","17","02:00","-11.6","","-17.2","","63","","0.0","","33","","6","","","","101.10","","","","-15","","NA"
"-73.58","45.50","MCTAVISH","7024745","2019-02-17 03:00","2019","02","17","03:00","-11.7","","-17.0","","64","","0.0","","36","","6","","","","101.14","","","","-15","","NA"
"-73.58","45.50","MCTAVISH","7024745","2019-02-17 04:00","2019","02","17","04:00","-12.3","","-17.6","","64","","0.0","","36","","8","","","","101.21","","","","-17","","NA"
"-73.58","45.50","MCTAVISH","7024745","2019-02-17 05:00","2019","02","17","05:00","-13.1","","-18.6","","63","","0.0","","36","","6","","","","101.27","","","","-17","","NA"
"-73.58","45.50","MCTAVISH","7024745","2019-02-17 06:00","2019","02","17","06:00","-12.7","","-18.0","","64","","0.0","","1","","8","","","","101.30","","","","-18","","NA"
"-73.58","45.50","MCTAVISH","7024745","2019-02-17 07:00","2019","02","17","07:00","-13.2","","-18.2","","66","","0.0","","1","","7","","","","101.41","","","","-18","","NA"
"-73.58","45.50","MCTAVISH","7024745","2019-02-17 08:00","2019","02","17","08:00","-12.9","","-18.5","","63","","0.0","","1","","6","","","","101.50","","","","-17","","NA"
"-73.58","45.50","MCTAVISH","7024745","2019-02-17 09:00","2019","02","17","09:00","-12.2","","-18.1","","62","","0.0","","3","","6","","","","101.48","","","","-16","","NA"
"-73.58","45.50","MCTAVISH","7024745","2019-02-17 10:00","2019","02","17","10:00","-11.3","","-18.3","","56","","0.0","","36","","5","","","","101.47","","","","-14","","NA"
"-73.58","45.50","MCTAVISH","7024745","2019-02-17 11:00","2019","02","17","11:00","-10.5","","-17.6","","56","","0.0","","2","","6","","","","101.43","","","","-14","","NA"
"-73.58","45.50","MCTAVISH","7024745","2019-02-17 12:00","2019","02","17","12:00","-9.6","","-16.8","","56","","0.0","","18","","6","","","","101.42","","","","-13","","NA"
"-73.58","45.50","MCTAVISH","7024745","2019-02-17 13:00","2019","02","17","13:00","-9.2","","-16.4","","56","","0.0","","3","","6","","","","101.33","","","","-13","","NA"
"-73.58","45.50","MCTAVISH","7024745","2019-02-17 14:00","2019","02","17","14:00","-9.1","","-16.2","","56","","0.0","","18","","3","","","","101.21","","","","-11","","NA"
"-73.58","45.50","MCTAVISH","7024745","2019-02-17 15:00","2019","02","17","15:00","-9.2","","-16.1","","58","","0.0","","27","","6","","","","101.25","","","","-13","","NA"
"-73.58","45.50","MCTAVISH","7024745","2019-02-17 16:00","2019","02","17","16:00","-8.8","","-15.5","","59","","0.0","","35","","3","","","","101.18","","","","-10","","NA"
"-73.58","45.50","MCTAVISH","7024745","2019-02-17 17:00","2019","02","17","17:00","-9.0","","-15.7","","58","","0.0","","20","","5","","","","101.16","","","","-12","","NA"
"-73.58","45.50","MCTAVISH","7024745","2019-02-17 18:00","2019","02","17","18:00","-10.0","","-15.8","","62","","0.0","","18","","6","","","","101.10","","","","-14","","NA"
"-73.58","45.50","MCTAVISH","7024745","2019-02-17 19:00","2019","02","17","19:00","-10.9","","-16.4","","64","","0.0","","22","","4","","","","101.05","","","","-13","","NA"
"-73.58","45.50","MCTAVISH","7024745","2019-02-17 20:00","2019","02","17","20:00","-11.1","","-15.9","","68","","0.0","","27","","4","","","","101.03","","","","-14","","NA"
"-73.58","45.50","MCTAVISH","7024745","2019-02-17 21:00","2019","02","17","21:00","-10.8","","-15.3","","69","","0.0","","30","","3","","","","101.00","","","","-13","","NA"
"-73.58","45.50","MCTAVISH","7024745","2019-02-17 22:00","2019","02","17","22:00","-11.9","","-16.5","","68","","0.0","","34","","3","","","","100.96","","","","-14","","NA"
"-73.58","45.50","MCTAVISH","7024745","2019-02-17 23:00","2019","02","17","23:00","-10.7","","-16.5","","62","","0.0","","3","","6","","","","100.97","","","","-14","","NA"
"-73.58","45.50","MCTAVISH","7024745","2019-02-18 00:00","2019","02","18","00:00","-10.9","","-16.4","","64","","0.0","","4","","6","","","","100.93","","","","-15","","NA"
"-73.58","45.50","MCTAVISH","7024745","2019-02-18 01:00","2019","02","18","01:00","-11.5","","-16.5","","66","","0.0","","4","","7","","","","100.87","","","","-16","","NA"
"-73.58","45.50","MCTAVISH","7024745","2019-02-18 02:00","2019","02","18","02:00","-11.4","","-17.0","","63","","0.0","","3","","8","","","","100.79","","","","-16","","NA"
"-73.58","45.50","MCTAVISH","7024745","2019-02-18 03:00","2019","02","18","03:00","-11.8","","-17.2","","64","","0.0","","3","","9","","","","100.76","","","","-17","","NA"
"-73.58","45.50","MCTAVISH","7024745","2019-02-18 04:00","2019","02","18","04:00","-12.4","","-17.5","","66","","0.0","","1","","14","","","","100.73","","","","-19","","NA"
"-73.58","45.50","MCTAVISH","7024745","2019-02-18 05:00","2019","02","18","05:00","-12.9","","-16.8","","73","","0.0","","2","","14","","","","100.77","","","","-20","","NA"
"-73.58","45.50","MCTAVISH","7024745","2019-02-18 06:00","2019","02","18","06:00","-13.2","","-17.1","","73","","0.0","","2","","15","","","","100.72","","","","-21","","NA"
"-73.58","45.50","MCTAVISH","7024745","2019-02-18 07:00","2019","02","18","07:00","-13.0","","-17.3","","70","","0.0","","3","","12","","","","100.74","","","","-20","","NA"
"-73.58","45.50","MCTAVISH","7024745","2019-02-18 08:00","2019","02","18","08:00","-12.9","","-17.1","","70","","0.0","","3","","12","","","","100.70","","","","-19","","NA"
"-73.58","45.50","MCTAVISH","7024745","2019-02-18 09:00","2019","02","18","09:00","-12.6","","-17.8","","65","","0.0","","3","","14","","","","100.70","","","","-20","","NA"
"-73.58","45.50","MCTAVISH","7024745","2019-02-18 10:00","2019","02","18","10:00","-11.8","","-16.8","","66","","0.0","","3","","12","","","","100.72","","","","-18","","NA"
"-73.58","45.50","MCTAVISH","7024745","2019-02-18 11:00","2019","02","18","11:00","-11.1","","-17.5","","59","","0.0","","3","","12","","","","100.77","","","","-17","","NA"
"-73.58","45.50","MCTAVISH","7024745","2019-02-18 12:00","2019","02","18","12:00","-10.9","","-18.3","","54","","0.0","","4","","9","","","","100.78","","","","-16","","NA"
"-73.58","45.50","MCTAVISH","7024745","2019-02-18 13:00","2019","02","18","13:00","-10.4","","-18.3","","52","","0.0","","1","","9","","","","100.81","","","","-15","","NA"
"-73.58","45.50","MCTAVISH","7024745","2019-02-18 14:00","2019","02","18","14:00","-9.5","","-19.1","","46","","0.0","","3","","7","","","","100.85","","","","-13","","NA"
"-73.58","45.50","MCTAVISH","7024745","2019-02-18 15:00","2019","02","18","15:00","-9.0","","-18.8","","45","","0.0","","1","","6","","","","100.86","","","","-12","","NA"
"-73.58","45.50","MCTAVISH","7024745","2019-02-18 16:00","2019","02","18","16:00","-8.6","","-17.6","","48","","0.0","","32","","3","","","","100.92","","","","-10","","NA"
"-73.58","45.50","MCTAVISH","7024745","2019-02-18 17:00","2019","02","18","17:00","-8.8","","-16.3","","54","","0.0","","24","","4","","","","101.00","","","","-11","","NA"
"-73.58","45.50","MCTAVISH","7024745","2019-02-18 18:00","2019","02","18","18:00","-9.3","","-15.3","","62","","0.0","","23","","2","","","","101.11","","","","-10","","NA"
"-73.58","45.50","MCTAVISH","7024745","2019-02-18 19:00","2019","02","18","19:00","-8.7","","-16.2","","55","","0.0","","33","","4","","","","101.25","","","","-11","","NA"
"-73.58","45.50","MCTAVISH","7024745","2019-02-18 20:00","2019","02","18","20:00","-9.3","","-15.8","","59","","0.0","","35","","5","","","","101.44","","","","-12","","NA"
"-73.58","45.50","MCTAVISH","7024745","2019-02-18 21:00","2019","02","18","21:00","-10.8","","-17.1","","60","","0.0","","34","","9","","","","101.56","","","","-16","","NA"
"-73.58","45.50","MCTAVISH","7024745","2019-02-18 22:00","2019","02","18","22:00","-11.9","","-18.0","","60","","0.0","","35","","8","","","","101.69","","","","-17","","NA"
"-73.58","45.50","MCTAVISH","7024745","2019-02-18 23:00","2019","02","18","23:00","-12.6","","-18.6","","61","","0.0","","1","","8","","","","101.77","","","","-18","","NA"
"-73.58","45.50","MCTAVISH","7024745","2019-02-19 00:00","2019","02","19","00:00","-12.5","","-18.5","","61","","0.0","","1","","8","","","","101.87","","","","-17","","NA"
"-73.58","45.50","MCTAVISH","7024745","2019-02-19 01:00","2019","02","19","01:00","-13.7","","-18.8","","65","","0.0","","29","","4","","","","101.95","","","","-16","","NA"
"-73.58","45.50","MCTAVISH","7024745","2019-02-19 02:00","2019","02","19","02:00","-14.1","","-19.0","","66","","0.0","","27","","5","","","","102.05","","","","-18","","NA"
"-73.58","45.50","MCTAVISH","7024745","2019-02-19 03:00","2019","02","19","03:00","-15.2","","-20.1","","66","","0.0","","29","","7","","","","102.10","","","","-20","","NA"
"-73.58","45.50","MCTAVISH","7024745","2019-02-19 04:00","2019","02","19","04:00","-15.4","","-20.2","","67","","0.0","","32","","5","","","","102.17","","","","-19","","NA"
"-73.58","45.50","MCTAVISH","7024745","2019-02-19 05:00","2019","02","19","05:00","-15.2","","-19.7","","68","","0.0","","27","","3","","","","102.22","","","","-17","","NA"
"-73.58","45.50","MCTAVISH","7024745","2019-02-19 06:00","2019","02","19","06:00","-15.7","","-19.6","","72","","0.0","","28","","4","","","","102.28","","","","-19","","NA"
"-73.58","45.50","MCTAVISH","7024745","2019-02-19 07:00","2019","02","19","07:00","-16.3","","-20.2","","72","","0.0","","23","","2","","","","102.38","","","","-18","","NA"
"-73.58","45.50","MCTAVISH","7024745","2019-02-19 08:00","2019","02","19","08:00","-15.8","","-20.4","","68","","0.0","","20","","3","","","","102.49","","","","-18","","NA"
"-73.58","45.50","MCTAVISH","7024745","2019-02-19 09:00","2019","02","19","09:00","-15.0","","-20.8","","61","","0.0","","35","","6","","","","102.57","","","","-19","","NA"
"-73.58","45.50","MCTAVISH","7024745","2019-02-19 10:00","2019","02","19","10:00","-13.7","","-20.3","","57","","0.0","","25","","6","","","","102.58","","","","-18","","NA"
"-73.58","45.50","MCTAVISH","7024745","2019-02-19 11:00","2019","02","19","11:00","-12.7","","-20.0","","55","","0.0","","23","","7","","","","102.59","","","","-17","","NA"
"-73.58","45.50","MCTAVISH","7024745","2019-02-19 12:00","2019","02","19","12:00","-11.4","","-19.1","","53","","0.0","","25","","8","","","","102.58","","","","-16","","NA"
"-73.58","45.50","MCTAVISH","7024745","2019-02-19 13:00","2019","02","19","13:00","-10.8","","-20.0","","47","","0.0","","22","","8","","","","102.54","","","","-15","","NA"
"-73.58","45.50","MCTAVISH","7024745","2019-02-19 14:00","2019","02","19","14:00","-10.2","","-19.5","","46","","0.0","","24","","7","","","","102.51","","","","-14","","NA"
"-73.58","45.50","MCTAVISH","7024745","2019-02-19 15:00","2019","02","19","15:00","-10.0","","-20.4","","42","","0.0","","24","","8","","","","102.50","","","","-14","","NA"
"-73.58","45.50","MCTAVISH","7024745","2019-02-19 16:00","2019","02","19","16:00","-10.2","","-19.1","","48","","0.0","","22","","6","","","","102.47","","","","-14","","NA"
"-73.58","45.50","MCTAVISH","7024745","2019-02-19 17:00","2019","02","19","17:00","-10.2","","-18.7","","50","","0.0","","22","","8","","","","102.47","","","","-15","","NA"
"-73.58","45.50","MCTAVISH","7024745","2019-02-19 18:00","2019","02","19","18:00","-10.3","","-18.2","","52","","0.0","","20","","7","","","","102.47","","","","-14","","NA"
"-73.58","45.50","MCTAVISH","7024745","2019-02-19 19:00","2019","02","19","19:00","-10.2","","-18.1","","52","","0.0","","19","","5","","","","102.52","","","","-13","","NA"
"-73.58","45.50","MCTAVISH","7024745","2019-02-19 20:00","2019","02","19","20:00","-10.1","","-18.1","","52","","0.0","","19","","6","","","","102.53","","","","-14","","NA"
"-73.58","45.50","MCTAVISH","7024745","2019-02-19 21:00","2019","02","19","21:00","-9.7","","-17.7","","52","","0.0","","18","","6","","","","102.57","","","","-13","","NA"
"-73.58","45.50","MCTAVISH","7024745","2019-02-19 22:00","2019","02","19","22:00","-9.6","","-17.0","","55","","0.0","","19","","6","","","","102.58","","","","-13","","NA"
"-73.58","45.50","MCTAVISH","7024745","2019-02-19 23:00","2019","02","19","23:00","-9.9","","-16.7","","58","","0.0","","19","","6","","","","102.53","","","","-13","","NA"
"-73.58","45.50","MCTAVISH","7024745","2019-02-20 00:00","2019","02","20","00:00","-10.4","","-16.5","","61","","0.0","","20","","5","","","","102.54","","","","-13","","NA"
"-73.58","45.50","MCTAVISH","7024745","2019-02-20 01:00","2019","02","20","01:00","-10.7","","-16.5","","63","","0.0","","27","","9","","","","102.56","","","","-16","","NA"
"-73.58","45.50","MCTAVISH","7024745","2019-02-20 02:00","2019","02","20","02:00","-10.8","","-16.0","","65","","0.0","","29","","9","","","","102.59","","","","-16","","NA"
"-73.58","45.50","MCTAVISH","7024745","2019-02-20 03:00","2019","02","20","03:00","-11.3","","-16.0","","68","","0.0","","5","","1","","","","102.57","","","","-12","","NA"
"-73.58","45.50","MCTAVISH","7024745","2019-02-20 04:00","2019","02","20","04:00","-14.7","","-18.7","","72","","0.0","","29","","1","","","","102.54","","","","-15","","NA"
"-73.58","45.50","MCTAVISH","7024745","2019-02-20 05:00","2019","02","20","05:00","-11.8","","-15.6","","73","","0.0","","24","","5","","","","102.55","","","","-15","","NA"
"-73.58","45.50","MCTAVISH","7024745","2019-02-20 06:00","2019","02","20","06:00","-12.0","","-15.5","","75","","0.0","","21","","5","","","","102.49","","","","-15","","NA"
"-73.58","45.50","MCTAVISH","7024745","2019-02-20 07:00","2019","02","20","07:00","-13.9","","-17.1","","76","","0.0","","32","","2","","","","102.42","","","","-15","","NA"
"-73.58","45.50","MCTAVISH","7024745","2019-02-20 08:00","2019","02","20","08:00","-10.9","","-13.5","","81","","0.0","","18","","5","","","","102.53","","","","-14","","NA"
"-73.58","45.50","MCTAVISH","7024745","2019-02-20 09:00","2019","02","20","09:00","-10.3","","-14.7","","70","","0.0","","21","","6","","","","102.48","","","","-14","","NA"
"-73.58","45.50","MCTAVISH","7024745","2019-02-20 10:00","2019","02","20","10:00","-9.0","","-15.0","","62","","0.0","","19","","10","","","","102.46","","","","-14","","NA"
"-73.58","45.50","MCTAVISH","7024745","2019-02-20 11:00","2019","02","20","11:00","-8.7","","-14.8","","61","","0.0","","20","","9","","","","102.35","","","","-13","","NA"
"-73.58","45.50","MCTAVISH","7024745","2019-02-20 12:00","2019","02","20","12:00","-8.1","","-14.1","","62","","0.0","","20","","6","","","","102.31","","","","-11","","NA"
"-73.58","45.50","MCTAVISH","7024745","2019-02-20 13:00","2019","02","20","13:00","-7.3","","-14.8","","55","","0.0","","20","","8","","","","102.26","","","","-11","","NA"
"-73.58","45.50","MCTAVISH","7024745","2019-02-20 14:00","2019","02","20","14:00","-6.8","","-14.2","","56","","0.0","","18","","5","","","","102.14","","","","-9","","NA"
"-73.58","45.50","MCTAVISH","7024745","2019-02-20 15:00","2019","02","20","15:00","-6.5","","-13.9","","56","","0.0","","17","","5","","","","102.01","","","","-9","","NA"
"-73.58","45.50","MCTAVISH","7024745","2019-02-20 16:00","2019","02","20","16:00","-6.2","","-14.8","","51","","0.0","","18","","4","","","","101.95","","","","-8","","NA"
"-73.58","45.50","MCTAVISH","7024745","2019-02-20 17:00","2019","02","20","17:00","-5.9","","-13.3","","56","","0.0","","15","","5","","","","101.89","","","","-8","","NA"
"-73.58","45.50","MCTAVISH","7024745","2019-02-20 18:00","2019","02","20","18:00","-5.5","","-11.5","","63","","0.0","","16","","3","","","","101.81","","","","-7","","NA"
"-73.58","45.50","MCTAVISH","7024745","2019-02-20 19:00","2019","02","20","19:00","-5.3","","-11.1","","64","","0.0","","16","","4","","","","101.62","","","","-7","","NA"
"-73.58","45.50","MCTAVISH","7024745","2019-02-20 20:00","2019","02","20","20:00","-6.0","","-11.8","","64","","0.0","","9","","8","","","","101.44","","","","-10","","NA"
"-73.58","45.50","MCTAVISH","7024745","2019-02-20 21:00","2019","02","20","21:00","-5.8","","-12.4","","59","","0.0","","10","","8","","","","101.31","","","","-10","","NA"
"-73.58","45.50","MCTAVISH","7024745","2019-02-20 22:00","2019","02","20","22:00","-5.0","","-12.6","","55","","0.0","","11","","4","","","","101.20","","","","-7","","NA"
"-73.58","45.50","MCTAVISH","7024745","2019-02-20 23:00","2019","02","20","23:00","-4.8","","-12.4","","55","","0.0","","16","","6","","","","100.84","","","","-8","","NA"
"-73.58","45.50","MCTAVISH","7024745","2019-02-21 00:00","2019","02","21","00:00","-5.9","","-8.5","","82","","0.0","","10","","4","","","","100.63","","","","-8","","NA"
"-73.58","45.50","MCTAVISH","7024745","2019-02-21 01:00","2019","02","21","01:00","-6.4","","-7.6","","91","","1.5","","6","","3","","","","100.52","","","","-8","","NA"
"-73.58","45.50","MCTAVISH","7024745","2019-02-21 02:00","2019","02","21","02:00","-7.3","","-8.6","","91","","2.9","","3","","5","","","","100.41","","","","-10","","NA"
"-73.58","45.50","MCTAVISH","7024745","2019-02-21 03:00","2019","02","21","03:00","-7.1","","-8.3","","92","","2.0","","5","","9","","","","100.20","","","","-11","","NA"
"-73.58","45.50","MCTAVISH","7024745","2019-02-21 04:00","2019","02","21","04:00","-7.3","","-8.5","","91","","1.6","","36","","7","","","","100.04","","","","-11","","NA"
"-73.58","45.50","MCTAVISH","7024745","2019-02-21 05:00","2019","02","21","05:00","-7.0","","-8.1","","91","","0.6","","35","","6","","","","99.93","","","","-10","","NA"
"-73.58","45.50","MCTAVISH","7024745","2019-02-21 06:00","2019","02","21","06:00","-6.4","","-7.4","","92","","0.7","","36","","6","","","","99.85","","","","-9","","NA"
"-73.58","45.50","MCTAVISH","7024745","2019-02-21 07:00","2019","02","21","07:00","-6.6","","-7.8","","91","","0.5","","2","","6","","","","99.82","","","","-10","","NA"
"-73.58","45.50","MCTAVISH","7024745","2019-02-21 08:00","2019","02","21","08:00","-6.3","","-7.8","","89","","0.2","","3","","4","","","","99.85","","","","-8","","NA"
"-73.58","45.50","MCTAVISH","7024745","2019-02-21 09:00","2019","02","21","09:00","-5.3","","-6.9","","89","","0.0","","5","","1","","","","99.85","","","","-6","","NA"
"-73.58","45.50","MCTAVISH","7024745","2019-02-21 10:00","2019","02","21","10:00","-4.1","","-5.4","","90","","0.0","","18","","6","","","","99.85","","","","-7","","NA"
"-73.58","45.50","MCTAVISH","7024745","2019-02-21 11:00","2019","02","21","11:00","-3.0","","-4.5","","89","","0.0","","18","","10","","","","99.87","","","","-7","","NA"
"-73.58","45.50","MCTAVISH","7024745","2019-02-21 12:00","2019","02","21","12:00","-1.2","","-3.2","","86","","0.2","","19","","9","","","","99.88","","","","-4","","NA"
"-73.58","45.50","MCTAVISH","7024745","2019-02-21 13:00","2019","02","21","13:00","0.9","","-1.3","","85","","0.0","","17","","8","","","","99.88","","","","","","NA"
"-73.58","45.50","MCTAVISH","7024745","2019-02-21 14:00","2019","02","21","14:00","2.1","","-1.2","","79","","0.0","","19","","8","","","","99.91","","","","","","NA"
"-73.58","45.50","MCTAVISH","7024745","2019-02-21 15:00","2019","02","21","15:00","2.8","","-1.3","","75","","0.0","","20","","6","","","","99.98","","","","","","NA"
"-73.58","45.50","MCTAVISH","7024745","2019-02-21 16:00","2019","02","21","16:00","2.8","","-3.2","","65","","0.0","","21","","7","","","","100.05","","","","","","NA"
"-73.58","45.50","MCTAVISH","7024745","2019-02-21 17:00","2019","02","21","17:00","2.5","","-2.0","","72","","0.0","","18","","8","","","","100.14","","","","","","NA"
"-73.58","45.50","MCTAVISH","7024745","2019-02-21 18:00","2019","02","21","18:00","2.2","","-3.2","","68","","0.0","","21","","7","","","","100.24","","","","","","NA"
"-73.58","45.50","MCTAVISH","7024745","2019-02-21 19:00","2019","02","21","19:00","2.0","","-3.7","","66","","0.0","","24","","7","","","","100.41","","","","","","NA"
"-73.58","45.50","MCTAVISH","7024745","2019-02-21 20:00","2019","02","21","20:00","1.4","","-3.8","","68","","0.0","","3","","6","","","","100.57","","","","","","NA"
"-73.58","45.50","MCTAVISH","7024745","2019-02-21 21:00","2019","02","21","21:00","0.8","","-4.8","","66","","0.0","","22","","4","","","","100.70","","","","","","NA"
"-73.58","45.50","MCTAVISH","7024745","2019-02-21 22:00","2019","02","21","22:00","0.3","","-5.1","","67","","0.0","","2","","7","","","","100.82","","","","","","NA"
"-73.58","45.50","MCTAVISH","7024745","2019-02-21 23:00","2019","02","21","23:00","-1.0","","-6.4","","67","","0.0","","1","","7","","","","100.89","","","","-4","","NA"
"-73.58","45.50","MCTAVISH","7024745","2019-02-22 00:00","2019","02","22","00:00","-2.3","","-7.7","","67","","0.0","","35","","4","","","","100.97","","","","-4","","NA"
"-73.58","45.50","MCTAVISH","7024745","2019-02-22 01:00","2019","02","22","01:00","-3.4","","-9.0","","65","","0.0","","16","","2","","","","101.17","","","","-4","","NA"
"-73.58","45.50","MCTAVISH","7024745","2019-02-22 02:00","2019","02","22","02:00","-3.7","","-9.0","","66","","0.0","","36","","4","","","","101.26","","","","-5","","NA"
"-73.58","45.50","MCTAVISH","7024745","2019-02-22 03:00","2019","02","22","03:00","-4.1","","-9.2","","68","","0.0","","27","","3","","","","101.31","","","","-5","","NA"
"-73.58","45.50","MCTAVISH","7024745","2019-02-22 04:00","2019","02","22","04:00","-4.6","","-9.1","","71","","0.0","","26","","4","","","","101.36","","","","-6","","NA"
"-73.58","45.50","MCTAVISH","7024745","2019-02-22 05:00","2019","02","22","05:00","-5.1","","-9.4","","72","","0.0","","29","","5","","","","101.48","","","","-7","","NA"
"-73.58","45.50","MCTAVISH","7024745","2019-02-22 06:00","2019","02","22","06:00","-5.4","","-9.4","","73","","0.0","","30","","7","","","","101.56","","","","-9","","NA"
"-73.58","45.50","MCTAVISH","7024745","2019-02-22 07:00","2019","02","22","07:00","-5.7","","-9.6","","74","","0.0","","29","","6","","","","101.68","","","","-9","","NA"
"-73.58","45.50","MCTAVISH","7024745","2019-02-22 08:00","2019","02","22","08:00","-5.2","","-9.5","","72","","0.0","","28","","6","","","","101.78","","","","-8","","NA"
"-73.58","45.50","MCTAVISH","7024745","2019-02-22 09:00","2019","02","22","09:00","-4.2","","-9.2","","68","","0.0","","35","","4","","","","101.85","","","","-6","","NA"
"-73.58","45.50","MCTAVISH","7024745","2019-02-22 10:00","2019","02","22","10:00","-3.6","","-10.5","","59","","0.0","","34","","8","","","","101.90","","","","-7","","NA"
"-73.58","45.50","MCTAVISH","7024745","2019-02-22 11:00","2019","02","22","11:00","-2.1","","-9.6","","56","","0.0","","29","","7","","","","101.95","","","","-5","","NA"
"-73.58","45.50","MCTAVISH","7024745","2019-02-22 12:00","2019","02","22","12:00","-1.3","","-9.9","","52","","0.0","","25","","7","","","","101.93","","","","-4","","NA"
"-73.58","45.50","MCTAVISH","7024745","2019-02-22 13:00","2019","02","22","13:00","-0.6","","-9.4","","51","","0.0","","23","","6","","","","101.88","","","","-3","","NA"
"-73.58","45.50","MCTAVISH","7024745","2019-02-22 14:00","2019","02","22","14:00","-0.6","","-9.9","","50","","0.0","","25","","7","","","","101.88","","","","-3","","NA"
"-73.58","45.50","MCTAVISH","7024745","2019-02-22 15:00","2019","02","22","15:00","-0.9","","-9.7","","51","","0.0","","25","","6","","","","101.92","","","","-3","","NA"
"-73.58","45.50","MCTAVISH","7024745","2019-02-22 16:00","2019","02","22","16:00","-1.4","","-8.9","","57","","0.0","","22","","7","","","","102.02","","","","-4","","NA"
"-73.58","45.50","MCTAVISH","7024745","2019-02-22 17:00","2019","02","22","17:00","-1.5","","-9.3","","55","","0.0","","22","","5","","","","102.02","","","","-3","","NA"
"-73.58","45.50","MCTAVISH","7024745","2019-02-22 18:00","2019","02","22","18:00","-2.1","","-9.0","","59","","0.0","","20","","4","","","","102.05","","","","-4","","NA"
"-73.58","45.50","MCTAVISH","7024745","2019-02-22 19:00","2019","02","22","19:00","-2.5","","-8.9","","61","","0.0","","20","","5","","","","102.09","","","","-4","","NA"
"-73.58","45.50","MCTAVISH","7024745","2019-02-22 20:00","2019","02","22","20:00","-3.0","","-9.1","","62","","0.0","","18","","6","","","","102.18","","","","-5","","NA"
"-73.58","45.50","MCTAVISH","7024745","2019-02-22 21:00","2019","02","22","21:00","-3.3","","-9.3","","63","","0.0","","19","","5","","","","102.23","","","","-5","","NA"
"-73.58","45.50","MCTAVISH","7024745","2019-02-22 22:00","2019","02","22","22:00","-3.6","","-9.8","","62","","0.0","","25","","6","","","","102.28","","","","-6","","NA"
"-73.58","45.50","MCTAVISH","7024745","2019-02-22 23:00","2019","02","22","23:00","-3.9","","-10.0","","63","","0.0","","27","","8","","","","102.28","","","","-7","","NA"
"-73.58","45.50","MCTAVISH","7024745","2019-02-23 00:00","2019","02","23","00:00","-4.5","","-9.9","","66","","0.0","","28","","7","","","","102.25","","","","-8","","NA"
"-73.58","45.50","MCTAVISH","7024745","2019-02-23 01:00","2019","02","23","01:00","-4.8","","-10.1","","66","","0.0","","29","","5","","","","102.25","","","","-7","","NA"
"-73.58","45.50","MCTAVISH","7024745","2019-02-23 02:00","2019","02","23","02:00","-4.4","","-10.6","","62","","0.0","","33","","6","","","","102.29","","","","-7","","NA"
"-73.58","45.50","MCTAVISH","7024745","2019-02-23 03:00","2019","02","23","03:00","-4.8","","-10.6","","63","","0.0","","35","","5","","","","102.31","","","","-7","","NA"
"-73.58","45.50","MCTAVISH","7024745","2019-02-23 04:00","2019","02","23","04:00","-6.5","","-11.3","","69","","0.0","","30","","2","","","","102.32","","","","-7","","NA"
"-73.58","45.50","MCTAVISH","7024745","2019-02-23 05:00","2019","02","23","05:00","-6.5","","-12.3","","63","","0.0","","31","","2","","","","102.35","","","","-7","","NA"
"-73.58","45.50","MCTAVISH","7024745","2019-02-23 06:00","2019","02","23","06:00","-5.1","","-11.3","","62","","0.0","","31","","2","","","","102.34","","","","-6","","NA"
"-73.58","45.50","MCTAVISH","7024745","2019-02-23 07:00","2019","02","23","07:00","-5.2","","-10.3","","67","","0.0","","35","","2","","","","102.33","","","","-6","","NA"
"-73.58","45.50","MCTAVISH","7024745","2019-02-23 08:00","2019","02","23","08:00","-3.3","","-10.3","","58","","0.0","","20","","5","","","","102.38","","","","-5","","NA"
"-73.58","45.50","MCTAVISH","7024745","2019-02-23 09:00","2019","02","23","09:00","-2.5","","-11.3","","51","","0.0","","21","","6","","","","102.37","","","","-5","","NA"
"-73.58","45.50","MCTAVISH","7024745","2019-02-23 10:00","2019","02","23","10:00","-1.8","","-10.1","","53","","0.0","","18","","7","","","","102.28","","","","-4","","NA"
"-73.58","45.50","MCTAVISH","7024745","2019-02-23 11:00","2019","02","23","11:00","-1.1","","-10.7","","48","","0.0","","18","","6","","","","102.22","","","","-3","","NA"
"-73.58","45.50","MCTAVISH","7024745","2019-02-23 12:00","2019","02","23","12:00","-0.8","","-9.7","","51","","0.0","","19","","9","","","","102.18","","","","-4","","NA"
"-73.58","45.50","MCTAVISH","7024745","2019-02-23 13:00","2019","02","23","13:00","-1.0","","-11.1","","46","","0.0","","18","","10","","","","102.13","","","","-5","","NA"
"-73.58","45.50","MCTAVISH","7024745","2019-02-23 14:00","2019","02","23","14:00","-0.2","","-9.2","","50","","0.0","","22","","7","","","","102.03","","","","-3","","NA"
"-73.58","45.50","MCTAVISH","7024745","2019-02-23 15:00","2019","02","23","15:00","0.5","","-8.8","","50","","0.0","","16","","5","","","","101.97","","","","","","NA"
"-73.58","45.50","MCTAVISH","7024745","2019-02-23 16:00","2019","02","23","16:00","-0.2","","-9.5","","50","","0.0","","17","","3","","","","101.91","","","","-1","","NA"
"-73.58","45.50","MCTAVISH","7024745","2019-02-23 17:00","2019","02","23","17:00","-0.6","","-8.6","","55","","0.0","","17","","5","","","","101.82","","","","-2","","NA"
"-73.58","45.50","MCTAVISH","7024745","2019-02-23 18:00","2019","02","23","18:00","-1.1","","-9.7","","52","","0.0","","10","","6","","","","101.74","","","","-3","","NA"
"-73.58","45.50","MCTAVISH","7024745","2019-02-23 19:00","2019","02","23","19:00","-1.0","","-9.7","","51","","0.0","","17","","4","","","","101.72","","","","-2","","NA"
"-73.58","45.50","MCTAVISH","7024745","2019-02-23 20:00","2019","02","23","20:00","-0.9","","-10.6","","47","","0.0","","11","","4","","","","101.65","","","","-2","","NA"
"-73.58","45.50","MCTAVISH","7024745","2019-02-23 21:00","2019","02","23","21:00","-1.6","","-10.3","","51","","0.0","","13","","4","","","","101.58","","","","-3","","NA"
"-73.58","45.50","MCTAVISH","7024745","2019-02-23 22:00","2019","02","23","22:00","-1.7","","-10.0","","53","","0.0","","5","","5","","","","101.48","","","","-4","","NA"
"-73.58","45.50","MCTAVISH","7024745","2019-02-23 23:00","2019","02","23","23:00","-3.1","","-9.2","","63","","0.0","","1","","6","","","","101.38","","","","-6","","NA"
"-73.58","45.50","MCTAVISH","7024745","2019-02-24 00:00","2019","02","24","00:00","-1.9","","-8.7","","60","","0.0","","1","","4","","","","101.21","","","","-3","","NA"
"-73.58","45.50","MCTAVISH","7024745","2019-02-24 01:00","2019","02","24","01:00","-2.2","","-8.4","","62","","0.0","","1","","6","","","","101.09","","","","-5","","NA"
"-73.58","45.50","MCTAVISH","7024745","2019-02-24 02:00","2019","02","24","02:00","-2.3","","-8.3","","64","","0.0","","1","","8","","","","100.96","","","","-5","","NA"
"-73.58","45.50","MCTAVISH","7024745","2019-02-24 03:00","2019","02","24","03:00","-2.1","","-7.6","","66","","0.0","","36","","4","","","","100.79","","","","-4","","NA"
"-73.58","45.50","MCTAVISH","7024745","2019-02-24 04:00","2019","02","24","04:00","-1.8","","-7.3","","66","","0.0","","36","","8","","","","100.63","","","","-5","","NA"
"-73.58","45.50","MCTAVISH","7024745","2019-02-24 05:00","2019","02","24","05:00","0.0","","-7.3","","58","","0.0","","12","","6","","","","100.52","","","","-2","","NA"
"-73.58","45.50","MCTAVISH","7024745","2019-02-24 06:00","2019","02","24","06:00","-0.3","","-5.6","","67","","0.0","","11","","8","","","","100.33","","","","-3","","NA"
"-73.58","45.50","MCTAVISH","7024745","2019-02-24 07:00","2019","02","24","07:00","-0.3","","-3.4","","79","","0.6","","10","","4","","","","100.14","","","","-2","","NA"
"-73.58","45.50","MCTAVISH","7024745","2019-02-24 08:00","2019","02","24","08:00","-0.2","","-1.2","","93","","1.0","","12","","4","","","","99.93","","","","-1","","NA"
"-73.58","45.50","MCTAVISH","7024745","2019-02-24 09:00","2019","02","24","09:00","0.2","","-0.8","","93","","1.8","","16","","6","","","","99.66","","","","","","NA"
"-73.58","45.50","MCTAVISH","7024745","2019-02-24 10:00","2019","02","24","10:00","0.5","","-0.9","","90","","2.0","","15","","7","","","","99.35","","","","","","NA"
"-73.58","45.50","MCTAVISH","7024745","2019-02-24 11:00","2019","02","24","11:00","1.2","","-1.2","","84","","0.8","","16","","5","","","","99.05","","","","","","NA"
"-73.58","45.50","MCTAVISH","7024745","2019-02-24 12:00","2019","02","24","12:00","2.5","","-1.2","","77","","0.2","","19","","5","","","","98.91","","","","","","NA"
"-73.58","45.50","MCTAVISH","7024745","2019-02-24 13:00","2019","02","24","13:00","2.9","","-0.8","","77","","0.6","","17","","6","","","","98.62","","","","","","NA"
"-73.58","45.50","MCTAVISH","7024745","2019-02-24 14:00","2019","02","24","14:00","1.6","","-0.2","","88","","1.7","","18","","8","","","","98.54","","","","","","NA"
"-73.58","45.50","MCTAVISH","7024745","2019-02-24 15:00","2019","02","24","15:00","1.6","","0.5","","93","","2.1","","16","","7","","","","98.26","","","","","","NA"
"-73.58","45.50","MCTAVISH","7024745","2019-02-24 16:00","2019","02","24","16:00","2.1","","1.0","","92","","0.2","","17","","5","","","","98.06","","","","","","NA"
"-73.58","45.50","MCTAVISH","7024745","2019-02-24 17:00","2019","02","24","17:00","2.6","","1.2","","90","","0.0","","16","","5","","","","97.87","","","","","","NA"
"-73.58","45.50","MCTAVISH","7024745","2019-02-24 18:00","2019","02","24","18:00","2.8","","1.8","","93","","2.6","","20","","6","","","","97.79","","","","","","NA"
"-73.58","45.50","MCTAVISH","7024745","2019-02-24 19:00","2019","02","24","19:00","3.7","","0.3","","78","","1.0","","21","","16","","","","97.78","","","","","","NA"
"-73.58","45.50","MCTAVISH","7024745","2019-02-24 20:00","2019","02","24","20:00","1.1","","0.0","","92","","0.9","","20","","15","","","","97.77","","","","","","NA"
"-73.58","45.50","MCTAVISH","7024745","2019-02-24 21:00","2019","02","24","21:00","2.0","","-0.7","","82","","0.5","","21","","11","","","","97.73","","","","","","NA"
"-73.58","45.50","MCTAVISH","7024745","2019-02-24 22:00","2019","02","24","22:00","1.5","","-0.7","","85","","0.0","","21","","14","","","","97.69","","","","","","NA"
"-73.58","45.50","MCTAVISH","7024745","2019-02-24 23:00","2019","02","24","23:00","0.8","","-0.4","","92","","0.5","","20","","14","","","","97.66","","","","","","NA"
"-73.58","45.50","MCTAVISH","7024745","2019-02-25 00:00","2019","02","25","00:00","1.0","","-1.0","","86","","0.0","","20","","13","","","","97.66","","","","","","NA"
"-73.58","45.50","MCTAVISH","7024745","2019-02-25 01:00","2019","02","25","01:00","1.5","","-2.5","","75","","0.0","","19","","10","","","","97.66","","","","","","NA"
"-73.58","45.50","MCTAVISH","7024745","2019-02-25 02:00","2019","02","25","02:00","1.1","","-3.1","","73","","0.0","","20","","9","","","","97.69","","","","","","NA"
"-73.58","45.50","MCTAVISH","7024745","2019-02-25 03:00","2019","02","25","03:00","0.5","","-3.5","","74","","0.0","","20","","10","","","","97.69","","","","","","NA"
"-73.58","45.50","MCTAVISH","7024745","2019-02-25 04:00","2019","02","25","04:00","-0.2","","-4.9","","71","","0.0","","21","","13","","","","97.72","","","","-4","","NA"
"-73.58","45.50","MCTAVISH","7024745","2019-02-25 05:00","2019","02","25","05:00","-0.6","","-6.5","","64","","0.0","","20","","13","","","","97.77","","","","-5","","NA"
"-73.58","45.50","MCTAVISH","7024745","2019-02-25 06:00","2019","02","25","06:00","-1.1","","-7.3","","63","","0.0","","20","","8","","","","97.80","","","","-4","","NA"
"-73.58","45.50","MCTAVISH","7024745","2019-02-25 07:00","2019","02","25","07:00","-2.1","","-5.3","","79","","0.0","","21","","14","","","","97.92","","","","-7","","NA"
"-73.58","45.50","MCTAVISH","7024745","2019-02-25 08:00","2019","02","25","08:00","-1.7","","-7.5","","64","","0.0","","22","","11","","","","98.02","","","","-6","","NA"
"-73.58","45.50","MCTAVISH","7024745","2019-02-25 09:00","2019","02","25","09:00","-2.0","","-6.3","","73","","0.0","","20","","11","","","","98.14","","","","-6","","NA"
"-73.58","45.50","MCTAVISH","7024745","2019-02-25 10:00","2019","02","25","10:00","-3.2","","-8.0","","69","","0.2","","23","","11","","","","98.31","","","","-7","","NA"
"-73.58","45.50","MCTAVISH","7024745","2019-02-25 11:00","2019","02","25","11:00","-3.3","","-11.6","","52","","0.0","","29","","7","","","","98.53","","","","-6","","NA"
"-73.58","45.50","MCTAVISH","7024745","2019-02-25 12:00","2019","02","25","12:00","-4.7","","-13.6","","49","","0.0","","24","","9","","","","98.77","","","","-9","","NA"
"-73.58","45.50","MCTAVISH","7024745","2019-02-25 13:00","2019","02","25","13:00","-6.0","","-12.9","","58","","0.0","","28","","8","","","","98.95","","","","-10","","NA"
"-73.58","45.50","MCTAVISH","7024745","2019-02-25 14:00","2019","02","25","14:00","-5.9","","-12.8","","58","","0.0","","24","","9","","","","99.16","","","","-10","","NA"
"-73.58","45.50","MCTAVISH","7024745","2019-02-25 15:00","2019","02","25","15:00","-6.2","","-14.1","","54","","0.0","","7","","9","","","","99.40","","","","-10","","NA"
"-73.58","45.50","MCTAVISH","7024745","2019-02-25 16:00","2019","02","25","16:00","-7.6","","-15.1","","55","","0.0","","7","","8","","","","99.64","","","","-12","","NA"
"-73.58","45.50","MCTAVISH","7024745","2019-02-25 17:00","2019","02","25","17:00","-8.5","","-14.4","","62","","0.0","","22","","10","","","","99.88","","","","-13","","NA"
"-73.58","45.50","MCTAVISH","7024745","2019-02-25 18:00","2019","02","25","18:00","-8.4","","-14.7","","61","","0.0","","21","","7","","","","100.09","","","","-12","","NA"
"-73.58","45.50","MCTAVISH","7024745","2019-02-25 19:00","2019","02","25","19:00","-8.8","","-16.9","","52","","0.0","","9","","7","","","","100.30","","","","-13","","NA"
"-73.58","45.50","MCTAVISH","7024745","2019-02-25 20:00","2019","02","25","20:00","-9.3","","-17.4","","52","","0.0","","2","","12","","","","100.48","","","","-15","","NA"
"-73.58","45.50","MCTAVISH","7024745","2019-02-25 21:00","2019","02","25","21:00","-9.9","","-16.9","","56","","0.0","","4","","10","","","","100.62","","","","-15","","NA"
"-73.58","45.50","MCTAVISH","7024745","2019-02-25 22:00","2019","02","25","22:00","-10.5","","-17.6","","56","","0.0","","2","","13","","","","100.76","","","","-17","","NA"
"-73.58","45.50","MCTAVISH","7024745","2019-02-25 23:00","2019","02","25","23:00","-11.1","","-17.9","","57","","0.0","","15","","4","","","","100.88","","","","-14","","NA"
"-73.58","45.50","MCTAVISH","7024745","2019-02-26 00:00","2019","02","26","00:00","-11.9","","-18.9","","56","","0.0","","21","","7","","","","101.00","","","","-16","","NA"
"-73.58","45.50","MCTAVISH","7024745","2019-02-26 01:00","2019","02","26","01:00","-12.5","","-20.0","","53","","0.0","","22","","8","","","","101.12","","","","-17","","NA"
"-73.58","45.50","MCTAVISH","7024745","2019-02-26 02:00","2019","02","26","02:00","-13.1","","-20.3","","55","","0.0","","8","","6","","","","101.24","","","","-17","","NA"
"-73.58","45.50","MCTAVISH","7024745","2019-02-26 03:00","2019","02","26","03:00","-13.9","","-21.3","","54","","0.0","","23","","5","","","","101.35","","","","-17","","NA"
"-73.58","45.50","MCTAVISH","7024745","2019-02-26 04:00","2019","02","26","04:00","-14.7","","-21.8","","55","","0.0","","22","","6","","","","101.45","","","","-19","","NA"
"-73.58","45.50","MCTAVISH","7024745","2019-02-26 05:00","2019","02","26","05:00","-15.4","","-22.0","","57","","0.0","","21","","5","","","","101.57","","","","-19","","NA"
"-73.58","45.50","MCTAVISH","7024745","2019-02-26 06:00","2019","02","26","06:00","-15.6","","-22.2","","57","","0.0","","21","","6","","","","101.65","","","","-20","","NA"
"-73.58","45.50","MCTAVISH","7024745","2019-02-26 07:00","2019","02","26","07:00","-16.2","","-23.0","","56","","0.0","","28","","3","","","","101.69","","","","-18","","NA"
"-73.58","45.50","MCTAVISH","7024745","2019-02-26 08:00","2019","02","26","08:00","-15.9","","-23.5","","52","","0.0","","28","","5","","","","101.74","","","","-20","","NA"
"-73.58","45.50","MCTAVISH","7024745","2019-02-26 09:00","2019","02","26","09:00","-15.4","","-24.1","","47","","0.2","","29","","10","","","","101.75","","","","-22","","NA"
"-73.58","45.50","MCTAVISH","7024745","2019-02-26 10:00","2019","02","26","10:00","-14.9","","-24.0","","46","","0.0","","27","","7","","","","101.73","","","","-20","","NA"
"-73.58","45.50","MCTAVISH","7024745","2019-02-26 11:00","2019","02","26","11:00","-14.4","","-24.2","","43","","0.0","","36","","6","","","","101.72","","","","-19","","NA"
"-73.58","45.50","MCTAVISH","7024745","2019-02-26 12:00","2019","02","26","12:00","-14.2","","-24.5","","41","","0.0","","30","","8","","","","101.75","","","","-19","","NA"
"-73.58","45.50","MCTAVISH","7024745","2019-02-26 13:00","2019","02","26","13:00","-13.9","","-25.1","","38","","0.0","","1","","8","","","","101.75","","","","-19","","NA"
"-73.58","45.50","MCTAVISH","7024745","2019-02-26 14:00","2019","02","26","14:00","-13.2","","-24.2","","39","","0.0","","4","","7","","","","101.76","","","","-18","","NA"
"-73.58","45.50","MCTAVISH","7024745","2019-02-26 15:00","2019","02","26","15:00","-13.0","","-23.9","","40","","0.0","","35","","8","","","","101.80","","","","-18","","NA"
"-73.58","45.50","MCTAVISH","7024745","2019-02-26 16:00","2019","02","26","16:00","-13.1","","-23.6","","41","","0.0","","1","","12","","","","101.84","","","","-20","","NA"
"-73.58","45.50","MCTAVISH","7024745","2019-02-26 17:00","2019","02","26","17:00","-13.5","","-23.3","","44","","0.0","","1","","10","","","","101.91","","","","-19","","NA"
"-73.58","45.50","MCTAVISH","7024745","2019-02-26 18:00","2019","02","26","18:00","-13.9","","-22.7","","47","","0.0","","3","","7","","","","102.01","","","","-19","","NA"
"-73.58","45.50","MCTAVISH","7024745","2019-02-26 19:00","2019","02","26","19:00","-14.2","","-22.7","","49","","0.0","","1","","8","","","","102.10","","","","-19","","NA"
"-73.58","45.50","MCTAVISH","7024745","2019-02-26 20:00","2019","02","26","20:00","-14.7","","-22.6","","51","","0.0","","1","","8","","","","102.13","","","","-20","","NA"
"-73.58","45.50","MCTAVISH","7024745","2019-02-26 21:00","2019","02","26","21:00","-15.3","","-23.0","","52","","0.0","","1","","6","","","","102.19","","","","-20","","NA"
"-73.58","45.50","MCTAVISH","7024745","2019-02-26 22:00","2019","02","26","22:00","-16.0","","-23.7","","52","","0.0","","36","","6","","","","102.25","","","","-20","","NA"
"-73.58","45.50","MCTAVISH","7024745","2019-02-26 23:00","2019","02","26","23:00","-16.6","","-23.9","","53","","0.0","","35","","4","","","","102.33","","","","-20","","NA"
"-73.58","45.50","MCTAVISH","7024745","2019-02-27 00:00","2019","02","27","00:00","-16.9","","-23.7","","56","","0.0","","36","","7","","","","102.38","","","","-22","","NA"
"-73.58","45.50","MCTAVISH","7024745","2019-02-27 01:00","2019","02","27","01:00","-17.4","","-24.8","","53","","0.0","","32","","8","","","","102.46","","","","-23","","NA"
"-73.58","45.50","MCTAVISH","7024745","2019-02-27 02:00","2019","02","27","02:00","-17.8","","-24.3","","57","","0.0","","26","","4","","","","102.45","","","","-21","","NA"
"-73.58","45.50","MCTAVISH","7024745","2019-02-27 03:00","2019","02","27","03:00","-18.0","","-23.9","","60","","0.0","","27","","7","","","","102.42","","","","-23","","NA"
"-73.58","45.50","MCTAVISH","7024745","2019-02-27 04:00","2019","02","27","04:00","-18.1","","-23.9","","61","","0.0","","27","","8","","","","102.42","","","","-24","","NA"
"-73.58","45.50","MCTAVISH","7024745","2019-02-27 05:00","2019","02","27","05:00","-18.5","","-23.9","","63","","0.0","","29","","5","","","","102.43","","","","-23","","NA"
"-73.58","45.50","MCTAVISH","7024745","2019-02-27 06:00","2019","02","27","06:00","-18.6","","-24.2","","61","","0.0","","30","","8","","","","102.39","","","","-25","","NA"
"-73.58","45.50","MCTAVISH","7024745","2019-02-27 07:00","2019","02","27","07:00","-18.2","","-23.7","","62","","0.0","","30","","7","","","","102.41","","","","-24","","NA"
"-73.58","45.50","MCTAVISH","7024745","2019-02-27 08:00","2019","02","27","08:00","-17.2","","-23.8","","56","","0.0","","31","","7","","","","102.39","","","","-22","","NA"
"-73.58","45.50","MCTAVISH","7024745","2019-02-27 09:00","2019","02","27","09:00","-16.2","","-23.2","","55","","0.0","","35","","9","","","","102.25","","","","-22","","NA"
"-73.58","45.50","MCTAVISH","7024745","2019-02-27 10:00","2019","02","27","10:00","-15.1","","-23.4","","49","","0.0","","3","","7","","","","102.20","","","","-20","","NA"
"-73.58","45.50","MCTAVISH","7024745","2019-02-27 11:00","2019","02","27","11:00","-14.9","","-23.8","","47","","0.0","","29","","8","","","","102.13","","","","-20","","NA"
"-73.58","45.50","MCTAVISH","7024745","2019-02-27 12:00","2019","02","27","12:00","-14.4","","-22.9","","48","","0.0","","30","","6","","","","102.04","","","","-19","","NA"
"-73.58","45.50","MCTAVISH","7024745","2019-02-27 13:00","2019","02","27","13:00","-14.1","","-23.4","","45","","0.0","","26","","5","","","","101.85","","","","-18","","NA"
"-73.58","45.50","MCTAVISH","7024745","2019-02-27 14:00","2019","02","27","14:00","-13.5","","-22.8","","45","","0.0","","21","","6","","","","101.79","","","","-18","","NA"
"-73.58","45.50","MCTAVISH","7024745","2019-02-27 15:00","2019","02","27","15:00","-13.7","","-22.9","","46","","0.0","","30","","6","","","","101.73","","","","-18","","NA"
"-73.58","45.50","MCTAVISH","7024745","2019-02-27 16:00","2019","02","27","16:00","-13.4","","-23.0","","44","","0.0","","24","","4","","","","101.66","","","","-16","","NA"
"-73.58","45.50","MCTAVISH","7024745","2019-02-27 17:00","2019","02","27","17:00","-13.4","","-23.1","","44","","0.0","","18","","9","","","","101.56","","","","-19","","NA"
"-73.58","45.50","MCTAVISH","7024745","2019-02-27 18:00","2019","02","27","18:00","-13.8","","-21.3","","53","","0.0","","16","","5","","","","101.50","","","","-17","","NA"
"-73.58","45.50","MCTAVISH","7024745","2019-02-27 19:00","2019","02","27","19:00","-14.0","","-20.9","","56","","0.0","","16","","6","","","","101.43","","","","-18","","NA"
"-73.58","45.50","MCTAVISH","7024745","2019-02-27 20:00","2019","02","27","20:00","-14.1","","-21.1","","56","","0.0","","18","","7","","","","101.35","","","","-19","","NA"
"-73.58","45.50","MCTAVISH","7024745","2019-02-27 21:00","2019","02","27","21:00","-13.9","","-20.8","","56","","0.0","","17","","6","","","","101.29","","","","-18","","NA"
"-73.58","45.50","MCTAVISH","7024745","2019-02-27 22:00","2019","02","27","22:00","-14.0","","-22.2","","50","","0.0","","21","","4","","","","101.25","","","","-17","","NA"
"-73.58","45.50","MCTAVISH","7024745","2019-02-27 23:00","2019","02","27","23:00","-14.2","","-20.7","","58","","0.0","","34","","6","","","","101.19","","","","-18","","NA"
"-73.58","45.50","MCTAVISH","7024745","2019-02-28 00:00","2019","02","28","00:00","-14.2","","-21.6","","54","","0.0","","3","","4","","","","101.15","","","","-17","","NA"
"-73.58","45.50","MCTAVISH","7024745","2019-02-28 01:00","2019","02","28","01:00","-14.4","","-19.9","","63","","0.0","","1","","8","","","","101.13","","","","-20","","NA"
"-73.58","45.50","MCTAVISH","7024745","2019-02-28 02:00","2019","02","28","02:00","-14.9","","-19.2","","70","","0.0","","1","","7","","","","101.12","","","","-20","","NA"
"-73.58","45.50","MCTAVISH","7024745","2019-02-28 03:00","2019","02","28","03:00","-15.4","","-19.3","","73","","0.0","","36","","11","","","","101.12","","","","-22","","NA"
"-73.58","45.50","MCTAVISH","7024745","2019-02-28 04:00","2019","02","28","04:00","-15.9","","-19.7","","73","","0.0","","36","","9","","","","101.17","","","","-22","","NA"
"-73.58","45.50","MCTAVISH","7024745","2019-02-28 05:00","2019","02","28","05:00","-16.4","","-19.6","","76","","0.0","","1","","7","","","","101.29","","","","-21","","NA"
"-73.58","45.50","MCTAVISH","7024745","2019-02-28 06:00","2019","02","28","06:00","-16.1","","-19.1","","78","","0.0","","2","","7","","","","101.36","","","","-21","","NA"
"-73.58","45.50","MCTAVISH","7024745","2019-02-28 07:00","2019","02","28","07:00","-16.1","","-20.4","","69","","0.0","","2","","6","","","","101.42","","","","-21","","NA"
"-73.58","45.50","MCTAVISH","7024745","2019-02-28 08:00","2019","02","28","08:00","-14.6","","-20.5","","61","","0.0","","4","","5","","","","101.50","","","","-18","","NA"
"-73.58","45.50","MCTAVISH","7024745","2019-02-28 09:00","2019","02","28","09:00","-12.9","","-20.4","","54","","0.0","","1","","5","","","","101.55","","","","-16","","NA"
"-73.58","45.50","MCTAVISH","7024745","2019-02-28 10:00","2019","02","28","10:00","-11.8","","-19.7","","52","","0.0","","29","","6","","","","101.58","","","","-16","","NA"
"-73.58","45.50","MCTAVISH","7024745","2019-02-28 11:00","2019","02","28","11:00","-10.0","","-18.5","","50","","0.0","","27","","5","","","","101.59","","","","-13","","NA"
"-73.58","45.50","MCTAVISH","7024745","2019-02-28 12:00","2019","02","28","12:00","-10.3","","-18.9","","49","","0.0","","27","","10","","","","101.63","","","","-16","","NA"
"-73.58","45.50","MCTAVISH","7024745","2019-02-28 13:00","2019","02","28","13:00","-9.0","","-18.0","","48","","0.0","","24","","7","","","","101.59","","","","-13","","NA"
"-73.58","45.50","MCTAVISH","7024745","2019-02-28 14:00","2019","02","28","14:00","-8.1","","-17.3","","48","","0.0","","25","","6","","","","101.56","","","","-11","","NA"
"-73.58","45.50","MCTAVISH","7024745","2019-02-28 15:00","2019","02","28","15:00","-8.0","","-17.1","","48","","0.0","","29","","7","","","","101.55","","","","-12","","NA"
"-73.58","45.50","MCTAVISH","7024745","2019-02-28 16:00","2019","02","28","16:00","-8.2","","-16.3","","52","","0.0","","24","","7","","","","101.54","","","","-12","","NA"
"-73.58","45.50","MCTAVISH","7024745","2019-02-28 17:00","2019","02","28","17:00","-8.3","","-16.1","","53","","0.0","","25","","4","","","","101.59","","","","-10","","NA"
"-73.58","45.50","MCTAVISH","7024745","2019-02-28 18:00","2019","02","28","18:00","-9.0","","-17.1","","52","","0.0","","23","","5","","","","101.58","","","","-12","","NA"
"-73.58","45.50","MCTAVISH","7024745","2019-02-28 19:00","2019","02","28","19:00","-8.9","","-17.3","","50","","0.0","","26","","8","","","","101.66","","","","-13","","NA"
"-73.58","45.50","MCTAVISH","7024745","2019-02-28 20:00","2019","02","28","20:00","-9.1","","-17.6","","50","","0.0","","28","","6","","","","101.69","","","","-12","","NA"
"-73.58","45.50","MCTAVISH","7024745","2019-02-28 21:00","2019","02","28","21:00","-9.7","","-16.9","","56","","0.0","","21","","3","","","","101.73","","","","-11","","NA"
"-73.58","45.50","MCTAVISH","7024745","2019-02-28 22:00","2019","02","28","22:00","-10.3","","-18.1","","53","","0.0","","27","","7","","","","101.71","","","","-14","","NA"
"-73.58","45.50","MCTAVISH","7024745","2019-02-28 23:00","2019","02","28","23:00","-11.1","","-16.9","","62","","0.0","","23","","2","","","","101.70","","","","-12","","NA"
