"Longitude (x)","Latitude (y)","Station Name","Climate ID","Date/Time (LST)","Year","Month","Day","Time (LST)","Temp (°C)","Temp Flag","Dew Point Temp (°C)","Dew Point Temp Flag","Rel Hum (%)","Rel Hum Flag","Precip. Amount (mm)","Precip. Amount Flag","Wind Dir (10s deg)","Wind Dir Flag","Wind Spd (km/h)","Wind Spd Flag","Visibility (km)","Visibility Flag","Stn Press (kPa)","Stn Press Flag","Hmdx","Hmdx Flag","Wind Chill","Wind Chill Flag","Weather"
"-73.58","45.50","MCTAVISH","7024745","2015-02-01 00:00","2015","02","01","00:00","-14.0","","-19.0","","66","","","","11","","3","","","","101.03","","","","-16","","NA"
"-73.58","45.50","MCTAVISH","7024745","2015-02-01 01:00","2015","02","01","01:00","-14.6","","-18.2","","74","","","","18","","3","","","","100.98","","","","-17","","NA"
"-73.58","45.50","MCTAVISH","7024745","2015-02-01 02:00","2015","02","01","02:00","-14.0","","-17.1","","77","","","","24","","4","","","","100.99","","","","-17","","NA"
"-73.58","45.50","MCTAVISH","7024745","2015-02-01 03:00","2015","02","01","03:00","-14.4","","-17.4","","77","","","","24","","14","","","","101.00","","","","-22","","NA"
"-73.58","45.50","MCTAVISH","7024745","2015-02-01 04:00","2015","02","01","04:00","-14.7","","-18.0","","76","","","","24","","16","","","","101.04","","","","-23","","NA"
"-73.58","45.50","MCTAVISH","7024745","2015-02-01 05:00","2015","02","01","05:00","-14.3","","-18.2","","73","","","","25","","9","","","","101.16","","","","-20","","NA"
"-73.58","45.50","MCTAVISH","7024745","2015-02-01 06:00","2015","02","01","06:00","-14.1","","-18.4","","70","","","","29","","10","","","","101.26","","","","-20","","NA"
"-73.58","45.50","MCTAVISH","7024745","2015-02-01 07:00","2015","02","01","07:00","-15.2","","-18.9","","73","","","","29","","8","","","","101.38","","","","-21","","NA"
"-73.58","45.50","MCTAVISH","7024745","2015-02-01 08:00","2015","02","01","08:00","-16.0","","-20.8","","66","","","","2","","4","","","","101.48","","","","-19","","NA"
"-73.58","45.50","MCTAVISH","7024745","2015-02-01 09:00","2015","02","01","09:00","-15.6","","-23.0","","53","","","","7","","4","","","","101.58","","","","-19","","NA"
"-73.58","45.50","MCTAVISH","7024745","2015-02-01 10:00","2015","02","01","10:00","-15.8","","-23.4","","52","","","","5","","4","","","","101.64","","","","-19","","NA"
"-73.58","45.50","MCTAVISH","7024745","2015-02-01 11:00","2015","02","01","11:00","-15.8","","-24.6","","47","","","","34","","4","","","","101.65","","","","-19","","NA"
"-73.58","45.50","MCTAVISH","7024745","2015-02-01 12:00","2015","02","01","12:00","-15.2","","-25.1","","42","","","","24","","6","","","","101.61","","","","-19","","NA"
"-73.58","45.50","MCTAVISH","7024745","2015-02-01 13:00","2015","02","01","13:00","-14.5","","-23.5","","47","","","","27","","7","","","","101.53","","","","-19","","NA"
"-73.58","45.50","MCTAVISH","7024745","2015-02-01 14:00","2015","02","01","14:00","-13.5","","-24.3","","40","","","","23","","4","","","","101.48","","","","-16","","NA"
"-73.58","45.50","MCTAVISH","7024745","2015-02-01 15:00","2015","02","01","15:00","-14.0","","-24.4","","41","","","","25","","5","","","","101.53","","","","-17","","NA"
"-73.58","45.50","MCTAVISH","7024745","2015-02-01 16:00","2015","02","01","16:00","-14.9","","-23.5","","48","","","","21","","8","","","","101.53","","","","-20","","NA"
"-73.58","45.50","MCTAVISH","7024745","2015-02-01 17:00","2015","02","01","17:00","-15.9","","-23.9","","51","","","","22","","10","","","","101.56","","","","-22","","NA"
"-73.58","45.50","MCTAVISH","7024745","2015-02-01 18:00","2015","02","01","18:00","-16.5","","-24.4","","51","","","","24","","12","","","","101.58","","","","-24","","NA"
"-73.58","45.50","MCTAVISH","7024745","2015-02-01 19:00","2015","02","01","19:00","-16.2","","-25.4","","45","","","","26","","8","","","","101.51","","","","-22","","NA"
"-73.58","45.50","MCTAVISH","7024745","2015-02-01 20:00","2015","02","01","20:00","-15.9","","-24.0","","50","","","","9","","2","","","","101.47","","","","-17","","NA"
"-73.58","45.50","MCTAVISH","7024745","2015-02-01 21:00","2015","02","01","21:00","-16.1","","-24.3","","49","","","","5","","6","","","","101.41","","","","-21","","NA"
"-73.58","45.50","MCTAVISH","7024745","2015-02-01 22:00","2015","02","01","22:00","-16.9","","-26.0","","45","","","","2","","5","","","","101.38","","","","-21","","NA"
"-73.58","45.50","MCTAVISH","7024745","2015-02-01 23:00","2015","02","01","23:00","-18.6","","-26.8","","49","","","","5","","8","","","","101.37","","","","-25","","NA"
"-73.58","45.50","MCTAVISH","7024745","2015-02-02 00:00","2015","02","02","00:00","-19.5","","-27.1","","51","","","","4","","8","","","","101.37","","","","-26","","NA"
"-73.58","45.50","MCTAVISH","7024745","2015-02-02 01:00","2015","02","02","01:00","-20.0","","-27.4","","51","","","","4","","11","","","","101.28","","","","-28","","NA"
"-73.58","45.50","MCTAVISH","7024745","2015-02-02 02:00","2015","02","02","02:00","-20.2","","-26.9","","55","","","","4","","8","","","","101.18","","","","-26","","NA"
"-73.58","45.50","MCTAVISH","7024745","2015-02-02 03:00","2015","02","02","03:00","-20.9","","-27.6","","55","","","","3","","10","","","","101.15","","","","-28","","NA"
"-73.58","45.50","MCTAVISH","7024745","2015-02-02 04:00","2015","02","02","04:00","-21.4","","-28.0","","55","","","","3","","12","","","","101.01","","","","-30","","NA"
"-73.58","45.50","MCTAVISH","7024745","2015-02-02 05:00","2015","02","02","05:00","-21.5","","-27.0","","61","","","","4","","8","","","","100.83","","","","-28","","NA"
"-73.58","45.50","MCTAVISH","7024745","2015-02-02 06:00","2015","02","02","06:00","-22.2","","-27.2","","64","","","","4","","8","","","","100.71","","","","-29","","NA"
"-73.58","45.50","MCTAVISH","7024745","2015-02-02 07:00","2015","02","02","07:00","-22.3","","-26.7","","67","","","","4","","7","","","","100.67","","","","-28","","NA"
"-73.58","45.50","MCTAVISH","7024745","2015-02-02 08:00","2015","02","02","08:00","-22.3","","-25.9","","72","","","","4","","10","","","","100.58","","","","-30","","NA"
"-73.58","45.50","MCTAVISH","7024745","2015-02-02 09:00","2015","02","02","09:00","-22.5","","-25.9","","74","","","","4","","11","","","","100.52","","","","-31","","NA"
"-73.58","45.50","MCTAVISH","7024745","2015-02-02 10:00","2015","02","02","10:00","-22.2","","-25.3","","75","","","","5","","7","","","","100.39","","","","-28","","NA"
"-73.58","45.50","MCTAVISH","7024745","2015-02-02 11:00","2015","02","02","11:00","-21.2","","-24.2","","77","","","","4","","10","","","","100.31","","","","-29","","NA"
"-73.58","45.50","MCTAVISH","7024745","2015-02-02 12:00","2015","02","02","12:00","-20.5","","-23.4","","77","","","","4","","11","","","","100.22","","","","-28","","NA"
"-73.58","45.50","MCTAVISH","7024745","2015-02-02 13:00","2015","02","02","13:00","-19.7","","-22.4","","79","","","","5","","7","","","","100.10","","","","-25","","NA"
"-73.58","45.50","MCTAVISH","7024745","2015-02-02 14:00","2015","02","02","14:00","-19.0","","-21.6","","80","","","","4","","9","","","","100.03","","","","-26","","NA"
"-73.58","45.50","MCTAVISH","7024745","2015-02-02 15:00","2015","02","02","15:00","-18.4","","-21.0","","80","","","","5","","8","","","","100.06","","","","-24","","NA"
"-73.58","45.50","MCTAVISH","7024745","2015-02-02 16:00","2015","02","02","16:00","-17.8","","-20.2","","81","","","","4","","8","","","","100.01","","","","-24","","NA"
"-73.58","45.50","MCTAVISH","7024745","2015-02-02 17:00","2015","02","02","17:00","-17.4","","-19.8","","81","","","","5","","6","","","","100.16","","","","-22","","NA"
"-73.58","45.50","MCTAVISH","7024745","2015-02-02 18:00","2015","02","02","18:00","-17.4","","-19.8","","81","","","","7","","5","","","","100.28","","","","-21","","NA"
"-73.58","45.50","MCTAVISH","7024745","2015-02-02 19:00","2015","02","02","19:00","-17.2","","-19.7","","81","","","","7","","5","","","","100.35","","","","-21","","NA"
"-73.58","45.50","MCTAVISH","7024745","2015-02-02 20:00","2015","02","02","20:00","-17.3","","-20.1","","79","","","","7","","4","","","","100.41","","","","-20","","NA"
"-73.58","45.50","MCTAVISH","7024745","2015-02-02 21:00","2015","02","02","21:00","-17.2","","-20.0","","79","","","","8","","3","","","","100.43","","","","-20","","NA"
"-73.58","45.50","MCTAVISH","7024745","2015-02-02 22:00","2015","02","02","22:00","-17.0","","-19.7","","79","","","","28","","2","","","","100.54","","","","-19","","NA"
"-73.58","45.50","MCTAVISH","7024745","2015-02-02 23:00","2015","02","02","23:00","-18.0","","-20.7","","79","","","","25","","8","","","","100.61","","","","-24","","NA"
"-73.58","45.50","MCTAVISH","7024745","2015-02-03 00:00","2015","02","03","00:00","-18.5","","-20.9","","81","","","","23","","9","","","","100.66","","","","-25","","NA"
"-73.58","45.50","MCTAVISH","7024745","2015-02-03 01:00","2015","02","03","01:00","-18.9","","-21.2","","82","","","","22","","9","","","","100.66","","","","-25","","NA"
"-73.58","45.50","MCTAVISH","7024745","2015-02-03 02:00","2015","02","03","02:00","-20.3","","-23.0","","79","","","","24","","12","","","","100.69","","","","-28","","NA"
"-73.58","45.50","MCTAVISH","7024745","2015-02-03 03:00","2015","02","03","03:00","-20.8","","-23.4","","79","","","","20","","7","","","","100.72","","","","-27","","NA"
"-73.58","45.50","MCTAVISH","7024745","2015-02-03 04:00","2015","02","03","04:00","-21.4","","-24.3","","77","","","","20","","7","","","","100.73","","","","-27","","NA"
"-73.58","45.50","MCTAVISH","7024745","2015-02-03 05:00","2015","02","03","05:00","-21.5","","-24.8","","75","","","","21","","8","","","","100.81","","","","-28","","NA"
"-73.58","45.50","MCTAVISH","7024745","2015-02-03 06:00","2015","02","03","06:00","-20.6","","-24.2","","73","","","","22","","12","","","","100.85","","","","-29","","NA"
"-73.58","45.50","MCTAVISH","7024745","2015-02-03 07:00","2015","02","03","07:00","-21.3","","-25.0","","72","","","","24","","14","","","","100.91","","","","-30","","NA"
"-73.58","45.50","MCTAVISH","7024745","2015-02-03 08:00","2015","02","03","08:00","-21.4","","-24.7","","74","","","","23","","14","","","","100.99","","","","-30","","NA"
"-73.58","45.50","MCTAVISH","7024745","2015-02-03 09:00","2015","02","03","09:00","-19.7","","-23.6","","71","","","","21","","12","","","","101.07","","","","-28","","NA"
"-73.58","45.50","MCTAVISH","7024745","2015-02-03 10:00","2015","02","03","10:00","-17.8","","-22.2","","69","","","","22","","12","","","","101.10","","","","-25","","NA"
"-73.58","45.50","MCTAVISH","7024745","2015-02-03 11:00","2015","02","03","11:00","-16.5","","-21.1","","68","","","","18","","10","","","","101.12","","","","-23","","NA"
"-73.58","45.50","MCTAVISH","7024745","2015-02-03 12:00","2015","02","03","12:00","-14.2","","-20.3","","60","","","","19","","12","","","","101.07","","","","-21","","NA"
"-73.58","45.50","MCTAVISH","7024745","2015-02-03 13:00","2015","02","03","13:00","-12.6","","-20.7","","51","","","","19","","15","","","","101.00","","","","-20","","NA"
"-73.58","45.50","MCTAVISH","7024745","2015-02-03 14:00","2015","02","03","14:00","-12.4","","-19.0","","58","","","","17","","6","","","","100.93","","","","-16","","NA"
"-73.58","45.50","MCTAVISH","7024745","2015-02-03 15:00","2015","02","03","15:00","-11.2","","-16.6","","64","","","","18","","7","","","","100.90","","","","-15","","NA"
"-73.58","45.50","MCTAVISH","7024745","2015-02-03 16:00","2015","02","03","16:00","-11.0","","-14.7","","74","","","","18","","6","","","","100.89","","","","-15","","NA"
"-73.58","45.50","MCTAVISH","7024745","2015-02-03 17:00","2015","02","03","17:00","-11.2","","-14.0","","80","","","","20","","7","","","","100.93","","","","-15","","NA"
"-73.58","45.50","MCTAVISH","7024745","2015-02-03 18:00","2015","02","03","18:00","-10.9","","-13.0","","85","","","","19","","9","","","","100.98","","","","-16","","NA"
"-73.58","45.50","MCTAVISH","7024745","2015-02-03 19:00","2015","02","03","19:00","-10.4","","-12.4","","86","","","","19","","9","","","","101.01","","","","-15","","NA"
"-73.58","45.50","MCTAVISH","7024745","2015-02-03 20:00","2015","02","03","20:00","-9.8","","-11.6","","86","","","","19","","9","","","","101.05","","","","-15","","NA"
"-73.58","45.50","MCTAVISH","7024745","2015-02-03 21:00","2015","02","03","21:00","-9.0","","-10.7","","88","","","","19","","8","","","","101.06","","","","-13","","NA"
"-73.58","45.50","MCTAVISH","7024745","2015-02-03 22:00","2015","02","03","22:00","-8.4","","-10.1","","88","","","","20","","8","","","","101.06","","","","-13","","NA"
"-73.58","45.50","MCTAVISH","7024745","2015-02-03 23:00","2015","02","03","23:00","-8.6","","-10.2","","88","","","","19","","6","","","","101.07","","","","-12","","NA"
"-73.58","45.50","MCTAVISH","7024745","2015-02-04 00:00","2015","02","04","00:00","-7.4","","-9.5","","85","","","","18","","6","","","","101.07","","","","-11","","NA"
"-73.58","45.50","MCTAVISH","7024745","2015-02-04 01:00","2015","02","04","01:00","-7.1","","-9.5","","83","","","","18","","6","","","","101.06","","","","-10","","NA"
"-73.58","45.50","MCTAVISH","7024745","2015-02-04 02:00","2015","02","04","02:00","-6.8","","-9.6","","80","","","","18","","5","","","","101.05","","","","-9","","NA"
"-73.58","45.50","MCTAVISH","7024745","2015-02-04 03:00","2015","02","04","03:00","-6.5","","-9.6","","79","","","","18","","6","","","","101.03","","","","-9","","NA"
"-73.58","45.50","MCTAVISH","7024745","2015-02-04 04:00","2015","02","04","04:00","-6.6","","-9.9","","77","","","","18","","7","","","","100.98","","","","-10","","NA"
"-73.58","45.50","MCTAVISH","7024745","2015-02-04 05:00","2015","02","04","05:00","-7.6","","-10.6","","79","","","","19","","8","","","","100.97","","","","-12","","NA"
"-73.58","45.50","MCTAVISH","7024745","2015-02-04 06:00","2015","02","04","06:00","-7.7","","-9.2","","89","","","","16","","4","","","","100.92","","","","-10","","NA"
"-73.58","45.50","MCTAVISH","7024745","2015-02-04 07:00","2015","02","04","07:00","-7.8","","-9.2","","90","","","","18","","5","","","","100.90","","","","-10","","NA"
"-73.58","45.50","MCTAVISH","7024745","2015-02-04 08:00","2015","02","04","08:00","-7.5","","-8.9","","90","","","","17","","5","","","","100.90","","","","-10","","NA"
"-73.58","45.50","MCTAVISH","7024745","2015-02-04 09:00","2015","02","04","09:00","-7.3","","-9.0","","87","","","","16","","4","","","","100.86","","","","-9","","NA"
"-73.58","45.50","MCTAVISH","7024745","2015-02-04 10:00","2015","02","04","10:00","-6.8","","-8.7","","86","","","","16","","5","","","","100.80","","","","-9","","NA"
"-73.58","45.50","MCTAVISH","7024745","2015-02-04 11:00","2015","02","04","11:00","-6.4","","-8.4","","86","","","","17","","7","","","","100.73","","","","-10","","NA"
"-73.58","45.50","MCTAVISH","7024745","2015-02-04 12:00","2015","02","04","12:00","-5.9","","-7.9","","86","","","","15","","5","","","","100.59","","","","-8","","NA"
"-73.58","45.50","MCTAVISH","7024745","2015-02-04 13:00","2015","02","04","13:00","-5.1","","-7.0","","87","","","","17","","5","","","","100.46","","","","-7","","NA"
"-73.58","45.50","MCTAVISH","7024745","2015-02-04 14:00","2015","02","04","14:00","-4.6","","-6.3","","88","","","","15","","5","","","","100.34","","","","-7","","NA"
"-73.58","45.50","MCTAVISH","7024745","2015-02-04 15:00","2015","02","04","15:00","-4.3","","-6.3","","86","","","","17","","5","","","","100.26","","","","-6","","NA"
"-73.58","45.50","MCTAVISH","7024745","2015-02-04 16:00","2015","02","04","16:00","-4.4","","-5.8","","90","","","","18","","5","","","","100.21","","","","-7","","NA"
"-73.58","45.50","MCTAVISH","7024745","2015-02-04 17:00","2015","02","04","17:00","-4.1","","-5.3","","91","","","","18","","5","","","","100.17","","","","-6","","NA"
"-73.58","45.50","MCTAVISH","7024745","2015-02-04 18:00","2015","02","04","18:00","-3.8","","-4.8","","93","","","","19","","7","","","","100.13","","","","-7","","NA"
"-73.58","45.50","MCTAVISH","7024745","2015-02-04 19:00","2015","02","04","19:00","-3.8","","-4.8","","93","","","","25","","4","","","","100.15","","","","-5","","NA"
"-73.58","45.50","MCTAVISH","7024745","2015-02-04 20:00","2015","02","04","20:00","-5.9","","-7.0","","92","","","","","","0","","","","100.22","","","","","","NA"
"-73.58","45.50","MCTAVISH","7024745","2015-02-04 21:00","2015","02","04","21:00","-6.9","","-8.1","","91","","","","28","","2","","","","100.25","","","","-8","","NA"
"-73.58","45.50","MCTAVISH","7024745","2015-02-04 22:00","2015","02","04","22:00","-6.5","","-7.8","","91","","","","25","","3","","","","100.27","","","","-8","","NA"
"-73.58","45.50","MCTAVISH","7024745","2015-02-04 23:00","2015","02","04","23:00","-6.4","","-7.9","","89","","","","20","","4","","","","100.31","","","","-8","","NA"
"-73.58","45.50","MCTAVISH","7024745","2015-02-05 00:00","2015","02","05","00:00","-6.6","","-8.1","","89","","","","28","","7","","","","100.37","","","","-10","","NA"
"-73.58","45.50","MCTAVISH","7024745","2015-02-05 01:00","2015","02","05","01:00","-6.7","","-8.0","","90","","","","4","","3","","","","100.45","","","","-8","","NA"
"-73.58","45.50","MCTAVISH","7024745","2015-02-05 02:00","2015","02","05","02:00","-7.4","","-10.2","","81","","","","28","","4","","","","100.52","","","","-9","","NA"
"-73.58","45.50","MCTAVISH","7024745","2015-02-05 03:00","2015","02","05","03:00","-8.9","","-13.7","","68","","","","33","","5","","","","100.61","","","","-12","","NA"
"-73.58","45.50","MCTAVISH","7024745","2015-02-05 04:00","2015","02","05","04:00","-10.0","","-15.4","","64","","","","10","","4","","","","100.67","","","","-12","","NA"
"-73.58","45.50","MCTAVISH","7024745","2015-02-05 05:00","2015","02","05","05:00","-10.8","","-17.0","","60","","","","33","","3","","","","100.77","","","","-13","","NA"
"-73.58","45.50","MCTAVISH","7024745","2015-02-05 06:00","2015","02","05","06:00","-12.0","","-18.5","","59","","","","2","","3","","","","100.88","","","","-14","","NA"
"-73.58","45.50","MCTAVISH","7024745","2015-02-05 07:00","2015","02","05","07:00","-13.4","","-20.6","","55","","","","29","","4","","","","100.99","","","","-16","","NA"
"-73.58","45.50","MCTAVISH","7024745","2015-02-05 08:00","2015","02","05","08:00","-13.9","","-20.5","","57","","","","33","","5","","","","101.10","","","","-17","","NA"
"-73.58","45.50","MCTAVISH","7024745","2015-02-05 09:00","2015","02","05","09:00","-13.8","","-20.2","","58","","","","34","","4","","","","101.23","","","","-17","","NA"
"-73.58","45.50","MCTAVISH","7024745","2015-02-05 10:00","2015","02","05","10:00"
"-73.58","45.50","MCTAVISH","7024745","2015-02-05 11:00","2015","02","05","11:00"
"-73.58","45.50","MCTAVISH","7024745","2015-02-05 12:00","2015","02","05","12:00","-12.9","","-22.5","","44","","","","26","","5","","","","101.31","","","","-16","","NA"
"-73.58","45.50","MCTAVISH","7024745","2015-02-05 13:00","2015","02","05","13:00","-12.8","","-23.1","","42","","","","26","","6","","","","101.24","","","","-17","","NA"
"-73.58","45.50","MCTAVISH","7024745","2015-02-05 14:00","2015","02","05","14:00","-12.4","","-23.0","","41","","","","24","","6","","","","101.21","","","","-16","","NA"
"-73.58","45.50","MCTAVISH","7024745","2015-02-05 15:00","2015","02","05","15:00","-11.9","","-22.2","","42","","","","19","","6","","","","101.21","","","","-16","","NA"
"-73.58","45.50","MCTAVISH","7024745","2015-02-05 16:00","2015","02","05","16:00","-12.0","","-22.2","","43","","","","26","","5","","","","101.21","","","","-15","","NA"
"-73.58","45.50","MCTAVISH","7024745","2015-02-05 17:00","2015","02","05","17:00","-13.2","","-21.8","","48","","","","21","","4","","","","101.25","","","","-16","","NA"
"-73.58","45.50","MCTAVISH","7024745","2015-02-05 18:00","2015","02","05","18:00","-14.1","","-21.7","","53","","","","18","","4","","","","101.27","","","","-17","","NA"
"-73.58","45.50","MCTAVISH","7024745","2015-02-05 19:00","2015","02","05","19:00","-14.7","","-22.4","","52","","","","21","","5","","","","101.29","","","","-18","","NA"
"-73.58","45.50","MCTAVISH","7024745","2015-02-05 20:00","2015","02","05","20:00","-15.1","","-22.5","","53","","","","23","","5","","","","101.33","","","","-19","","NA"
"-73.58","45.50","MCTAVISH","7024745","2015-02-05 21:00","2015","02","05","21:00","-16.1","","-23.3","","54","","","","23","","4","","","","101.33","","","","-19","","NA"
"-73.58","45.50","MCTAVISH","7024745","2015-02-05 22:00","2015","02","05","22:00","-16.8","","-23.2","","58","","","","20","","5","","","","101.32","","","","-21","","NA"
"-73.58","45.50","MCTAVISH","7024745","2015-02-05 23:00","2015","02","05","23:00","-17.3","","-23.2","","60","","","","23","","5","","","","101.30","","","","-21","","NA"
"-73.58","45.50","MCTAVISH","7024745","2015-02-06 00:00","2015","02","06","00:00","-17.0","","-23.7","","56","","","","25","","5","","","","101.26","","","","-21","","NA"
"-73.58","45.50","MCTAVISH","7024745","2015-02-06 01:00","2015","02","06","01:00","-18.3","","-23.2","","65","","","","21","","9","","","","101.23","","","","-25","","NA"
"-73.58","45.50","MCTAVISH","7024745","2015-02-06 02:00","2015","02","06","02:00","-19.4","","-23.9","","67","","","","23","","12","","","","101.21","","","","-27","","NA"
"-73.58","45.50","MCTAVISH","7024745","2015-02-06 03:00","2015","02","06","03:00","-19.7","","-24.1","","68","","","","23","","7","","","","101.16","","","","-25","","NA"
"-73.58","45.50","MCTAVISH","7024745","2015-02-06 04:00","2015","02","06","04:00","-20.1","","-24.4","","68","","","","23","","4","","","","101.10","","","","-24","","NA"
"-73.58","45.50","MCTAVISH","7024745","2015-02-06 05:00","2015","02","06","05:00","-20.5","","-23.5","","77","","","","21","","5","","","","101.06","","","","-25","","NA"
"-73.58","45.50","MCTAVISH","7024745","2015-02-06 06:00","2015","02","06","06:00","-18.1","","-21.4","","75","","","","19","","4","","","","100.96","","","","-21","","NA"
"-73.58","45.50","MCTAVISH","7024745","2015-02-06 07:00","2015","02","06","07:00","-18.1","","-21.0","","78","","","","18","","8","","","","100.89","","","","-24","","NA"
"-73.58","45.50","MCTAVISH","7024745","2015-02-06 08:00","2015","02","06","08:00","-17.6","","-20.8","","76","","","","17","","5","","","","100.85","","","","-22","","NA"
"-73.58","45.50","MCTAVISH","7024745","2015-02-06 09:00","2015","02","06","09:00","-16.7","","-20.0","","75","","","","14","","3","","","","100.80","","","","-19","","NA"
"-73.58","45.50","MCTAVISH","7024745","2015-02-06 10:00","2015","02","06","10:00","-16.6","","-19.8","","77","","","","17","","5","","","","100.70","","","","-20","","NA"
"-73.58","45.50","MCTAVISH","7024745","2015-02-06 11:00","2015","02","06","11:00","-13.9","","-16.6","","80","","","","17","","3","","","","100.62","","","","-16","","NA"
"-73.58","45.50","MCTAVISH","7024745","2015-02-06 12:00","2015","02","06","12:00","-12.9","","-15.7","","80","","","","19","","6","","","","100.53","","","","-17","","NA"
"-73.58","45.50","MCTAVISH","7024745","2015-02-06 13:00","2015","02","06","13:00","-11.8","","-14.7","","79","","","","18","","4","","","","100.45","","","","-14","","NA"
"-73.58","45.50","MCTAVISH","7024745","2015-02-06 14:00","2015","02","06","14:00","-11.1","","-14.2","","78","","","","19","","6","","","","100.41","","","","-15","","NA"
"-73.58","45.50","MCTAVISH","7024745","2015-02-06 15:00","2015","02","06","15:00","-10.6","","-14.1","","76","","","","21","","8","","","","100.44","","","","-15","","NA"
"-73.58","45.50","MCTAVISH","7024745","2015-02-06 16:00","2015","02","06","16:00","-10.2","","-12.9","","81","","","","18","","7","","","","100.39","","","","-14","","NA"
"-73.58","45.50","MCTAVISH","7024745","2015-02-06 17:00","2015","02","06","17:00","-9.8","","-12.0","","84","","","","19","","6","","","","100.41","","","","-13","","NA"
"-73.58","45.50","MCTAVISH","7024745","2015-02-06 18:00","2015","02","06","18:00","-9.9","","-11.9","","85","","","","19","","7","","","","100.43","","","","-14","","NA"
"-73.58","45.50","MCTAVISH","7024745","2015-02-06 19:00","2015","02","06","19:00","-9.8","","-11.5","","87","","","","21","","6","","","","100.46","","","","-13","","NA"
"-73.58","45.50","MCTAVISH","7024745","2015-02-06 20:00","2015","02","06","20:00","-9.6","","-11.1","","89","","","","20","","5","","","","100.45","","","","-12","","NA"
"-73.58","45.50","MCTAVISH","7024745","2015-02-06 21:00","2015","02","06","21:00","-9.4","","-10.8","","90","","","","18","","5","","","","100.42","","","","-12","","NA"
"-73.58","45.50","MCTAVISH","7024745","2015-02-06 22:00","2015","02","06","22:00","-10.1","","-11.6","","89","","","","20","","4","","","","100.47","","","","-12","","NA"
"-73.58","45.50","MCTAVISH","7024745","2015-02-06 23:00","2015","02","06","23:00","-11.1","","-12.9","","87","","","","22","","4","","","","100.49","","","","-14","","NA"
"-73.58","45.50","MCTAVISH","7024745","2015-02-07 00:00","2015","02","07","00:00","-11.0","","-12.9","","86","","","","24","","3","","","","100.52","","","","-13","","NA"
"-73.58","45.50","MCTAVISH","7024745","2015-02-07 01:00","2015","02","07","01:00","-12.7","","-14.6","","86","","","","23","","7","","","","100.57","","","","-17","","NA"
"-73.58","45.50","MCTAVISH","7024745","2015-02-07 02:00","2015","02","07","02:00","-12.7","","-15.7","","78","","","","23","","7","","","","100.66","","","","-17","","NA"
"-73.58","45.50","MCTAVISH","7024745","2015-02-07 03:00","2015","02","07","03:00","-12.9","","-16.5","","74","","","","26","","6","","","","100.74","","","","-17","","NA"
"-73.58","45.50","MCTAVISH","7024745","2015-02-07 04:00","2015","02","07","04:00","-13.8","","-17.8","","72","","","","26","","8","","","","100.83","","","","-19","","NA"
"-73.58","45.50","MCTAVISH","7024745","2015-02-07 05:00","2015","02","07","05:00","-13.3","","-18.1","","68","","","","24","","3","","","","100.84","","","","-15","","NA"
"-73.58","45.50","MCTAVISH","7024745","2015-02-07 06:00","2015","02","07","06:00","-13.3","","-18.5","","65","","","","25","","4","","","","100.88","","","","-16","","NA"
"-73.58","45.50","MCTAVISH","7024745","2015-02-07 07:00","2015","02","07","07:00","-14.0","","-19.3","","65","","","","24","","5","","","","100.94","","","","-17","","NA"
"-73.58","45.50","MCTAVISH","7024745","2015-02-07 08:00","2015","02","07","08:00","-14.1","","-19.5","","64","","","","25","","5","","","","100.96","","","","-18","","NA"
"-73.58","45.50","MCTAVISH","7024745","2015-02-07 09:00","2015","02","07","09:00","-13.5","","-19.2","","62","","","","27","","4","","","","100.95","","","","-16","","NA"
"-73.58","45.50","MCTAVISH","7024745","2015-02-07 10:00","2015","02","07","10:00","-12.8","","-19.5","","57","","","","33","","2","","","","100.97","","","","-14","","NA"
"-73.58","45.50","MCTAVISH","7024745","2015-02-07 11:00","2015","02","07","11:00","-12.8","","-19.1","","60","","","","25","","6","","","","100.93","","","","-17","","NA"
"-73.58","45.50","MCTAVISH","7024745","2015-02-07 12:00","2015","02","07","12:00","-12.8","","-19.4","","58","","","","28","","7","","","","100.83","","","","-17","","NA"
"-73.58","45.50","MCTAVISH","7024745","2015-02-07 13:00","2015","02","07","13:00","-12.7","","-19.3","","58","","","","25","","8","","","","100.80","","","","-18","","NA"
"-73.58","45.50","MCTAVISH","7024745","2015-02-07 14:00","2015","02","07","14:00","-12.6","","-19.3","","57","","","","23","","5","","","","100.80","","","","-16","","NA"
"-73.58","45.50","MCTAVISH","7024745","2015-02-07 15:00","2015","02","07","15:00","-12.1","","-18.8","","57","","","","33","","3","","","","100.84","","","","-14","","NA"
"-73.58","45.50","MCTAVISH","7024745","2015-02-07 16:00","2015","02","07","16:00","-12.6","","-19.3","","58","","","","25","","4","","","","100.86","","","","-15","","NA"
"-73.58","45.50","MCTAVISH","7024745","2015-02-07 17:00","2015","02","07","17:00","-12.7","","-18.8","","60","","","","25","","4","","","","100.91","","","","-15","","NA"
"-73.58","45.50","MCTAVISH","7024745","2015-02-07 18:00","2015","02","07","18:00","-12.1","","-18.6","","58","","","","7","","2","","","","100.96","","","","-13","","NA"
"-73.58","45.50","MCTAVISH","7024745","2015-02-07 19:00","2015","02","07","19:00","-11.9","","-17.9","","61","","","","6","","3","","","","101.03","","","","-14","","NA"
"-73.58","45.50","MCTAVISH","7024745","2015-02-07 20:00","2015","02","07","20:00","-12.3","","-17.0","","68","","","","6","","3","","","","101.13","","","","-14","","NA"
"-73.58","45.50","MCTAVISH","7024745","2015-02-07 21:00","2015","02","07","21:00","-13.1","","-17.3","","71","","","","4","","6","","","","101.15","","","","-17","","NA"
"-73.58","45.50","MCTAVISH","7024745","2015-02-07 22:00","2015","02","07","22:00","-13.0","","-17.4","","70","","","","4","","5","","","","101.20","","","","-16","","NA"
"-73.58","45.50","MCTAVISH","7024745","2015-02-07 23:00","2015","02","07","23:00","-13.2","","-17.6","","70","","","","4","","5","","","","101.22","","","","-17","","NA"
"-73.58","45.50","MCTAVISH","7024745","2015-02-08 00:00","2015","02","08","00:00","-14.1","","-17.7","","74","","","","4","","6","","","","101.25","","","","-18","","NA"
"-73.58","45.50","MCTAVISH","7024745","2015-02-08 01:00","2015","02","08","01:00","-15.5","","-19.5","","72","","","","3","","9","","","","101.25","","","","-21","","NA"
"-73.58","45.50","MCTAVISH","7024745","2015-02-08 02:00","2015","02","08","02:00","-16.1","","-21.3","","64","","","","4","","9","","","","101.26","","","","-22","","NA"
"-73.58","45.50","MCTAVISH","7024745","2015-02-08 03:00","2015","02","08","03:00","-16.4","","-21.7","","64","","","","4","","7","","","","101.24","","","","-21","","NA"
"-73.58","45.50","MCTAVISH","7024745","2015-02-08 04:00","2015","02","08","04:00","-17.0","","-21.6","","68","","","","5","","7","","","","101.25","","","","-22","","NA"
"-73.58","45.50","MCTAVISH","7024745","2015-02-08 05:00","2015","02","08","05:00","-17.4","","-22.4","","65","","","","4","","9","","","","101.27","","","","-24","","NA"
"-73.58","45.50","MCTAVISH","7024745","2015-02-08 06:00","2015","02","08","06:00","-17.7","","-23.0","","63","","","","4","","11","","","","101.21","","","","-25","","NA"
"-73.58","45.50","MCTAVISH","7024745","2015-02-08 07:00","2015","02","08","07:00","-18.1","","-23.4","","63","","","","3","","9","","","","101.20","","","","-24","","NA"
"-73.58","45.50","MCTAVISH","7024745","2015-02-08 08:00","2015","02","08","08:00","-18.0","","-23.4","","63","","","","5","","7","","","","101.21","","","","-23","","NA"
"-73.58","45.50","MCTAVISH","7024745","2015-02-08 09:00","2015","02","08","09:00","-18.1","","-22.8","","67","","","","3","","8","","","","101.27","","","","-24","","NA"
"-73.58","45.50","MCTAVISH","7024745","2015-02-08 10:00","2015","02","08","10:00","-17.9","","-20.9","","77","","","","4","","8","","","","101.19","","","","-24","","NA"
"-73.58","45.50","MCTAVISH","7024745","2015-02-08 11:00","2015","02","08","11:00","-17.6","","-20.1","","81","","","","4","","9","","","","101.14","","","","-24","","NA"
"-73.58","45.50","MCTAVISH","7024745","2015-02-08 12:00","2015","02","08","12:00","-16.8","","-19.1","","82","","","","4","","10","","","","101.11","","","","-23","","NA"
"-73.58","45.50","MCTAVISH","7024745","2015-02-08 13:00","2015","02","08","13:00","-16.0","","-18.2","","83","","","","4","","9","","","","101.04","","","","-22","","NA"
"-73.58","45.50","MCTAVISH","7024745","2015-02-08 14:00","2015","02","08","14:00","-15.8","","-18.0","","83","","","","4","","11","","","","100.98","","","","-23","","NA"
"-73.58","45.50","MCTAVISH","7024745","2015-02-08 15:00","2015","02","08","15:00","-15.6","","-17.7","","84","","","","4","","9","","","","100.99","","","","-22","","NA"
"-73.58","45.50","MCTAVISH","7024745","2015-02-08 16:00","2015","02","08","16:00","-15.2","","-17.3","","84","","","","4","","8","","","","100.99","","","","-21","","NA"
"-73.58","45.50","MCTAVISH","7024745","2015-02-08 17:00","2015","02","08","17:00","-15.3","","-17.4","","84","","","","4","","9","","","","101.07","","","","-21","","NA"
"-73.58","45.50","MCTAVISH","7024745","2015-02-08 18:00","2015","02","08","18:00","-14.9","","-16.9","","85","","","","4","","8","","","","101.13","","","","-20","","NA"
"-73.58","45.50","MCTAVISH","7024745","2015-02-08 19:00","2015","02","08","19:00","-14.4","","-16.5","","84","","","","3","","10","","","","101.19","","","","-21","","NA"
"-73.58","45.50","MCTAVISH","7024745","2015-02-08 20:00","2015","02","08","20:00","-14.0","","-16.1","","84","","","","4","","9","","","","101.23","","","","-20","","NA"
"-73.58","45.50","MCTAVISH","7024745","2015-02-08 21:00","2015","02","08","21:00","-14.2","","-16.3","","84","","","","4","","10","","","","101.22","","","","-20","","NA"
"-73.58","45.50","MCTAVISH","7024745","2015-02-08 22:00","2015","02","08","22:00","-14.1","","-16.4","","83","","","","4","","10","","","","101.23","","","","-20","","NA"
"-73.58","45.50","MCTAVISH","7024745","2015-02-08 23:00","2015","02","08","23:00","-14.3","","-16.7","","82","","","","3","","11","","","","101.27","","","","-21","","NA"
"-73.58","45.50","MCTAVISH","7024745","2015-02-09 00:00","2015","02","09","00:00","-14.8","","-17.4","","80","","","","4","","9","","","","101.29","","","","-21","","NA"
"-73.58","45.50","MCTAVISH","7024745","2015-02-09 01:00","2015","02","09","01:00","-15.1","","-18.0","","78","","","","4","","9","","","","101.29","","","","-21","","NA"
"-73.58","45.50","MCTAVISH","7024745","2015-02-09 02:00","2015","02","09","02:00","-15.6","","-18.7","","77","","","","3","","9","","","","101.32","","","","-22","","NA"
"-73.58","45.50","MCTAVISH","7024745","2015-02-09 03:00","2015","02","09","03:00","-15.4","","-18.7","","76","","","","4","","7","","","","101.32","","","","-20","","NA"
"-73.58","45.50","MCTAVISH","7024745","2015-02-09 04:00","2015","02","09","04:00","-15.5","","-18.8","","76","","","","3","","8","","","","101.30","","","","-21","","NA"
"-73.58","45.50","MCTAVISH","7024745","2015-02-09 05:00","2015","02","09","05:00","-15.4","","-18.6","","76","","","","4","","8","","","","101.33","","","","-21","","NA"
"-73.58","45.50","MCTAVISH","7024745","2015-02-09 06:00","2015","02","09","06:00","-15.3","","-18.4","","78","","","","4","","9","","","","101.36","","","","-21","","NA"
"-73.58","45.50","MCTAVISH","7024745","2015-02-09 07:00","2015","02","09","07:00","-15.6","","-18.6","","78","","","","4","","8","","","","101.44","","","","-21","","NA"
"-73.58","45.50","MCTAVISH","7024745","2015-02-09 08:00","2015","02","09","08:00","-15.6","","-18.5","","78","","","","4","","10","","","","101.48","","","","-22","","NA"
"-73.58","45.50","MCTAVISH","7024745","2015-02-09 09:00","2015","02","09","09:00","-15.3","","-18.0","","80","","","","4","","7","","","","101.50","","","","-20","","NA"
"-73.58","45.50","MCTAVISH","7024745","2015-02-09 10:00","2015","02","09","10:00","-15.2","","-17.8","","80","","","","4","","9","","","","101.55","","","","-21","","NA"
"-73.58","45.50","MCTAVISH","7024745","2015-02-09 11:00","2015","02","09","11:00","-15.1","","-17.8","","80","","","","4","","7","","","","101.52","","","","-20","","NA"
"-73.58","45.50","MCTAVISH","7024745","2015-02-09 12:00","2015","02","09","12:00","-14.6","","-17.3","","80","","","","4","","8","","","","101.50","","","","-20","","NA"
"-73.58","45.50","MCTAVISH","7024745","2015-02-09 13:00","2015","02","09","13:00","-14.3","","-17.1","","80","","","","5","","5","","","","101.46","","","","-18","","NA"
"-73.58","45.50","MCTAVISH","7024745","2015-02-09 14:00","2015","02","09","14:00","-13.8","","-16.5","","80","","","","4","","7","","","","101.43","","","","-18","","NA"
"-73.58","45.50","MCTAVISH","7024745","2015-02-09 15:00","2015","02","09","15:00","-13.0","","-15.7","","81","","","","3","","5","","","","101.38","","","","-16","","NA"
"-73.58","45.50","MCTAVISH","7024745","2015-02-09 16:00","2015","02","09","16:00","-13.0","","-15.7","","80","","","","29","","4","","","","101.40","","","","-16","","NA"
"-73.58","45.50","MCTAVISH","7024745","2015-02-09 17:00","2015","02","09","17:00","-12.3","","-15.2","","79","","","","4","","5","","","","101.41","","","","-16","","NA"
"-73.58","45.50","MCTAVISH","7024745","2015-02-09 18:00","2015","02","09","18:00","-12.1","","-15.0","","79","","","","7","","4","","","","101.42","","","","-15","","NA"
"-73.58","45.50","MCTAVISH","7024745","2015-02-09 19:00","2015","02","09","19:00","-11.9","","-15.0","","78","","","","35","","5","","","","101.39","","","","-15","","NA"
"-73.58","45.50","MCTAVISH","7024745","2015-02-09 20:00","2015","02","09","20:00","-11.5","","-14.8","","76","","","","4","","5","","","","101.37","","","","-15","","NA"
"-73.58","45.50","MCTAVISH","7024745","2015-02-09 21:00","2015","02","09","21:00","-11.1","","-15.0","","73","","","","3","","4","","","","101.36","","","","-14","","NA"
"-73.58","45.50","MCTAVISH","7024745","2015-02-09 22:00","2015","02","09","22:00","-11.2","","-15.3","","71","","","","4","","6","","","","101.35","","","","-15","","NA"
"-73.58","45.50","MCTAVISH","7024745","2015-02-09 23:00","2015","02","09","23:00","-11.6","","-14.9","","76","","","","23","","3","","","","101.37","","","","-13","","NA"
"-73.58","45.50","MCTAVISH","7024745","2015-02-10 00:00","2015","02","10","00:00","-11.3","","-14.7","","76","","","","6","","4","","","","101.36","","","","-14","","NA"
"-73.58","45.50","MCTAVISH","7024745","2015-02-10 01:00","2015","02","10","01:00","-11.0","","-14.3","","77","","","","4","","4","","","","101.35","","","","-13","","NA"
"-73.58","45.50","MCTAVISH","7024745","2015-02-10 02:00","2015","02","10","02:00","-10.9","","-14.6","","74","","","","5","","4","","","","101.34","","","","-13","","NA"
"-73.58","45.50","MCTAVISH","7024745","2015-02-10 03:00","2015","02","10","03:00","-11.2","","-14.7","","75","","","","10","","3","","","","101.33","","","","-13","","NA"
"-73.58","45.50","MCTAVISH","7024745","2015-02-10 04:00","2015","02","10","04:00","-11.4","","-15.1","","74","","","","6","","4","","","","101.30","","","","-14","","NA"
"-73.58","45.50","MCTAVISH","7024745","2015-02-10 05:00","2015","02","10","05:00","-11.2","","-14.8","","75","","","","12","","2","","","","101.31","","","","-12","","NA"
"-73.58","45.50","MCTAVISH","7024745","2015-02-10 06:00","2015","02","10","06:00","-10.9","","-14.7","","74","","","","12","","2","","","","101.35","","","","-12","","NA"
"-73.58","45.50","MCTAVISH","7024745","2015-02-10 07:00","2015","02","10","07:00","-11.1","","-15.0","","73","","","","25","","4","","","","101.42","","","","-14","","NA"
"-73.58","45.50","MCTAVISH","7024745","2015-02-10 08:00","2015","02","10","08:00","-10.8","","-14.7","","73","","","","30","","2","","","","101.44","","","","-12","","NA"
"-73.58","45.50","MCTAVISH","7024745","2015-02-10 09:00","2015","02","10","09:00","-10.4","","-14.2","","73","","","","29","","2","","","","101.51","","","","-12","","NA"
"-73.58","45.50","MCTAVISH","7024745","2015-02-10 10:00","2015","02","10","10:00","-10.0","","-14.1","","72","","","","25","","4","","","","101.54","","","","-12","","NA"
"-73.58","45.50","MCTAVISH","7024745","2015-02-10 11:00","2015","02","10","11:00","-9.2","","-13.2","","73","","","","24","","4","","","","101.56","","","","-11","","NA"
"-73.58","45.50","MCTAVISH","7024745","2015-02-10 12:00","2015","02","10","12:00","-7.9","","-12.6","","69","","","","22","","3","","","","101.51","","","","-9","","NA"
"-73.58","45.50","MCTAVISH","7024745","2015-02-10 13:00","2015","02","10","13:00","-5.8","","-11.6","","64","","","","23","","2","","","","101.44","","","","-7","","NA"
"-73.58","45.50","MCTAVISH","7024745","2015-02-10 14:00","2015","02","10","14:00","-7.0","","-12.3","","66","","","","21","","9","","","","101.39","","","","-11","","NA"
"-73.58","45.50","MCTAVISH","7024745","2015-02-10 15:00","2015","02","10","15:00","-6.2","","-11.5","","66","","","","20","","8","","","","101.37","","","","-10","","NA"
"-73.58","45.50","MCTAVISH","7024745","2015-02-10 16:00","2015","02","10","16:00","-6.9","","-11.8","","68","","","","21","","10","","","","101.38","","","","-12","","NA"
"-73.58","45.50","MCTAVISH","7024745","2015-02-10 17:00","2015","02","10","17:00","-7.8","","-12.1","","71","","","","23","","5","","","","101.41","","","","-10","","NA"
"-73.58","45.50","MCTAVISH","7024745","2015-02-10 18:00","2015","02","10","18:00","-7.7","","-11.9","","72","","","","20","","6","","","","101.44","","","","-11","","NA"
"-73.58","45.50","MCTAVISH","7024745","2015-02-10 19:00","2015","02","10","19:00","-8.0","","-12.4","","71","","","","21","","11","","","","101.47","","","","-13","","NA"
"-73.58","45.50","MCTAVISH","7024745","2015-02-10 20:00","2015","02","10","20:00","-8.1","","-12.2","","72","","","","22","","10","","","","101.49","","","","-13","","NA"
"-73.58","45.50","MCTAVISH","7024745","2015-02-10 21:00","2015","02","10","21:00","-7.2","","-12.8","","64","","","","29","","8","","","","101.51","","","","-11","","NA"
"-73.58","45.50","MCTAVISH","7024745","2015-02-10 22:00","2015","02","10","22:00","-8.3","","-12.9","","69","","","","26","","3","","","","101.55","","","","-10","","NA"
"-73.58","45.50","MCTAVISH","7024745","2015-02-10 23:00","2015","02","10","23:00","-9.3","","-14.2","","67","","","","6","","5","","","","101.58","","","","-12","","NA"
"-73.58","45.50","MCTAVISH","7024745","2015-02-11 00:00","2015","02","11","00:00","-10.6","","-15.5","","67","","","","3","","9","","","","101.63","","","","-16","","NA"
"-73.58","45.50","MCTAVISH","7024745","2015-02-11 01:00","2015","02","11","01:00","-11.5","","-17.3","","62","","","","4","","5","","","","101.64","","","","-15","","NA"
"-73.58","45.50","MCTAVISH","7024745","2015-02-11 02:00","2015","02","11","02:00","-12.3","","-19.0","","58","","","","4","","6","","","","101.64","","","","-16","","NA"
"-73.58","45.50","MCTAVISH","7024745","2015-02-11 03:00","2015","02","11","03:00","-13.5","","-19.2","","62","","","","4","","8","","","","101.62","","","","-19","","NA"
"-73.58","45.50","MCTAVISH","7024745","2015-02-11 04:00","2015","02","11","04:00","-14.2","","-20.1","","61","","","","4","","6","","","","101.61","","","","-18","","NA"
"-73.58","45.50","MCTAVISH","7024745","2015-02-11 05:00","2015","02","11","05:00","-15.0","","-21.4","","58","","","","4","","8","","","","101.57","","","","-20","","NA"
"-73.58","45.50","MCTAVISH","7024745","2015-02-11 06:00","2015","02","11","06:00","-15.7","","-21.5","","61","","","","4","","7","","","","101.53","","","","-21","","NA"
"-73.58","45.50","MCTAVISH","7024745","2015-02-11 07:00","2015","02","11","07:00","-16.2","","-22.0","","61","","","","3","","4","","","","101.52","","","","-19","","NA"
"-73.58","45.50","MCTAVISH","7024745","2015-02-11 08:00","2015","02","11","08:00","-16.4","","-21.8","","63","","","","5","","8","","","","101.46","","","","-22","","NA"
"-73.58","45.50","MCTAVISH","7024745","2015-02-11 09:00","2015","02","11","09:00","-16.1","","-21.7","","62","","","","5","","6","","","","101.39","","","","-21","","NA"
"-73.58","45.50","MCTAVISH","7024745","2015-02-11 10:00","2015","02","11","10:00","-15.9","","-21.3","","63","","","","8","","4","","","","101.28","","","","-19","","NA"
"-73.58","45.50","MCTAVISH","7024745","2015-02-11 11:00","2015","02","11","11:00","-14.7","","-20.1","","64","","","","4","","7","","","","101.17","","","","-19","","NA"
"-73.58","45.50","MCTAVISH","7024745","2015-02-11 12:00","2015","02","11","12:00","-12.8","","-17.9","","66","","","","5","","6","","","","101.08","","","","-17","","NA"
"-73.58","45.50","MCTAVISH","7024745","2015-02-11 13:00","2015","02","11","13:00","-13.0","","-18.7","","62","","","","5","","8","","","","100.94","","","","-18","","NA"
"-73.58","45.50","MCTAVISH","7024745","2015-02-11 14:00","2015","02","11","14:00","-12.1","","-17.9","","62","","","","5","","9","","","","100.82","","","","-17","","NA"
"-73.58","45.50","MCTAVISH","7024745","2015-02-11 15:00","2015","02","11","15:00","-11.6","","-17.9","","59","","","","5","","9","","","","100.72","","","","-17","","NA"
"-73.58","45.50","MCTAVISH","7024745","2015-02-11 16:00","2015","02","11","16:00","-11.0","","-17.5","","59","","","","4","","8","","","","100.63","","","","-16","","NA"
"-73.58","45.50","MCTAVISH","7024745","2015-02-11 17:00","2015","02","11","17:00","-11.3","","-17.7","","59","","","","4","","8","","","","100.58","","","","-16","","NA"
"-73.58","45.50","MCTAVISH","7024745","2015-02-11 18:00","2015","02","11","18:00","-11.5","","-17.9","","59","","","","4","","8","","","","100.48","","","","-16","","NA"
"-73.58","45.50","MCTAVISH","7024745","2015-02-11 19:00","2015","02","11","19:00","-12.0","","-18.4","","59","","","","4","","8","","","","100.41","","","","-17","","NA"
"-73.58","45.50","MCTAVISH","7024745","2015-02-11 20:00","2015","02","11","20:00","-11.9","","-18.0","","60","","","","31","","3","","","","100.35","","","","-14","","NA"
"-73.58","45.50","MCTAVISH","7024745","2015-02-11 21:00","2015","02","11","21:00","-11.9","","-17.4","","63","","","","30","","4","","","","100.27","","","","-14","","NA"
"-73.58","45.50","MCTAVISH","7024745","2015-02-11 22:00","2015","02","11","22:00","-11.8","","-16.0","","71","","","","4","","7","","","","100.14","","","","-16","","NA"
"-73.58","45.50","MCTAVISH","7024745","2015-02-11 23:00","2015","02","11","23:00","-12.4","","-14.5","","84","","","","1","","3","","","","100.11","","","","-14","","NA"
"-73.58","45.50","MCTAVISH","7024745","2015-02-12 00:00","2015","02","12","00:00","-12.3","","-14.2","","86","","","","2","","2","","","","100.04","","","","-14","","NA"
"-73.58","45.50","MCTAVISH","7024745","2015-02-12 01:00","2015","02","12","01:00","-12.3","","-14.1","","86","","","","4","","2","","","","99.95","","","","-14","","NA"
"-73.58","45.50","MCTAVISH","7024745","2015-02-12 02:00","2015","02","12","02:00","-12.5","","-14.4","","86","","","","31","","3","","","","99.91","","","","-14","","NA"
"-73.58","45.50","MCTAVISH","7024745","2015-02-12 03:00","2015","02","12","03:00","-12.5","","-14.4","","86","","","","29","","4","","","","99.84","","","","-15","","NA"
"-73.58","45.50","MCTAVISH","7024745","2015-02-12 04:00","2015","02","12","04:00","-12.3","","-14.0","","87","","","","2","","4","","","","99.79","","","","-15","","NA"
"-73.58","45.50","MCTAVISH","7024745","2015-02-12 05:00","2015","02","12","05:00","-12.1","","-13.8","","87","","","","5","","2","","","","99.75","","","","-13","","NA"
"-73.58","45.50","MCTAVISH","7024745","2015-02-12 06:00","2015","02","12","06:00","-12.1","","-13.8","","87","","","","3","","4","","","","99.72","","","","-15","","NA"
"-73.58","45.50","MCTAVISH","7024745","2015-02-12 07:00","2015","02","12","07:00","-12.1","","-13.9","","87","","","","13","","2","","","","99.77","","","","-13","","NA"
"-73.58","45.50","MCTAVISH","7024745","2015-02-12 08:00","2015","02","12","08:00","-12.1","","-13.9","","86","","","","4","","3","","","","99.79","","","","-14","","NA"
"-73.58","45.50","MCTAVISH","7024745","2015-02-12 09:00","2015","02","12","09:00","-11.6","","-13.6","","85","","","","27","","3","","","","99.82","","","","-13","","NA"
"-73.58","45.50","MCTAVISH","7024745","2015-02-12 10:00","2015","02","12","10:00","-11.1","","-13.4","","83","","","","29","","2","","","","99.81","","","","-12","","NA"
"-73.58","45.50","MCTAVISH","7024745","2015-02-12 11:00","2015","02","12","11:00","-10.1","","-13.4","","77","","","","20","","4","","","","99.83","","","","-12","","NA"
"-73.58","45.50","MCTAVISH","7024745","2015-02-12 12:00","2015","02","12","12:00","-8.1","","-11.7","","75","","","","15","","4","","","","99.81","","","","-10","","NA"
"-73.58","45.50","MCTAVISH","7024745","2015-02-12 13:00","2015","02","12","13:00","-8.0","","-12.2","","71","","","","24","","5","","","","99.75","","","","-11","","NA"
"-73.58","45.50","MCTAVISH","7024745","2015-02-12 14:00","2015","02","12","14:00","-7.9","","-11.7","","74","","","","23","","7","","","","99.78","","","","-12","","NA"
"-73.58","45.50","MCTAVISH","7024745","2015-02-12 15:00","2015","02","12","15:00","-8.2","","-10.9","","81","","","","21","","6","","","","99.78","","","","-11","","NA"
"-73.58","45.50","MCTAVISH","7024745","2015-02-12 16:00","2015","02","12","16:00","-7.9","","-10.2","","83","","","","22","","8","","","","99.83","","","","-12","","NA"
"-73.58","45.50","MCTAVISH","7024745","2015-02-12 17:00","2015","02","12","17:00","-7.9","","-9.6","","88","","","","19","","6","","","","99.87","","","","-11","","NA"
"-73.58","45.50","MCTAVISH","7024745","2015-02-12 18:00","2015","02","12","18:00","-9.0","","-11.0","","85","","","","25","","5","","","","99.97","","","","-12","","NA"
"-73.58","45.50","MCTAVISH","7024745","2015-02-12 19:00","2015","02","12","19:00","-10.2","","-12.2","","85","","","","28","","12","","","","100.07","","","","-16","","NA"
"-73.58","45.50","MCTAVISH","7024745","2015-02-12 20:00","2015","02","12","20:00","-10.8","","-14.6","","74","","","","28","","6","","","","100.20","","","","-14","","NA"
"-73.58","45.50","MCTAVISH","7024745","2015-02-12 21:00","2015","02","12","21:00","-12.4","","-16.3","","73","","","","27","","6","","","","100.29","","","","-16","","NA"
"-73.58","45.50","MCTAVISH","7024745","2015-02-12 22:00","2015","02","12","22:00","-14.0","","-17.8","","73","","","","28","","9","","","","100.36","","","","-20","","NA"
"-73.58","45.50","MCTAVISH","7024745","2015-02-12 23:00","2015","02","12","23:00","-15.0","","-19.3","","70","","","","29","","6","","","","100.43","","","","-19","","NA"
"-73.58","45.50","MCTAVISH","7024745","2015-02-13 00:00","2015","02","13","00:00","-16.2","","-20.4","","70","","","","5","","3","","","","100.47","","","","-18","","NA"
"-73.58","45.50","MCTAVISH","7024745","2015-02-13 01:00","2015","02","13","01:00","-16.9","","-21.8","","66","","","","27","","5","","","","100.52","","","","-21","","NA"
"-73.58","45.50","MCTAVISH","7024745","2015-02-13 02:00","2015","02","13","02:00","-17.6","","-21.4","","72","","","","28","","8","","","","100.58","","","","-23","","NA"
"-73.58","45.50","MCTAVISH","7024745","2015-02-13 03:00","2015","02","13","03:00","-18.7","","-22.2","","73","","","","28","","6","","","","100.63","","","","-24","","NA"
"-73.58","45.50","MCTAVISH","7024745","2015-02-13 04:00","2015","02","13","04:00","-19.5","","-23.8","","69","","","","28","","7","","","","100.70","","","","-25","","NA"
"-73.58","45.50","MCTAVISH","7024745","2015-02-13 05:00","2015","02","13","05:00","-20.8","","-26.1","","62","","","","30","","7","","","","100.78","","","","-27","","NA"
"-73.58","45.50","MCTAVISH","7024745","2015-02-13 06:00","2015","02","13","06:00","-21.8","","-27.0","","63","","","","22","","5","","","","100.85","","","","-26","","NA"
"-73.58","45.50","MCTAVISH","7024745","2015-02-13 07:00","2015","02","13","07:00","-22.8","","-28.4","","61","","","","27","","7","","","","100.94","","","","-29","","NA"
"-73.58","45.50","MCTAVISH","7024745","2015-02-13 08:00","2015","02","13","08:00","-23.3","","-29.0","","59","","","","24","","5","","","","101.01","","","","-28","","NA"
"-73.58","45.50","MCTAVISH","7024745","2015-02-13 09:00","2015","02","13","09:00","-22.4","","-28.4","","58","","","","27","","4","","","","101.06","","","","-26","","NA"
"-73.58","45.50","MCTAVISH","7024745","2015-02-13 10:00","2015","02","13","10:00","-22.9","","-29.0","","58","","","","21","","7","","","","101.09","","","","-29","","NA"
"-73.58","45.50","MCTAVISH","7024745","2015-02-13 11:00","2015","02","13","11:00","-22.6","","-28.5","","58","","","","20","","12","","","","101.08","","","","-31","","NA"
"-73.58","45.50","MCTAVISH","7024745","2015-02-13 12:00","2015","02","13","12:00","-22.1","","-28.9","","54","","","","21","","14","","","","101.04","","","","-31","","NA"
"-73.58","45.50","MCTAVISH","7024745","2015-02-13 13:00","2015","02","13","13:00","-21.1","","-27.9","","54","","","","21","","15","","","","101.00","","","","-30","","NA"
"-73.58","45.50","MCTAVISH","7024745","2015-02-13 14:00","2015","02","13","14:00","-20.2","","-27.7","","51","","","","21","","13","","","","101.00","","","","-29","","NA"
"-73.58","45.50","MCTAVISH","7024745","2015-02-13 15:00","2015","02","13","15:00","-20.1","","-28.4","","48","","","","20","","10","","","","100.98","","","","-27","","NA"
"-73.58","45.50","MCTAVISH","7024745","2015-02-13 16:00","2015","02","13","16:00","-20.2","","-28.4","","48","","","","20","","14","","","","100.96","","","","-29","","NA"
"-73.58","45.50","MCTAVISH","7024745","2015-02-13 17:00","2015","02","13","17:00","-20.4","","-29.1","","46","","","","20","","7","","","","100.97","","","","-26","","NA"
"-73.58","45.50","MCTAVISH","7024745","2015-02-13 18:00","2015","02","13","18:00","-20.7","","-29.9","","44","","","","21","","7","","","","100.99","","","","-26","","NA"
"-73.58","45.50","MCTAVISH","7024745","2015-02-13 19:00","2015","02","13","19:00","-20.5","","-29.2","","46","","","","19","","5","","","","101.00","","","","-25","","NA"
"-73.58","45.50","MCTAVISH","7024745","2015-02-13 20:00","2015","02","13","20:00","-20.2","","-28.9","","46","","","","19","","4","","","","100.99","","","","-24","","NA"
"-73.58","45.50","MCTAVISH","7024745","2015-02-13 21:00","2015","02","13","21:00","-19.6","","-27.8","","48","","","","17","","3","","","","100.94","","","","-22","","NA"
"-73.58","45.50","MCTAVISH","7024745","2015-02-13 22:00","2015","02","13","22:00","-20.0","","-28.0","","49","","","","20","","6","","","","100.91","","","","-25","","NA"
"-73.58","45.50","MCTAVISH","7024745","2015-02-13 23:00","2015","02","13","23:00","-20.0","","-27.5","","51","","","","22","","6","","","","100.87","","","","-25","","NA"
"-73.58","45.50","MCTAVISH","7024745","2015-02-14 00:00","2015","02","14","00:00","-19.4","","-25.6","","58","","","","22","","5","","","","100.80","","","","-24","","NA"
"-73.58","45.50","MCTAVISH","7024745","2015-02-14 01:00","2015","02","14","01:00","-20.0","","-24.7","","66","","","","18","","7","","","","100.71","","","","-26","","NA"
"-73.58","45.50","MCTAVISH","7024745","2015-02-14 02:00","2015","02","14","02:00","-19.8","","-24.1","","68","","","","16","","5","","","","100.61","","","","-24","","NA"
"-73.58","45.50","MCTAVISH","7024745","2015-02-14 03:00","2015","02","14","03:00","-19.8","","-23.8","","71","","","","18","","5","","","","100.47","","","","-24","","NA"
"-73.58","45.50","MCTAVISH","7024745","2015-02-14 04:00","2015","02","14","04:00","-19.5","","-23.2","","72","","","","12","","3","","","","100.35","","","","-22","","NA"
"-73.58","45.50","MCTAVISH","7024745","2015-02-14 05:00","2015","02","14","05:00","-19.9","","-23.4","","73","","","","12","","4","","","","100.26","","","","-23","","NA"
"-73.58","45.50","MCTAVISH","7024745","2015-02-14 06:00","2015","02","14","06:00","-19.5","","-22.9","","74","","","","15","","4","","","","100.18","","","","-23","","NA"
"-73.58","45.50","MCTAVISH","7024745","2015-02-14 07:00","2015","02","14","07:00","-18.6","","-21.6","","77","","","","13","","3","","","","100.13","","","","-21","","NA"
"-73.58","45.50","MCTAVISH","7024745","2015-02-14 08:00","2015","02","14","08:00","-18.5","","-21.3","","78","","","","7","","5","","","","100.08","","","","-23","","NA"
"-73.58","45.50","MCTAVISH","7024745","2015-02-14 09:00","2015","02","14","09:00","-18.3","","-21.1","","78","","","","5","","7","","","","100.01","","","","-24","","NA"
"-73.58","45.50","MCTAVISH","7024745","2015-02-14 10:00","2015","02","14","10:00","-17.3","","-20.2","","78","","","","3","","7","","","","99.91","","","","-23","","NA"
"-73.58","45.50","MCTAVISH","7024745","2015-02-14 11:00","2015","02","14","11:00","-17.6","","-20.6","","77","","","","3","","7","","","","99.84","","","","-23","","NA"
"-73.58","45.50","MCTAVISH","7024745","2015-02-14 12:00","2015","02","14","12:00","-16.5","","-19.6","","77","","","","4","","5","","","","99.75","","","","-20","","NA"
"-73.58","45.50","MCTAVISH","7024745","2015-02-14 13:00","2015","02","14","13:00","-15.8","","-19.2","","75","","","","5","","4","","","","99.65","","","","-19","","NA"
"-73.58","45.50","MCTAVISH","7024745","2015-02-14 14:00","2015","02","14","14:00","-15.3","","-18.4","","78","","","","4","","4","","","","99.59","","","","-18","","NA"
"-73.58","45.50","MCTAVISH","7024745","2015-02-14 15:00","2015","02","14","15:00","-14.7","","-17.3","","80","","","","3","","7","","","","99.55","","","","-19","","NA"
"-73.58","45.50","MCTAVISH","7024745","2015-02-14 16:00","2015","02","14","16:00","-13.9","","-16.5","","80","","","","9","","3","","","","99.54","","","","-16","","NA"
"-73.58","45.50","MCTAVISH","7024745","2015-02-14 17:00","2015","02","14","17:00","-14.0","","-16.3","","83","","","","3","","4","","","","99.57","","","","-17","","NA"
"-73.58","45.50","MCTAVISH","7024745","2015-02-14 18:00","2015","02","14","18:00","-14.3","","-16.7","","82","","","","4","","6","","","","99.62","","","","-18","","NA"
"-73.58","45.50","MCTAVISH","7024745","2015-02-14 19:00","2015","02","14","19:00","-14.3","","-16.7","","82","","","","5","","4","","","","99.69","","","","-17","","NA"
"-73.58","45.50","MCTAVISH","7024745","2015-02-14 20:00","2015","02","14","20:00","-14.2","","-16.6","","82","","","","4","","6","","","","99.73","","","","-18","","NA"
"-73.58","45.50","MCTAVISH","7024745","2015-02-14 21:00","2015","02","14","21:00","-13.9","","-16.4","","81","","","","4","","8","","","","99.77","","","","-19","","NA"
"-73.58","45.50","MCTAVISH","7024745","2015-02-14 22:00","2015","02","14","22:00","-14.1","","-16.5","","82","","","","6","","5","","","","99.76","","","","-18","","NA"
"-73.58","45.50","MCTAVISH","7024745","2015-02-14 23:00","2015","02","14","23:00","-13.8","","-16.0","","83","","","","5","","5","","","","99.81","","","","-17","","NA"
"-73.58","45.50","MCTAVISH","7024745","2015-02-15 00:00","2015","02","15","00:00","-13.8","","-16.2","","83","","","","7","","5","","","","99.82","","","","-17","","NA"
"-73.58","45.50","MCTAVISH","7024745","2015-02-15 01:00","2015","02","15","01:00","-14.2","","-16.8","","80","","","","4","","8","","","","99.86","","","","-19","","NA"
"-73.58","45.50","MCTAVISH","7024745","2015-02-15 02:00","2015","02","15","02:00","-14.3","","-17.5","","76","","","","5","","10","","","","99.86","","","","-20","","NA"
"-73.58","45.50","MCTAVISH","7024745","2015-02-15 03:00","2015","02","15","03:00","-14.8","","-19.0","","70","","","","5","","10","","","","99.93","","","","-21","","NA"
"-73.58","45.50","MCTAVISH","7024745","2015-02-15 04:00","2015","02","15","04:00","-16.3","","-21.1","","66","","","","5","","8","","","","100.12","","","","-22","","NA"
"-73.58","45.50","MCTAVISH","7024745","2015-02-15 05:00","2015","02","15","05:00","-17.4","","-22.9","","62","","","","6","","7","","","","100.28","","","","-23","","NA"
"-73.58","45.50","MCTAVISH","7024745","2015-02-15 06:00","2015","02","15","06:00","-18.0","","-23.7","","61","","","","7","","7","","","","100.41","","","","-23","","NA"
"-73.58","45.50","MCTAVISH","7024745","2015-02-15 07:00","2015","02","15","07:00","-18.4","","-24.4","","59","","","","6","","6","","","","100.50","","","","-23","","NA"
"-73.58","45.50","MCTAVISH","7024745","2015-02-15 08:00","2015","02","15","08:00","-18.1","","-24.2","","59","","","","6","","5","","","","100.59","","","","-22","","NA"
"-73.58","45.50","MCTAVISH","7024745","2015-02-15 09:00","2015","02","15","09:00","-18.2","","-25.9","","51","","","","30","","7","","","","100.62","","","","-24","","NA"
"-73.58","45.50","MCTAVISH","7024745","2015-02-15 10:00","2015","02","15","10:00","-18.1","","-26.0","","50","","","","36","","6","","","","100.63","","","","-23","","NA"
"-73.58","45.50","MCTAVISH","7024745","2015-02-15 11:00","2015","02","15","11:00","-18.0","","-26.3","","48","","","","30","","7","","","","100.66","","","","-23","","NA"
"-73.58","45.50","MCTAVISH","7024745","2015-02-15 12:00","2015","02","15","12:00","-16.2","","-25.5","","45","","","","3","","4","","","","100.62","","","","-19","","NA"
"-73.58","45.50","MCTAVISH","7024745","2015-02-15 13:00","2015","02","15","13:00","-16.2","","-25.5","","45","","","","25","","6","","","","100.56","","","","-21","","NA"
"-73.58","45.50","MCTAVISH","7024745","2015-02-15 14:00","2015","02","15","14:00","-15.9","","-25.7","","43","","","","20","","6","","","","100.54","","","","-20","","NA"
"-73.58","45.50","MCTAVISH","7024745","2015-02-15 15:00","2015","02","15","15:00","-16.6","","-26.5","","42","","","","27","","9","","","","100.55","","","","-23","","NA"
"-73.58","45.50","MCTAVISH","7024745","2015-02-15 16:00","2015","02","15","16:00","-16.9","","-26.4","","44","","","","21","","5","","","","100.57","","","","-21","","NA"
"-73.58","45.50","MCTAVISH","7024745","2015-02-15 17:00","2015","02","15","17:00","-18.3","","-27.0","","46","","","","30","","7","","","","100.62","","","","-24","","NA"
"-73.58","45.50","MCTAVISH","7024745","2015-02-15 18:00","2015","02","15","18:00","-18.9","","-26.8","","50","","","","29","","5","","","","100.71","","","","-23","","NA"
"-73.58","45.50","MCTAVISH","7024745","2015-02-15 19:00","2015","02","15","19:00","-19.3","","-27.1","","50","","","","29","","9","","","","100.81","","","","-26","","NA"
"-73.58","45.50","MCTAVISH","7024745","2015-02-15 20:00","2015","02","15","20:00","-19.4","","-27.0","","51","","","","28","","10","","","","100.87","","","","-26","","NA"
"-73.58","45.50","MCTAVISH","7024745","2015-02-15 21:00","2015","02","15","21:00","-20.4","","-27.4","","53","","","","28","","5","","","","100.90","","","","-25","","NA"
"-73.58","45.50","MCTAVISH","7024745","2015-02-15 22:00","2015","02","15","22:00","-20.9","","-27.8","","54","","","","26","","5","","","","100.91","","","","-25","","NA"
"-73.58","45.50","MCTAVISH","7024745","2015-02-15 23:00","2015","02","15","23:00","-21.2","","-27.8","","56","","","","20","","6","","","","100.84","","","","-26","","NA"
"-73.58","45.50","MCTAVISH","7024745","2015-02-16 00:00","2015","02","16","00:00","-21.6","","-27.7","","57","","","","19","","8","","","","100.80","","","","-28","","NA"
"-73.58","45.50","MCTAVISH","7024745","2015-02-16 01:00","2015","02","16","01:00","-21.5","","-27.5","","58","","","","21","","10","","","","100.80","","","","-29","","NA"
"-73.58","45.50","MCTAVISH","7024745","2015-02-16 02:00","2015","02","16","02:00","-21.5","","-27.5","","58","","","","20","","6","","","","100.84","","","","-27","","NA"
"-73.58","45.50","MCTAVISH","7024745","2015-02-16 03:00","2015","02","16","03:00","-21.3","","-27.8","","56","","","","20","","10","","","","100.86","","","","-29","","NA"
"-73.58","45.50","MCTAVISH","7024745","2015-02-16 04:00","2015","02","16","04:00","-21.7","","-28.4","","55","","","","20","","12","","","","100.94","","","","-30","","NA"
"-73.58","45.50","MCTAVISH","7024745","2015-02-16 05:00","2015","02","16","05:00","-22.2","","-29.6","","51","","","","20","","11","","","","100.99","","","","-30","","NA"
"-73.58","45.50","MCTAVISH","7024745","2015-02-16 06:00","2015","02","16","06:00","-22.7","","-30.0","","51","","","","20","","7","","","","101.00","","","","-29","","NA"
"-73.58","45.50","MCTAVISH","7024745","2015-02-16 07:00","2015","02","16","07:00","-23.0","","-30.5","","50","","","","19","","12","","","","101.05","","","","-32","","NA"
"-73.58","45.50","MCTAVISH","7024745","2015-02-16 08:00","2015","02","16","08:00","-22.7","","-29.8","","52","","","","19","","16","","","","101.07","","","","-33","","NA"
"-73.58","45.50","MCTAVISH","7024745","2015-02-16 09:00","2015","02","16","09:00","-21.3","","-29.3","","48","","","","20","","11","","","","101.10","","","","-29","","NA"
"-73.58","45.50","MCTAVISH","7024745","2015-02-16 10:00","2015","02","16","10:00","-21.7","","-29.5","","49","","","","20","","16","","","","101.07","","","","-31","","NA"
"-73.58","45.50","MCTAVISH","7024745","2015-02-16 11:00","2015","02","16","11:00","-20.3","","-29.0","","46","","","","19","","14","","","","101.04","","","","-29","","NA"
"-73.58","45.50","MCTAVISH","7024745","2015-02-16 12:00","2015","02","16","12:00","-18.7","","-27.6","","45","","","","21","","15","","","","100.96","","","","-27","","NA"
"-73.58","45.50","MCTAVISH","7024745","2015-02-16 13:00","2015","02","16","13:00","-17.2","","-26.8","","43","","","","21","","13","","","","100.90","","","","-25","","NA"
"-73.58","45.50","MCTAVISH","7024745","2015-02-16 14:00","2015","02","16","14:00","-16.5","","-26.3","","42","","","","20","","13","","","","100.84","","","","-24","","NA"
"-73.58","45.50","MCTAVISH","7024745","2015-02-16 15:00","2015","02","16","15:00","-15.7","","-25.2","","44","","","","20","","14","","","","100.86","","","","-23","","NA"
"-73.58","45.50","MCTAVISH","7024745","2015-02-16 16:00","2015","02","16","16:00","-16.7","","-25.2","","48","","","","21","","14","","","","100.88","","","","-25","","NA"
"-73.58","45.50","MCTAVISH","7024745","2015-02-16 17:00","2015","02","16","17:00","-17.5","","-25.5","","50","","","","21","","15","","","","100.87","","","","-26","","NA"
"-73.58","45.50","MCTAVISH","7024745","2015-02-16 18:00","2015","02","16","18:00","-17.5","","-26.1","","47","","","","20","","15","","","","100.93","","","","-26","","NA"
"-73.58","45.50","MCTAVISH","7024745","2015-02-16 19:00","2015","02","16","19:00","-17.5","","-26.0","","48","","","","19","","11","","","","100.94","","","","-25","","NA"
"-73.58","45.50","MCTAVISH","7024745","2015-02-16 20:00","2015","02","16","20:00","-17.7","","-26.8","","45","","","","23","","6","","","","100.90","","","","-22","","NA"
"-73.58","45.50","MCTAVISH","7024745","2015-02-16 21:00","2015","02","16","21:00","-17.8","","-26.6","","46","","","","21","","11","","","","100.91","","","","-25","","NA"
"-73.58","45.50","MCTAVISH","7024745","2015-02-16 22:00","2015","02","16","22:00","-18.4","","-26.7","","48","","","","22","","17","","","","100.91","","","","-28","","NA"
"-73.58","45.50","MCTAVISH","7024745","2015-02-16 23:00","2015","02","16","23:00","-18.7","","-27.0","","48","","","","23","","18","","","","100.90","","","","-28","","NA"
"-73.58","45.50","MCTAVISH","7024745","2015-02-17 00:00","2015","02","17","00:00","-19.1","","-27.1","","49","","","","24","","18","","","","100.91","","","","-29","","NA"
"-73.58","45.50","MCTAVISH","7024745","2015-02-17 01:00","2015","02","17","01:00","-19.4","","-27.6","","48","","","","23","","12","","","","100.89","","","","-27","","NA"
"-73.58","45.50","MCTAVISH","7024745","2015-02-17 02:00","2015","02","17","02:00","-19.9","","-27.7","","50","","","","23","","13","","","","100.89","","","","-28","","NA"
"-73.58","45.50","MCTAVISH","7024745","2015-02-17 03:00","2015","02","17","03:00","-18.9","","-27.2","","48","","","","22","","4","","","","100.81","","","","-22","","NA"
"-73.58","45.50","MCTAVISH","7024745","2015-02-17 04:00","2015","02","17","04:00","-20.7","","-26.8","","58","","","","22","","5","","","","100.75","","","","-25","","NA"
"-73.58","45.50","MCTAVISH","7024745","2015-02-17 05:00","2015","02","17","05:00","-19.6","","-26.3","","55","","","","20","","5","","","","100.73","","","","-24","","NA"
"-73.58","45.50","MCTAVISH","7024745","2015-02-17 06:00","2015","02","17","06:00","-21.2","","-26.9","","60","","","","23","","4","","","","100.71","","","","-25","","NA"
"-73.58","45.50","MCTAVISH","7024745","2015-02-17 07:00","2015","02","17","07:00","-21.3","","-26.6","","62","","","","22","","5","","","","100.71","","","","-26","","NA"
"-73.58","45.50","MCTAVISH","7024745","2015-02-17 08:00","2015","02","17","08:00","-18.4","","-24.4","","59","","","","22","","5","","","","100.74","","","","-22","","NA"
"-73.58","45.50","MCTAVISH","7024745","2015-02-17 09:00","2015","02","17","09:00","-17.2","","-22.0","","66","","","","17","","4","","","","100.70","","","","-20","","NA"
"-73.58","45.50","MCTAVISH","7024745","2015-02-17 10:00","2015","02","17","10:00","-16.3","","-23.9","","52","","","","20","","5","","","","100.67","","","","-20","","NA"
"-73.58","45.50","MCTAVISH","7024745","2015-02-17 11:00","2015","02","17","11:00","-14.0","","-22.5","","49","","","","20","","3","","","","100.58","","","","-16","","NA"
"-73.58","45.50","MCTAVISH","7024745","2015-02-17 12:00","2015","02","17","12:00","-13.9","","-21.2","","54","","","","6","","5","","","","100.50","","","","-17","","NA"
"-73.58","45.50","MCTAVISH","7024745","2015-02-17 13:00","2015","02","17","13:00","-13.7","","-20.9","","55","","","","5","","6","","","","100.42","","","","-18","","NA"
"-73.58","45.50","MCTAVISH","7024745","2015-02-17 14:00","2015","02","17","14:00","-13.2","","-20.0","","57","","","","7","","4","","","","100.35","","","","-16","","NA"
"-73.58","45.50","MCTAVISH","7024745","2015-02-17 15:00","2015","02","17","15:00","-13.4","","-22.2","","48","","","","6","","6","","","","100.31","","","","-17","","NA"
"-73.58","45.50","MCTAVISH","7024745","2015-02-17 16:00","2015","02","17","16:00","-13.1","","-21.3","","50","","","","29","","3","","","","100.30","","","","-15","","NA"
"-73.58","45.50","MCTAVISH","7024745","2015-02-17 17:00","2015","02","17","17:00","-13.4","","-22.1","","48","","","","30","","4","","","","100.32","","","","-16","","NA"
"-73.58","45.50","MCTAVISH","7024745","2015-02-17 18:00","2015","02","17","18:00","-13.1","","-22.0","","47","","","","7","","2","","","","100.34","","","","-14","","NA"
"-73.58","45.50","MCTAVISH","7024745","2015-02-17 19:00","2015","02","17","19:00","-13.3","","-19.8","","58","","","","5","","2","","","","100.33","","","","-15","","NA"
"-73.58","45.50","MCTAVISH","7024745","2015-02-17 20:00","2015","02","17","20:00","-13.5","","-19.8","","59","","","","28","","2","","","","100.37","","","","-15","","NA"
"-73.58","45.50","MCTAVISH","7024745","2015-02-17 21:00","2015","02","17","21:00","-13.5","","-20.0","","58","","","","21","","3","","","","100.38","","","","-16","","NA"
"-73.58","45.50","MCTAVISH","7024745","2015-02-17 22:00","2015","02","17","22:00","-13.6","","-19.5","","61","","","","24","","6","","","","100.39","","","","-18","","NA"
"-73.58","45.50","MCTAVISH","7024745","2015-02-17 23:00","2015","02","17","23:00","-14.2","","-19.4","","65","","","","24","","2","","","","100.39","","","","-16","","NA"
"-73.58","45.50","MCTAVISH","7024745","2015-02-18 00:00","2015","02","18","00:00","-15.0","","-19.9","","66","","","","23","","5","","","","100.38","","","","-19","","NA"
"-73.58","45.50","MCTAVISH","7024745","2015-02-18 01:00","2015","02","18","01:00","-14.5","","-19.1","","68","","","","26","","3","","","","100.37","","","","-17","","NA"
"-73.58","45.50","MCTAVISH","7024745","2015-02-18 02:00","2015","02","18","02:00","-15.7","","-19.9","","70","","","","25","","4","","","","100.38","","","","-19","","NA"
"-73.58","45.50","MCTAVISH","7024745","2015-02-18 03:00","2015","02","18","03:00","-14.5","","-19.7","","65","","","","18","","3","","","","100.38","","","","-17","","NA"
"-73.58","45.50","MCTAVISH","7024745","2015-02-18 04:00","2015","02","18","04:00","-14.8","","-19.0","","70","","","","16","","4","","","","100.36","","","","-18","","NA"
"-73.58","45.50","MCTAVISH","7024745","2015-02-18 05:00","2015","02","18","05:00","-15.7","","-19.1","","75","","","","17","","4","","","","100.33","","","","-19","","NA"
"-73.58","45.50","MCTAVISH","7024745","2015-02-18 06:00","2015","02","18","06:00","-18.8","","-22.3","","74","","","","22","","4","","","","100.33","","","","-22","","NA"
"-73.58","45.50","MCTAVISH","7024745","2015-02-18 07:00","2015","02","18","07:00","-16.3","","-19.7","","75","","","","20","","3","","","","100.33","","","","-19","","NA"
"-73.58","45.50","MCTAVISH","7024745","2015-02-18 08:00","2015","02","18","08:00","-14.6","","-17.7","","77","","","","16","","4","","","","100.35","","","","-17","","NA"
"-73.58","45.50","MCTAVISH","7024745","2015-02-18 09:00","2015","02","18","09:00","-15.0","","-18.9","","72","","","","18","","8","","","","100.33","","","","-20","","NA"
"-73.58","45.50","MCTAVISH","7024745","2015-02-18 10:00","2015","02","18","10:00","-13.0","","-18.1","","66","","","","18","","5","","","","100.30","","","","-16","","NA"
"-73.58","45.50","MCTAVISH","7024745","2015-02-18 11:00","2015","02","18","11:00","-11.0","","-17.0","","61","","","","14","","4","","","","100.25","","","","-13","","NA"
"-73.58","45.50","MCTAVISH","7024745","2015-02-18 12:00","2015","02","18","12:00","-9.4","","-16.5","","56","","","","10","","4","","","","100.18","","","","-12","","NA"
"-73.58","45.50","MCTAVISH","7024745","2015-02-18 13:00","2015","02","18","13:00","-8.1","","-16.2","","52","","","","8","","3","","","","100.09","","","","-10","","NA"
"-73.58","45.50","MCTAVISH","7024745","2015-02-18 14:00","2015","02","18","14:00","-7.4","","-14.8","","55","","","","6","","7","","","","99.99","","","","-11","","NA"
"-73.58","45.50","MCTAVISH","7024745","2015-02-18 15:00","2015","02","18","15:00","-8.3","","-15.2","","57","","","","5","","6","","","","99.89","","","","-12","","NA"
"-73.58","45.50","MCTAVISH","7024745","2015-02-18 16:00","2015","02","18","16:00","-8.4","","-16.3","","53","","","","4","","5","","","","99.88","","","","-11","","NA"
"-73.58","45.50","MCTAVISH","7024745","2015-02-18 17:00","2015","02","18","17:00","-8.9","","-16.4","","55","","","","7","","3","","","","99.89","","","","-11","","NA"
"-73.58","45.50","MCTAVISH","7024745","2015-02-18 18:00","2015","02","18","18:00","-9.0","","-16.8","","53","","","","4","","6","","","","99.95","","","","-12","","NA"
"-73.58","45.50","MCTAVISH","7024745","2015-02-18 19:00","2015","02","18","19:00","-9.5","","-17.0","","55","","","","27","","3","","","","99.95","","","","-11","","NA"
"-73.58","45.50","MCTAVISH","7024745","2015-02-18 20:00","2015","02","18","20:00","-9.4","","-16.8","","55","","","","29","","3","","","","99.97","","","","-11","","NA"
"-73.58","45.50","MCTAVISH","7024745","2015-02-18 21:00","2015","02","18","21:00","-9.5","","-16.6","","56","","","","27","","4","","","","99.95","","","","-12","","NA"
"-73.58","45.50","MCTAVISH","7024745","2015-02-18 22:00","2015","02","18","22:00","-9.8","","-15.6","","63","","","","28","","4","","","","99.86","","","","-12","","NA"
"-73.58","45.50","MCTAVISH","7024745","2015-02-18 23:00","2015","02","18","23:00","-9.4","","-16.0","","59","","","","2","","4","","","","99.79","","","","-12","","NA"
"-73.58","45.50","MCTAVISH","7024745","2015-02-19 00:00","2015","02","19","00:00","-9.7","","-15.0","","66","","","","4","","4","","","","99.73","","","","-12","","NA"
"-73.58","45.50","MCTAVISH","7024745","2015-02-19 01:00","2015","02","19","01:00","-10.2","","-13.3","","78","","","","35","","3","","","","99.66","","","","-12","","NA"
"-73.58","45.50","MCTAVISH","7024745","2015-02-19 02:00","2015","02","19","02:00","-10.8","","-12.8","","85","","","","28","","3","","","","99.63","","","","-13","","NA"
"-73.58","45.50","MCTAVISH","7024745","2015-02-19 03:00","2015","02","19","03:00","-10.9","","-12.6","","87","","","","10","","2","","","","99.58","","","","-12","","NA"
"-73.58","45.50","MCTAVISH","7024745","2015-02-19 04:00","2015","02","19","04:00","-11.0","","-12.7","","87","","","","28","","5","","","","99.54","","","","-14","","NA"
"-73.58","45.50","MCTAVISH","7024745","2015-02-19 05:00","2015","02","19","05:00","-11.1","","-12.7","","88","","","","27","","4","","","","99.51","","","","-14","","NA"
"-73.58","45.50","MCTAVISH","7024745","2015-02-19 06:00","2015","02","19","06:00","-10.9","","-12.5","","88","","","","11","","3","","","","99.47","","","","-13","","NA"
"-73.58","45.50","MCTAVISH","7024745","2015-02-19 07:00","2015","02","19","07:00","-10.5","","-12.1","","88","","","","10","","3","","","","99.47","","","","-12","","NA"
"-73.58","45.50","MCTAVISH","7024745","2015-02-19 08:00","2015","02","19","08:00","-9.9","","-11.6","","88","","","","4","","3","","","","99.51","","","","-12","","NA"
"-73.58","45.50","MCTAVISH","7024745","2015-02-19 09:00","2015","02","19","09:00","-9.0","","-10.5","","89","","","","28","","4","","","","99.49","","","","-11","","NA"
"-73.58","45.50","MCTAVISH","7024745","2015-02-19 10:00","2015","02","19","10:00","-8.4","","-10.0","","88","","","","28","","7","","","","99.48","","","","-12","","NA"
"-73.58","45.50","MCTAVISH","7024745","2015-02-19 11:00","2015","02","19","11:00","-8.0","","-9.9","","86","","","","26","","4","","","","99.44","","","","-10","","NA"
"-73.58","45.50","MCTAVISH","7024745","2015-02-19 12:00","2015","02","19","12:00","-9.2","","-11.5","","83","","","","22","","8","","","","99.42","","","","-14","","NA"
"-73.58","45.50","MCTAVISH","7024745","2015-02-19 13:00","2015","02","19","13:00","-11.0","","-13.6","","81","","","","21","","15","","","","99.40","","","","-18","","NA"
"-73.58","45.50","MCTAVISH","7024745","2015-02-19 14:00","2015","02","19","14:00","-13.0","","-15.9","","79","","","","21","","20","","","","99.42","","","","-22","","NA"
"-73.58","45.50","MCTAVISH","7024745","2015-02-19 15:00","2015","02","19","15:00","-13.6","","-16.9","","76","","","","20","","20","","","","99.45","","","","-22","","NA"
"-73.58","45.50","MCTAVISH","7024745","2015-02-19 16:00","2015","02","19","16:00","-14.6","","-18.4","","73","","","","20","","20","","","","99.51","","","","-24","","NA"
"-73.58","45.50","MCTAVISH","7024745","2015-02-19 17:00","2015","02","19","17:00","-15.8","","-19.5","","73","","","","20","","21","","","","99.59","","","","-25","","NA"
"-73.58","45.50","MCTAVISH","7024745","2015-02-19 18:00","2015","02","19","18:00","-16.7","","-20.2","","75","","","","19","","18","","","","99.66","","","","-26","","NA"
"-73.58","45.50","MCTAVISH","7024745","2015-02-19 19:00","2015","02","19","19:00","-16.8","","-19.8","","77","","","","20","","17","","","","99.73","","","","-26","","NA"
"-73.58","45.50","MCTAVISH","7024745","2015-02-19 20:00","2015","02","19","20:00","-16.5","","-19.3","","79","","","","19","","16","","","","99.70","","","","-25","","NA"
"-73.58","45.50","MCTAVISH","7024745","2015-02-19 21:00","2015","02","19","21:00","-16.1","","-18.9","","79","","","","19","","11","","","","99.72","","","","-23","","NA"
"-73.58","45.50","MCTAVISH","7024745","2015-02-19 22:00","2015","02","19","22:00","-16.8","","-19.8","","78","","","","18","","12","","","","99.72","","","","-24","","NA"
"-73.58","45.50","MCTAVISH","7024745","2015-02-19 23:00","2015","02","19","23:00","-17.5","","-20.5","","77","","","","18","","15","","","","99.70","","","","-26","","NA"
"-73.58","45.50","MCTAVISH","7024745","2015-02-20 00:00","2015","02","20","00:00","-17.9","","-21.1","","76","","","","18","","14","","","","99.70","","","","-26","","NA"
"-73.58","45.50","MCTAVISH","7024745","2015-02-20 01:00","2015","02","20","01:00","-18.3","","-21.4","","77","","","","19","","16","","","","99.72","","","","-27","","NA"
"-73.58","45.50","MCTAVISH","7024745","2015-02-20 02:00","2015","02","20","02:00","-18.6","","-21.8","","76","","","","18","","15","","","","99.76","","","","-27","","NA"
"-73.58","45.50","MCTAVISH","7024745","2015-02-20 03:00","2015","02","20","03:00","-19.0","","-22.0","","77","","","","17","","18","","","","99.78","","","","-29","","NA"
"-73.58","45.50","MCTAVISH","7024745","2015-02-20 04:00","2015","02","20","04:00","-19.4","","-22.4","","77","","","","19","","18","","","","99.84","","","","-29","","NA"
"-73.58","45.50","MCTAVISH","7024745","2015-02-20 05:00","2015","02","20","05:00","-19.4","","-22.4","","77","","","","18","","18","","","","99.94","","","","-29","","NA"
"-73.58","45.50","MCTAVISH","7024745","2015-02-20 06:00","2015","02","20","06:00","-19.4","","-22.4","","77","","","","19","","18","","","","100.04","","","","-29","","NA"
"-73.58","45.50","MCTAVISH","7024745","2015-02-20 07:00","2015","02","20","07:00","-19.1","","-22.0","","78","","","","20","","17","","","","100.16","","","","-29","","NA"
"-73.58","45.50","MCTAVISH","7024745","2015-02-20 08:00","2015","02","20","08:00","-18.5","","-21.4","","78","","","","17","","14","","","","100.29","","","","-27","","NA"
"-73.58","45.50","MCTAVISH","7024745","2015-02-20 09:00","2015","02","20","09:00","-17.5","","-21.5","","71","","","","18","","16","","","","100.42","","","","-26","","NA"
"-73.58","45.50","MCTAVISH","7024745","2015-02-20 10:00","2015","02","20","10:00","-17.0","","-21.5","","68","","","","19","","17","","","","100.56","","","","-26","","NA"
"-73.58","45.50","MCTAVISH","7024745","2015-02-20 11:00","2015","02","20","11:00","-17.1","","-22.2","","65","","","","18","","17","","","","100.68","","","","-26","","NA"
"-73.58","45.50","MCTAVISH","7024745","2015-02-20 12:00","2015","02","20","12:00","-17.0","","-22.2","","64","","","","19","","20","","","","100.79","","","","-27","","NA"
"-73.58","45.50","MCTAVISH","7024745","2015-02-20 13:00","2015","02","20","13:00","-16.1","","-21.8","","62","","","","20","","17","","","","100.86","","","","-25","","NA"
"-73.58","45.50","MCTAVISH","7024745","2015-02-20 14:00","2015","02","20","14:00","-15.9","","-21.7","","61","","","","20","","16","","","","100.95","","","","-24","","NA"
"-73.58","45.50","MCTAVISH","7024745","2015-02-20 15:00","2015","02","20","15:00","-15.3","","-21.3","","60","","","","19","","15","","","","101.06","","","","-23","","NA"
"-73.58","45.50","MCTAVISH","7024745","2015-02-20 16:00","2015","02","20","16:00","-14.6","","-21.4","","56","","","","19","","12","","","","101.15","","","","-21","","NA"
"-73.58","45.50","MCTAVISH","7024745","2015-02-20 17:00","2015","02","20","17:00","-14.4","","-21.7","","54","","","","19","","11","","","","101.23","","","","-21","","NA"
"-73.58","45.50","MCTAVISH","7024745","2015-02-20 18:00","2015","02","20","18:00","-14.7","","-22.3","","52","","","","18","","8","","","","101.33","","","","-20","","NA"
"-73.58","45.50","MCTAVISH","7024745","2015-02-20 19:00","2015","02","20","19:00","-14.9","","-21.7","","56","","","","17","","7","","","","101.45","","","","-20","","NA"
"-73.58","45.50","MCTAVISH","7024745","2015-02-20 20:00","2015","02","20","20:00","-15.2","","-21.9","","57","","","","18","","8","","","","101.53","","","","-21","","NA"
"-73.58","45.50","MCTAVISH","7024745","2015-02-20 21:00","2015","02","20","21:00","-15.6","","-21.8","","59","","","","19","","9","","","","101.58","","","","-22","","NA"
"-73.58","45.50","MCTAVISH","7024745","2015-02-20 22:00","2015","02","20","22:00","-15.6","","-22.2","","57","","","","17","","7","","","","101.62","","","","-21","","NA"
"-73.58","45.50","MCTAVISH","7024745","2015-02-20 23:00","2015","02","20","23:00","-15.7","","-23.0","","54","","","","15","","5","","","","101.64","","","","-19","","NA"
"-73.58","45.50","MCTAVISH","7024745","2015-02-21 00:00","2015","02","21","00:00","-15.6","","-21.8","","59","","","","18","","9","","","","101.70","","","","-22","","NA"
"-73.58","45.50","MCTAVISH","7024745","2015-02-21 01:00","2015","02","21","01:00","-15.2","","-20.3","","64","","","","16","","8","","","","101.74","","","","-21","","NA"
"-73.58","45.50","MCTAVISH","7024745","2015-02-21 02:00","2015","02","21","02:00","-15.2","","-18.8","","73","","","","15","","6","","","","101.81","","","","-19","","NA"
"-73.58","45.50","MCTAVISH","7024745","2015-02-21 03:00","2015","02","21","03:00","-15.2","","-18.6","","75","","","","18","","6","","","","101.76","","","","-19","","NA"
"-73.58","45.50","MCTAVISH","7024745","2015-02-21 04:00","2015","02","21","04:00","-14.9","","-18.8","","72","","","","18","","7","","","","101.72","","","","-20","","NA"
"-73.58","45.50","MCTAVISH","7024745","2015-02-21 05:00","2015","02","21","05:00","-15.1","","-19.5","","69","","","","15","","6","","","","101.72","","","","-19","","NA"
"-73.58","45.50","MCTAVISH","7024745","2015-02-21 06:00","2015","02","21","06:00","-15.2","","-19.5","","70","","","","15","","5","","","","101.67","","","","-19","","NA"
"-73.58","45.50","MCTAVISH","7024745","2015-02-21 07:00","2015","02","21","07:00","-15.3","","-19.6","","70","","","","16","","7","","","","101.66","","","","-20","","NA"
"-73.58","45.50","MCTAVISH","7024745","2015-02-21 08:00","2015","02","21","08:00","-14.9","","-19.8","","66","","","","15","","5","","","","101.64","","","","-18","","NA"
"-73.58","45.50","MCTAVISH","7024745","2015-02-21 09:00","2015","02","21","09:00","-13.1","","-19.1","","61","","","","14","","4","","","","101.57","","","","-16","","NA"
"-73.58","45.50","MCTAVISH","7024745","2015-02-21 10:00","2015","02","21","10:00","-12.2","","-18.6","","59","","","","15","","6","","","","101.49","","","","-16","","NA"
"-73.58","45.50","MCTAVISH","7024745","2015-02-21 11:00","2015","02","21","11:00","-10.6","","-17.3","","58","","","","17","","6","","","","101.30","","","","-14","","NA"
"-73.58","45.50","MCTAVISH","7024745","2015-02-21 12:00","2015","02","21","12:00","-9.7","","-17.3","","54","","","","16","","6","","","","101.23","","","","-13","","NA"
"-73.58","45.50","MCTAVISH","7024745","2015-02-21 13:00","2015","02","21","13:00","-8.5","","-15.9","","55","","","","17","","4","","","","101.18","","","","-11","","NA"
"-73.58","45.50","MCTAVISH","7024745","2015-02-21 14:00","2015","02","21","14:00","-8.9","","-16.4","","54","","","","22","","3","","","","101.14","","","","-11","","NA"
"-73.58","45.50","MCTAVISH","7024745","2015-02-21 15:00","2015","02","21","15:00","-7.8","","-16.2","","51","","","","16","","3","","","","101.10","","","","-9","","NA"
"-73.58","45.50","MCTAVISH","7024745","2015-02-21 16:00","2015","02","21","16:00","-8.2","","-14.9","","58","","","","15","","5","","","","101.05","","","","-11","","NA"
"-73.58","45.50","MCTAVISH","7024745","2015-02-21 17:00","2015","02","21","17:00","-8.6","","-10.5","","86","","","","15","","4","","","","100.96","","","","-11","","NA"
"-73.58","45.50","MCTAVISH","7024745","2015-02-21 18:00","2015","02","21","18:00","-8.1","","-9.5","","90","","","","16","","5","","","","100.93","","","","-11","","NA"
"-73.58","45.50","MCTAVISH","7024745","2015-02-21 19:00","2015","02","21","19:00","-7.7","","-8.8","","91","","","","15","","5","","","","100.89","","","","-10","","NA"
"-73.58","45.50","MCTAVISH","7024745","2015-02-21 20:00","2015","02","21","20:00","-7.7","","-8.9","","91","","","","18","","8","","","","100.87","","","","-12","","NA"
"-73.58","45.50","MCTAVISH","7024745","2015-02-21 21:00","2015","02","21","21:00","-7.7","","-8.9","","91","","","","18","","10","","","","100.88","","","","-13","","NA"
"-73.58","45.50","MCTAVISH","7024745","2015-02-21 22:00","2015","02","21","22:00","-7.5","","-8.7","","91","","","","19","","10","","","","100.93","","","","-12","","NA"
"-73.58","45.50","MCTAVISH","7024745","2015-02-21 23:00","2015","02","21","23:00","-7.3","","-8.5","","91","","","","21","","7","","","","100.92","","","","-11","","NA"
"-73.58","45.50","MCTAVISH","7024745","2015-02-22 00:00","2015","02","22","00:00","-7.3","","-8.4","","91","","","","19","","6","","","","100.97","","","","-10","","NA"
"-73.58","45.50","MCTAVISH","7024745","2015-02-22 01:00","2015","02","22","01:00","-7.4","","-8.6","","91","","","","19","","9","","","","100.95","","","","-12","","NA"
"-73.58","45.50","MCTAVISH","7024745","2015-02-22 02:00","2015","02","22","02:00","-7.0","","-8.3","","91","","","","19","","7","","","","100.96","","","","-11","","NA"
"-73.58","45.50","MCTAVISH","7024745","2015-02-22 03:00","2015","02","22","03:00","-6.6","","-7.9","","90","","","","24","","3","","","","100.98","","","","-8","","NA"
"-73.58","45.50","MCTAVISH","7024745","2015-02-22 04:00","2015","02","22","04:00","-6.3","","-7.9","","89","","","","24","","6","","","","100.97","","","","-9","","NA"
"-73.58","45.50","MCTAVISH","7024745","2015-02-22 05:00","2015","02","22","05:00","-7.0","","-8.6","","88","","","","35","","2","","","","101.01","","","","-8","","NA"
"-73.58","45.50","MCTAVISH","7024745","2015-02-22 06:00","2015","02","22","06:00","-7.7","","-9.2","","89","","","","0","","1","","","","101.03","","","","-8","","NA"
"-73.58","45.50","MCTAVISH","7024745","2015-02-22 07:00","2015","02","22","07:00","-7.9","","-9.3","","89","","","","","","0","","","","101.05","","","","","","NA"
"-73.58","45.50","MCTAVISH","7024745","2015-02-22 08:00","2015","02","22","08:00","-6.8","","-8.2","","90","","","","35","","1","","","","101.12","","","","-7","","NA"
"-73.58","45.50","MCTAVISH","7024745","2015-02-22 09:00","2015","02","22","09:00","-6.2","","-7.9","","88","","","","12","","2","","","","101.15","","","","-7","","NA"
"-73.58","45.50","MCTAVISH","7024745","2015-02-22 10:00","2015","02","22","10:00","-6.2","","-8.4","","85","","","","24","","9","","","","101.19","","","","-10","","NA"
"-73.58","45.50","MCTAVISH","7024745","2015-02-22 11:00","2015","02","22","11:00","-5.1","","-7.8","","82","","","","17","","8","","","","101.18","","","","-9","","NA"
"-73.58","45.50","MCTAVISH","7024745","2015-02-22 12:00","2015","02","22","12:00","-4.4","","-7.9","","77","","","","17","","10","","","","101.18","","","","-9","","NA"
"-73.58","45.50","MCTAVISH","7024745","2015-02-22 13:00","2015","02","22","13:00","-4.2","","-8.7","","71","","","","21","","11","","","","101.11","","","","-9","","NA"
"-73.58","45.50","MCTAVISH","7024745","2015-02-22 14:00","2015","02","22","14:00","-3.7","","-9.0","","66","","","","21","","9","","","","101.11","","","","-7","","NA"
"-73.58","45.50","MCTAVISH","7024745","2015-02-22 15:00","2015","02","22","15:00","-3.9","","-9.8","","63","","","","20","","9","","","","101.11","","","","-8","","NA"
"-73.58","45.50","MCTAVISH","7024745","2015-02-22 16:00","2015","02","22","16:00","-3.8","","-9.6","","64","","","","21","","7","","","","101.07","","","","-7","","NA"
"-73.58","45.50","MCTAVISH","7024745","2015-02-22 17:00","2015","02","22","17:00","-3.7","","-9.6","","64","","","","21","","6","","","","101.04","","","","-6","","NA"
"-73.58","45.50","MCTAVISH","7024745","2015-02-22 18:00","2015","02","22","18:00","-3.7","","-9.8","","63","","","","21","","6","","","","101.09","","","","-6","","NA"
"-73.58","45.50","MCTAVISH","7024745","2015-02-22 19:00","2015","02","22","19:00","-3.4","","-9.2","","64","","","","18","","6","","","","101.08","","","","-6","","NA"
"-73.58","45.50","MCTAVISH","7024745","2015-02-22 20:00","2015","02","22","20:00","-4.4","","-7.1","","81","","","","20","","9","","","","101.08","","","","-8","","NA"
"-73.58","45.50","MCTAVISH","7024745","2015-02-22 21:00","2015","02","22","21:00","-4.5","","-6.5","","86","","","","20","","8","","","","101.02","","","","-8","","NA"
"-73.58","45.50","MCTAVISH","7024745","2015-02-22 22:00","2015","02","22","22:00","-4.4","","-6.3","","87","","","","17","","9","","","","100.94","","","","-8","","NA"
"-73.58","45.50","MCTAVISH","7024745","2015-02-22 23:00","2015","02","22","23:00","-4.7","","-6.2","","89","","","","19","","9","","","","100.90","","","","-9","","NA"
"-73.58","45.50","MCTAVISH","7024745","2015-02-23 00:00","2015","02","23","00:00","-5.7","","-8.7","","80","","","","19","","7","","","","100.93","","","","-9","","NA"
"-73.58","45.50","MCTAVISH","7024745","2015-02-23 01:00","2015","02","23","01:00","-10.0","","-15.3","","65","","","","29","","9","","","","101.11","","","","-15","","NA"
"-73.58","45.50","MCTAVISH","7024745","2015-02-23 02:00","2015","02","23","02:00","-11.6","","-18.5","","57","","","","28","","6","","","","101.18","","","","-15","","NA"
"-73.58","45.50","MCTAVISH","7024745","2015-02-23 03:00","2015","02","23","03:00","-13.2","","-20.5","","54","","","","12","","2","","","","101.28","","","","-15","","NA"
"-73.58","45.50","MCTAVISH","7024745","2015-02-23 04:00","2015","02","23","04:00","-15.0","","-22.1","","55","","","","18","","5","","","","101.41","","","","-19","","NA"
"-73.58","45.50","MCTAVISH","7024745","2015-02-23 05:00","2015","02","23","05:00","-16.8","","-24.2","","53","","","","19","","5","","","","101.54","","","","-21","","NA"
"-73.58","45.50","MCTAVISH","7024745","2015-02-23 06:00","2015","02","23","06:00","-18.6","","-25.8","","53","","","","19","","5","","","","101.66","","","","-23","","NA"
"-73.58","45.50","MCTAVISH","7024745","2015-02-23 07:00","2015","02","23","07:00","-19.5","","-25.7","","58","","","","21","","3","","","","101.71","","","","-22","","NA"
"-73.58","45.50","MCTAVISH","7024745","2015-02-23 08:00","2015","02","23","08:00","-19.9","","-26.0","","58","","","","17","","4","","","","101.79","","","","-23","","NA"
"-73.58","45.50","MCTAVISH","7024745","2015-02-23 09:00","2015","02","23","09:00","-19.8","","-26.5","","55","","","","31","","8","","","","101.85","","","","-26","","NA"
"-73.58","45.50","MCTAVISH","7024745","2015-02-23 10:00","2015","02","23","10:00","-20.4","","-28.2","","50","","","","27","","10","","","","101.87","","","","-28","","NA"
"-73.58","45.50","MCTAVISH","7024745","2015-02-23 11:00","2015","02","23","11:00","-19.4","","-27.3","","49","","","","18","","6","","","","101.88","","","","-24","","NA"
"-73.58","45.50","MCTAVISH","7024745","2015-02-23 12:00","2015","02","23","12:00","-18.6","","-27.9","","44","","","","20","","6","","","","101.86","","","","-23","","NA"
"-73.58","45.50","MCTAVISH","7024745","2015-02-23 13:00","2015","02","23","13:00","-19.2","","-28.3","","44","","","","21","","11","","","","101.77","","","","-27","","NA"
"-73.58","45.50","MCTAVISH","7024745","2015-02-23 14:00","2015","02","23","14:00","-19.4","","-27.9","","47","","","","20","","12","","","","101.75","","","","-27","","NA"
"-73.58","45.50","MCTAVISH","7024745","2015-02-23 15:00","2015","02","23","15:00","-18.8","","-27.9","","45","","","","21","","14","","","","101.74","","","","-27","","NA"
"-73.58","45.50","MCTAVISH","7024745","2015-02-23 16:00","2015","02","23","16:00","-19.0","","-28.9","","41","","","","20","","10","","","","101.72","","","","-26","","NA"
"-73.58","45.50","MCTAVISH","7024745","2015-02-23 17:00","2015","02","23","17:00","-19.4","","-28.8","","43","","","","26","","4","","","","101.71","","","","-23","","NA"
"-73.58","45.50","MCTAVISH","7024745","2015-02-23 18:00","2015","02","23","18:00","-19.9","","-28.2","","48","","","","19","","4","","","","101.71","","","","-23","","NA"
"-73.58","45.50","MCTAVISH","7024745","2015-02-23 19:00","2015","02","23","19:00","-19.8","","-28.6","","46","","","","21","","5","","","","101.70","","","","-24","","NA"
"-73.58","45.50","MCTAVISH","7024745","2015-02-23 20:00","2015","02","23","20:00","-19.7","","-28.6","","45","","","","23","","4","","","","101.70","","","","-23","","NA"
"-73.58","45.50","MCTAVISH","7024745","2015-02-23 21:00","2015","02","23","21:00","-20.1","","-28.2","","48","","","","17","","2","","","","101.71","","","","-22","","NA"
"-73.58","45.50","MCTAVISH","7024745","2015-02-23 22:00","2015","02","23","22:00","-19.8","","-28.0","","48","","","","17","","6","","","","101.68","","","","-25","","NA"
"-73.58","45.50","MCTAVISH","7024745","2015-02-23 23:00","2015","02","23","23:00","-20.0","","-27.0","","54","","","","19","","6","","","","101.63","","","","-25","","NA"
"-73.58","45.50","MCTAVISH","7024745","2015-02-24 00:00","2015","02","24","00:00","-19.8","","-26.9","","53","","","","20","","6","","","","101.58","","","","-25","","NA"
"-73.58","45.50","MCTAVISH","7024745","2015-02-24 01:00","2015","02","24","01:00","-20.3","","-26.6","","57","","","","22","","9","","","","101.55","","","","-27","","NA"
"-73.58","45.50","MCTAVISH","7024745","2015-02-24 02:00","2015","02","24","02:00","-21.1","","-26.7","","61","","","","21","","11","","","","101.52","","","","-29","","NA"
"-73.58","45.50","MCTAVISH","7024745","2015-02-24 03:00","2015","02","24","03:00","-21.4","","-26.7","","62","","","","21","","13","","","","101.42","","","","-30","","NA"
"-73.58","45.50","MCTAVISH","7024745","2015-02-24 04:00","2015","02","24","04:00","-20.9","","-25.9","","64","","","","21","","14","","","","101.38","","","","-30","","NA"
"-73.58","45.50","MCTAVISH","7024745","2015-02-24 05:00","2015","02","24","05:00","-20.4","","-25.0","","67","","","","22","","6","","","","101.29","","","","-25","","NA"
"-73.58","45.50","MCTAVISH","7024745","2015-02-24 06:00","2015","02","24","06:00","-20.6","","-24.7","","69","","","","19","","7","","","","101.24","","","","-26","","NA"
"-73.58","45.50","MCTAVISH","7024745","2015-02-24 07:00","2015","02","24","07:00","-20.1","","-24.1","","70","","","","18","","11","","","","101.21","","","","-28","","NA"
"-73.58","45.50","MCTAVISH","7024745","2015-02-24 08:00","2015","02","24","08:00","-19.3","","-23.3","","71","","","","17","","3","","","","101.17","","","","-22","","NA"
"-73.58","45.50","MCTAVISH","7024745","2015-02-24 09:00","2015","02","24","09:00","-18.1","","-22.1","","71","","","","17","","5","","","","101.08","","","","-22","","NA"
"-73.58","45.50","MCTAVISH","7024745","2015-02-24 10:00","2015","02","24","10:00","-17.3","","-22.4","","65","","","","18","","10","","","","100.97","","","","-24","","NA"
"-73.58","45.50","MCTAVISH","7024745","2015-02-24 11:00","2015","02","24","11:00","-16.0","","-21.1","","65","","","","16","","8","","","","100.88","","","","-22","","NA"
"-73.58","45.50","MCTAVISH","7024745","2015-02-24 12:00","2015","02","24","12:00","-14.1","","-19.8","","62","","","","15","","10","","","","100.73","","","","-20","","NA"
"-73.58","45.50","MCTAVISH","7024745","2015-02-24 13:00","2015","02","24","13:00","-13.4","","-19.6","","59","","","","16","","9","","","","100.56","","","","-19","","NA"
"-73.58","45.50","MCTAVISH","7024745","2015-02-24 14:00","2015","02","24","14:00","-12.5","","-18.6","","60","","","","13","","6","","","","100.41","","","","-16","","NA"
"-73.58","45.50","MCTAVISH","7024745","2015-02-24 15:00","2015","02","24","15:00","-12.2","","-18.3","","61","","","","16","","9","","","","100.24","","","","-17","","NA"
"-73.58","45.50","MCTAVISH","7024745","2015-02-24 16:00","2015","02","24","16:00","-11.9","","-18.3","","59","","","","16","","8","","","","100.06","","","","-17","","NA"
"-73.58","45.50","MCTAVISH","7024745","2015-02-24 17:00","2015","02","24","17:00","-11.5","","-18.7","","55","","","","17","","8","","","","99.90","","","","-16","","NA"
"-73.58","45.50","MCTAVISH","7024745","2015-02-24 18:00","2015","02","24","18:00","-10.8","","-18.6","","53","","","","17","","6","","","","99.79","","","","-14","","NA"
"-73.58","45.50","MCTAVISH","7024745","2015-02-24 19:00","2015","02","24","19:00","-10.2","","-18.7","","50","","","","19","","6","","","","99.75","","","","-14","","NA"
"-73.58","45.50","MCTAVISH","7024745","2015-02-24 20:00","2015","02","24","20:00","-9.6","","-18.7","","47","","","","19","","7","","","","99.68","","","","-14","","NA"
"-73.58","45.50","MCTAVISH","7024745","2015-02-24 21:00","2015","02","24","21:00","-9.0","","-18.4","","47","","","","15","","4","","","","99.64","","","","-11","","NA"
"-73.58","45.50","MCTAVISH","7024745","2015-02-24 22:00","2015","02","24","22:00","-8.9","","-17.6","","49","","","","17","","8","","","","99.55","","","","-13","","NA"
"-73.58","45.50","MCTAVISH","7024745","2015-02-24 23:00","2015","02","24","23:00","-8.9","","-17.1","","52","","","","18","","6","","","","99.53","","","","-12","","NA"
"-73.58","45.50","MCTAVISH","7024745","2015-02-25 00:00","2015","02","25","00:00","-8.8","","-17.4","","50","","","","16","","6","","","","99.53","","","","-12","","NA"
"-73.58","45.50","MCTAVISH","7024745","2015-02-25 01:00","2015","02","25","01:00","-9.0","","-17.3","","51","","","","18","","6","","","","99.51","","","","-12","","NA"
"-73.58","45.50","MCTAVISH","7024745","2015-02-25 02:00","2015","02","25","02:00","-9.4","","-17.2","","53","","","","19","","8","","","","99.47","","","","-14","","NA"
"-73.58","45.50","MCTAVISH","7024745","2015-02-25 03:00","2015","02","25","03:00","-9.4","","-16.7","","55","","","","19","","7","","","","99.45","","","","-13","","NA"
"-73.58","45.50","MCTAVISH","7024745","2015-02-25 04:00","2015","02","25","04:00","-9.0","","-15.5","","60","","","","19","","8","","","","99.42","","","","-13","","NA"
"-73.58","45.50","MCTAVISH","7024745","2015-02-25 05:00","2015","02","25","05:00","-9.2","","-15.1","","62","","","","18","","8","","","","99.44","","","","-14","","NA"
"-73.58","45.50","MCTAVISH","7024745","2015-02-25 06:00","2015","02","25","06:00","-9.0","","-13.3","","70","","","","17","","2","","","","99.45","","","","-10","","NA"
"-73.58","45.50","MCTAVISH","7024745","2015-02-25 07:00","2015","02","25","07:00","-9.0","","-14.0","","67","","","","16","","5","","","","99.48","","","","-12","","NA"
"-73.58","45.50","MCTAVISH","7024745","2015-02-25 08:00","2015","02","25","08:00","-8.7","","-12.9","","72","","","","18","","5","","","","99.51","","","","-11","","NA"
"-73.58","45.50","MCTAVISH","7024745","2015-02-25 09:00","2015","02","25","09:00","-7.9","","-12.1","","72","","","","17","","5","","","","99.52","","","","-11","","NA"
"-73.58","45.50","MCTAVISH","7024745","2015-02-25 10:00","2015","02","25","10:00","-6.9","","-12.3","","66","","","","18","","5","","","","99.49","","","","-9","","NA"
"-73.58","45.50","MCTAVISH","7024745","2015-02-25 11:00","2015","02","25","11:00","-6.7","","-9.5","","80","","","","16","","5","","","","99.50","","","","-9","","NA"
"-73.58","45.50","MCTAVISH","7024745","2015-02-25 12:00","2015","02","25","12:00","-5.9","","-8.5","","82","","","","20","","8","","","","99.52","","","","-10","","NA"
"-73.58","45.50","MCTAVISH","7024745","2015-02-25 13:00","2015","02","25","13:00","-5.4","","-9.2","","75","","","","20","","13","","","","99.52","","","","-11","","NA"
"-73.58","45.50","MCTAVISH","7024745","2015-02-25 14:00","2015","02","25","14:00","-6.1","","-11.3","","67","","","","19","","15","","","","99.63","","","","-12","","NA"
"-73.58","45.50","MCTAVISH","7024745","2015-02-25 15:00","2015","02","25","15:00","-5.7","","-12.9","","57","","","","20","","14","","","","99.75","","","","-11","","NA"
"-73.58","45.50","MCTAVISH","7024745","2015-02-25 16:00","2015","02","25","16:00","-6.1","","-13.1","","58","","","","20","","13","","","","99.87","","","","-11","","NA"
"-73.58","45.50","MCTAVISH","7024745","2015-02-25 17:00","2015","02","25","17:00","-7.7","","-15.6","","53","","","","19","","7","","","","100.04","","","","-11","","NA"
"-73.58","45.50","MCTAVISH","7024745","2015-02-25 18:00","2015","02","25","18:00","-8.7","","-17.5","","49","","","","18","","5","","","","100.15","","","","-11","","NA"
"-73.58","45.50","MCTAVISH","7024745","2015-02-25 19:00","2015","02","25","19:00","-9.5","","-18.7","","47","","","","19","","5","","","","100.35","","","","-12","","NA"
"-73.58","45.50","MCTAVISH","7024745","2015-02-25 20:00","2015","02","25","20:00","-10.6","","-20.0","","46","","","","29","","4","","","","100.50","","","","-13","","NA"
"-73.58","45.50","MCTAVISH","7024745","2015-02-25 21:00","2015","02","25","21:00","-11.8","","-21.8","","43","","","","26","","3","","","","100.71","","","","-14","","NA"
"-73.58","45.50","MCTAVISH","7024745","2015-02-25 22:00","2015","02","25","22:00","-14.3","","-23.3","","46","","","","23","","3","","","","100.87","","","","-16","","NA"
"-73.58","45.50","MCTAVISH","7024745","2015-02-25 23:00","2015","02","25","23:00","-13.5","","-22.8","","46","","","","31","","5","","","","100.90","","","","-17","","NA"
"-73.58","45.50","MCTAVISH","7024745","2015-02-26 00:00","2015","02","26","00:00","-15.8","","-23.8","","50","","","","22","","3","","","","100.92","","","","-18","","NA"
"-73.58","45.50","MCTAVISH","7024745","2015-02-26 01:00","2015","02","26","01:00","-15.3","","-24.1","","47","","","","26","","5","","","","101.01","","","","-19","","NA"
"-73.58","45.50","MCTAVISH","7024745","2015-02-26 02:00","2015","02","26","02:00","-17.9","","-25.8","","50","","","","24","","5","","","","101.04","","","","-22","","NA"
"-73.58","45.50","MCTAVISH","7024745","2015-02-26 03:00","2015","02","26","03:00","-18.0","","-23.7","","61","","","","25","","6","","","","101.12","","","","-23","","NA"
"-73.58","45.50","MCTAVISH","7024745","2015-02-26 04:00","2015","02","26","04:00","-16.1","","-23.0","","55","","","","29","","2","","","","101.10","","","","-18","","NA"
"-73.58","45.50","MCTAVISH","7024745","2015-02-26 05:00","2015","02","26","05:00","-16.1","","-23.9","","51","","","","30","","3","","","","101.14","","","","-18","","NA"
"-73.58","45.50","MCTAVISH","7024745","2015-02-26 06:00","2015","02","26","06:00","-16.2","","-23.4","","54","","","","30","","3","","","","101.13","","","","-18","","NA"
"-73.58","45.50","MCTAVISH","7024745","2015-02-26 07:00","2015","02","26","07:00","-16.2","","-23.3","","54","","","","33","","2","","","","101.16","","","","-18","","NA"
"-73.58","45.50","MCTAVISH","7024745","2015-02-26 08:00","2015","02","26","08:00","-15.6","","-21.6","","60","","","","8","","5","","","","101.23","","","","-19","","NA"
"-73.58","45.50","MCTAVISH","7024745","2015-02-26 09:00","2015","02","26","09:00","-15.9","","-21.8","","60","","","","6","","6","","","","101.27","","","","-20","","NA"
"-73.58","45.50","MCTAVISH","7024745","2015-02-26 10:00","2015","02","26","10:00","-15.7","","-22.2","","57","","","","5","","8","","","","101.27","","","","-21","","NA"
"-73.58","45.50","MCTAVISH","7024745","2015-02-26 11:00","2015","02","26","11:00","-15.2","","-21.7","","58","","","","6","","6","","","","101.26","","","","-19","","NA"
"-73.58","45.50","MCTAVISH","7024745","2015-02-26 12:00","2015","02","26","12:00","-14.6","","-21.5","","56","","","","36","","4","","","","101.23","","","","-17","","NA"
"-73.58","45.50","MCTAVISH","7024745","2015-02-26 13:00","2015","02","26","13:00","-14.0","","-20.7","","57","","","","5","","3","","","","101.15","","","","-16","","NA"
"-73.58","45.50","MCTAVISH","7024745","2015-02-26 14:00","2015","02","26","14:00","-13.5","","-20.0","","58","","","","23","","4","","","","101.09","","","","-16","","NA"
"-73.58","45.50","MCTAVISH","7024745","2015-02-26 15:00","2015","02","26","15:00","-12.7","","-17.8","","66","","","","22","","3","","","","101.08","","","","-15","","NA"
"-73.58","45.50","MCTAVISH","7024745","2015-02-26 16:00","2015","02","26","16:00","-12.9","","-19.4","","58","","","","23","","3","","","","101.04","","","","-15","","NA"
"-73.58","45.50","MCTAVISH","7024745","2015-02-26 17:00","2015","02","26","17:00","-12.8","","-21.0","","50","","","","16","","6","","","","101.04","","","","-17","","NA"
"-73.58","45.50","MCTAVISH","7024745","2015-02-26 18:00","2015","02","26","18:00","-14.2","","-22.3","","50","","","","24","","8","","","","101.09","","","","-19","","NA"
"-73.58","45.50","MCTAVISH","7024745","2015-02-26 19:00","2015","02","26","19:00","-13.9","","-21.4","","53","","","","23","","4","","","","101.14","","","","-17","","NA"
"-73.58","45.50","MCTAVISH","7024745","2015-02-26 20:00","2015","02","26","20:00","-13.7","","-22.7","","46","","","","21","","7","","","","101.19","","","","-18","","NA"
"-73.58","45.50","MCTAVISH","7024745","2015-02-26 21:00","2015","02","26","21:00","-13.5","","-22.5","","47","","","","19","","6","","","","101.22","","","","-18","","NA"
"-73.58","45.50","MCTAVISH","7024745","2015-02-26 22:00","2015","02","26","22:00","-14.1","","-22.9","","47","","","","24","","5","","","","101.26","","","","-18","","NA"
"-73.58","45.50","MCTAVISH","7024745","2015-02-26 23:00","2015","02","26","23:00","-14.9","","-23.5","","48","","","","23","","11","","","","101.29","","","","-21","","NA"
"-73.58","45.50","MCTAVISH","7024745","2015-02-27 00:00","2015","02","27","00:00","-15.1","","-24.1","","46","","","","23","","9","","","","101.32","","","","-21","","NA"
"-73.58","45.50","MCTAVISH","7024745","2015-02-27 01:00","2015","02","27","01:00","-15.0","","-24.1","","46","","","","24","","10","","","","101.37","","","","-21","","NA"
"-73.58","45.50","MCTAVISH","7024745","2015-02-27 02:00","2015","02","27","02:00","-16.1","","-24.1","","50","","","","23","","11","","","","101.41","","","","-23","","NA"
"-73.58","45.50","MCTAVISH","7024745","2015-02-27 03:00","2015","02","27","03:00","-15.8","","-24.5","","47","","","","23","","12","","","","101.43","","","","-23","","NA"
"-73.58","45.50","MCTAVISH","7024745","2015-02-27 04:00","2015","02","27","04:00","-16.0","","-24.9","","46","","","","23","","11","","","","101.49","","","","-23","","NA"
"-73.58","45.50","MCTAVISH","7024745","2015-02-27 05:00","2015","02","27","05:00","-16.6","","-24.2","","52","","","","23","","14","","","","101.57","","","","-25","","NA"
"-73.58","45.50","MCTAVISH","7024745","2015-02-27 06:00","2015","02","27","06:00","-17.7","","-24.6","","55","","","","23","","10","","","","101.64","","","","-24","","NA"
"-73.58","45.50","MCTAVISH","7024745","2015-02-27 07:00","2015","02","27","07:00","-17.5","","-24.3","","55","","","","23","","11","","","","101.72","","","","-25","","NA"
"-73.58","45.50","MCTAVISH","7024745","2015-02-27 08:00","2015","02","27","08:00","-16.6","","-23.9","","53","","","","23","","6","","","","101.83","","","","-21","","NA"
"-73.58","45.50","MCTAVISH","7024745","2015-02-27 09:00","2015","02","27","09:00","-15.2","","-23.7","","48","","","","25","","5","","","","101.89","","","","-19","","NA"
"-73.58","45.50","MCTAVISH","7024745","2015-02-27 10:00","2015","02","27","10:00","-14.7","","-23.2","","48","","","","20","","7","","","","101.94","","","","-19","","NA"
"-73.58","45.50","MCTAVISH","7024745","2015-02-27 11:00","2015","02","27","11:00","-13.6","","-22.3","","48","","","","21","","11","","","","101.96","","","","-20","","NA"
"-73.58","45.50","MCTAVISH","7024745","2015-02-27 12:00","2015","02","27","12:00","-11.7","","-20.7","","47","","","","20","","10","","","","101.96","","","","-17","","NA"
"-73.58","45.50","MCTAVISH","7024745","2015-02-27 13:00","2015","02","27","13:00","-10.7","","-20.5","","44","","","","20","","9","","","","101.92","","","","-16","","NA"
"-73.58","45.50","MCTAVISH","7024745","2015-02-27 14:00","2015","02","27","14:00","-10.2","","-20.5","","42","","","","21","","12","","","","101.89","","","","-16","","NA"
"-73.58","45.50","MCTAVISH","7024745","2015-02-27 15:00","2015","02","27","15:00","-10.0","","-20.8","","41","","","","22","","12","","","","101.91","","","","-16","","NA"
"-73.58","45.50","MCTAVISH","7024745","2015-02-27 16:00","2015","02","27","16:00","-9.5","","-21.0","","39","","","","20","","9","","","","101.96","","","","-14","","NA"
"-73.58","45.50","MCTAVISH","7024745","2015-02-27 17:00","2015","02","27","17:00","-9.8","","-21.6","","38","","","","19","","8","","","","102.00","","","","-14","","NA"
"-73.58","45.50","MCTAVISH","7024745","2015-02-27 18:00","2015","02","27","18:00","-10.4","","-20.4","","44","","","","20","","7","","","","102.05","","","","-14","","NA"
"-73.58","45.50","MCTAVISH","7024745","2015-02-27 19:00","2015","02","27","19:00","-10.6","","-20.3","","45","","","","18","","6","","","","102.11","","","","-14","","NA"
"-73.58","45.50","MCTAVISH","7024745","2015-02-27 20:00","2015","02","27","20:00","-10.8","","-20.5","","45","","","","17","","9","","","","102.16","","","","-16","","NA"
"-73.58","45.50","MCTAVISH","7024745","2015-02-27 21:00","2015","02","27","21:00","-11.5","","-20.8","","46","","","","18","","10","","","","102.24","","","","-17","","NA"
"-73.58","45.50","MCTAVISH","7024745","2015-02-27 22:00","2015","02","27","22:00","-11.9","","-19.5","","53","","","","17","","9","","","","102.31","","","","-17","","NA"
"-73.58","45.50","MCTAVISH","7024745","2015-02-27 23:00","2015","02","27","23:00","-12.3","","-18.4","","60","","","","19","","9","","","","102.35","","","","-18","","NA"
"-73.58","45.50","MCTAVISH","7024745","2015-02-28 00:00","2015","02","28","00:00","-12.5","","-18.4","","62","","","","17","","8","","","","102.40","","","","-17","","NA"
"-73.58","45.50","MCTAVISH","7024745","2015-02-28 01:00","2015","02","28","01:00","-13.0","","-18.9","","61","","","","17","","7","","","","102.48","","","","-18","","NA"
"-73.58","45.50","MCTAVISH","7024745","2015-02-28 02:00","2015","02","28","02:00","-13.5","","-19.3","","62","","","","18","","8","","","","102.56","","","","-19","","NA"
"-73.58","45.50","MCTAVISH","7024745","2015-02-28 03:00","2015","02","28","03:00","-13.7","","-19.5","","62","","","","17","","9","","","","102.61","","","","-19","","NA"
"-73.58","45.50","MCTAVISH","7024745","2015-02-28 04:00","2015","02","28","04:00","-14.1","","-19.5","","63","","","","17","","8","","","","102.67","","","","-19","","NA"
"-73.58","45.50","MCTAVISH","7024745","2015-02-28 05:00","2015","02","28","05:00","-14.4","","-19.6","","65","","","","19","","9","","","","102.76","","","","-20","","NA"
"-73.58","45.50","MCTAVISH","7024745","2015-02-28 06:00","2015","02","28","06:00","-14.8","","-19.6","","67","","","","18","","8","","","","102.81","","","","-20","","NA"
"-73.58","45.50","MCTAVISH","7024745","2015-02-28 07:00","2015","02","28","07:00","-14.8","","-19.5","","67","","","","18","","7","","","","102.89","","","","-20","","NA"
"-73.58","45.50","MCTAVISH","7024745","2015-02-28 08:00","2015","02","28","08:00","-14.4","","-19.2","","67","","","","21","","11","","","","102.98","","","","-21","","NA"
"-73.58","45.50","MCTAVISH","7024745","2015-02-28 09:00","2015","02","28","09:00","-13.1","","-18.2","","66","","","","19","","11","","","","103.02","","","","-19","","NA"
"-73.58","45.50","MCTAVISH","7024745","2015-02-28 10:00","2015","02","28","10:00","-12.4","","-17.6","","65","","","","19","","11","","","","103.04","","","","-18","","NA"
"-73.58","45.50","MCTAVISH","7024745","2015-02-28 11:00","2015","02","28","11:00","-10.9","","-16.7","","62","","","","19","","10","","","","103.04","","","","-16","","NA"
"-73.58","45.50","MCTAVISH","7024745","2015-02-28 12:00","2015","02","28","12:00","-8.8","","-15.6","","58","","","","20","","10","","","","103.03","","","","-14","","NA"
"-73.58","45.50","MCTAVISH","7024745","2015-02-28 13:00","2015","02","28","13:00","-7.8","","-14.8","","57","","","","21","","14","","","","102.95","","","","-14","","NA"
"-73.58","45.50","MCTAVISH","7024745","2015-02-28 14:00","2015","02","28","14:00","-6.9","","-14.8","","53","","","","21","","12","","","","102.88","","","","-12","","NA"
"-73.58","45.50","MCTAVISH","7024745","2015-02-28 15:00","2015","02","28","15:00","-6.4","","-14.2","","54","","","","20","","12","","","","102.86","","","","-12","","NA"
"-73.58","45.50","MCTAVISH","7024745","2015-02-28 16:00","2015","02","28","16:00","-5.8","","-13.6","","54","","","","21","","10","","","","102.83","","","","-10","","NA"
"-73.58","45.50","MCTAVISH","7024745","2015-02-28 17:00","2015","02","28","17:00","-6.1","","-14.5","","51","","","","20","","10","","","","102.82","","","","-11","","NA"
"-73.58","45.50","MCTAVISH","7024745","2015-02-28 18:00","2015","02","28","18:00","-6.8","","-14.6","","54","","","","21","","7","","","","102.85","","","","-10","","NA"
"-73.58","45.50","MCTAVISH","7024745","2015-02-28 19:00","2015","02","28","19:00","-6.9","","-14.1","","56","","","","20","","9","","","","102.87","","","","-11","","NA"
"-73.58","45.50","MCTAVISH","7024745","2015-02-28 20:00","2015","02","28","20:00","-7.4","","-13.5","","62","","","","19","","8","","","","102.86","","","","-11","","NA"
"-73.58","45.50","MCTAVISH","7024745","2015-02-28 21:00","2015","02","28","21:00","-8.0","","-13.4","","65","","","","20","","9","","","","102.84","","","","-13","","NA"
"-73.58","45.50","MCTAVISH","7024745","2015-02-28 22:00","2015","02","28","22:00","-8.2","","-13.8","","64","","","","20","","12","","","","102.84","","","","-14","","NA"
"-73.58","45.50","MCTAVISH","7024745","2015-02-28 23:00","2015","02","28","23:00","-8.6","","-13.7","","67","","","","19","","11","","","","102.81","","","","-14","","NA"
